{
"type": "FeatureCollection",
"name": "visible",
"crs": { "type": "name", "properties": { "name": "urn:ogc:def:crs:OGC:1.3:CRS84" } },
"features": [
{ "type": "Feature", "properties": { }, "geometry": { "type": "Polygon", "coordinates": [ [ [ 56.244251937678165, 58.000679716961379 ], [ 56.244167354250855, 58.000679214577715 ], [ 56.244166407931182, 58.000724120937726 ], [ 56.244250991464369, 58.000724623322235 ], [ 56.244251937678165, 58.000679716961379 ] ] ] } },
{ "type": "Feature", "properties": { }, "geometry": { "type": "Polygon", "coordinates": [ [ [ 56.243907924119625, 58.000947145228778 ], [ 56.243823340068396, 58.000946642615013 ], [ 56.243822393308214, 58.000991548969573 ], [ 56.243906977465322, 58.000992051584205 ], [ 56.243907924119625, 58.000947145228778 ] ] ] } },
{ "type": "Feature", "properties": { }, "geometry": { "type": "Polygon", "coordinates": [ [ [ 56.245508409073324, 58.00127102880554 ], [ 56.245423824227153, 58.001270527253823 ], [ 56.24542287945885, 58.001315433622615 ], [ 56.245338294509622, 58.001314932013841 ], [ 56.24533640475277, 58.001404744748655 ], [ 56.245420989913761, 58.001405246359191 ], [ 56.245419100357353, 58.001495059094452 ], [ 56.245503685732928, 58.001495560650497 ], [ 56.245505575077573, 58.001405747913502 ], [ 56.24559016024422, 58.001406249411588 ], [ 56.245592049365783, 58.001316436671551 ], [ 56.245507464410899, 58.001315935175199 ], [ 56.245508409073324, 58.00127102880554 ] ] ] } },
{ "type": "Feature", "properties": { }, "geometry": { "type": "Polygon", "coordinates": [ [ [ 56.245754608791394, 58.001631784092204 ], [ 56.245670023089687, 58.001631282702206 ], [ 56.245670967560145, 58.001586376333108 ], [ 56.245501796376978, 58.001585373386177 ], [ 56.245499907009709, 58.001675186120551 ], [ 56.245415321210601, 58.001674684561024 ], [ 56.245413431620257, 58.001764497292356 ], [ 56.245159673604611, 58.001762992271217 ], [ 56.245158728487546, 58.001807898633757 ], [ 56.245327900706918, 58.001808902039137 ], [ 56.245326955798788, 58.001853808403105 ], [ 56.245580714466712, 58.001855313092136 ], [ 56.245582603644834, 58.00176550035868 ], [ 56.245667189661361, 58.001766001807503 ], [ 56.245669078616402, 58.001676189070963 ], [ 56.245753664423994, 58.001676690461835 ], [ 56.245754608791394, 58.001631784092204 ] ] ] } },
{ "type": "Feature", "properties": { }, "geometry": { "type": "Polygon", "coordinates": [ [ [ 56.253761790448436, 58.007113334158781 ], [ 56.253760855907338, 58.007158240571663 ], [ 56.253845454801969, 58.007158736613285 ], [ 56.253846389237147, 58.007113830199543 ], [ 56.253761790448436, 58.007113334158781 ] ] ] } },
{ "type": "Feature", "properties": { }, "geometry": { "type": "Polygon", "coordinates": [ [ [ 56.253586049550037, 58.007426686779858 ], [ 56.253585114777508, 58.007471593188733 ], [ 56.253415915524911, 58.007470600699811 ], [ 56.253416850509289, 58.007425694292657 ], [ 56.253247651479739, 58.007424701580526 ], [ 56.253244845882641, 58.007559420795843 ], [ 56.253414045547736, 58.00756041351314 ], [ 56.253413110554959, 58.0076053199193 ], [ 56.253497710497633, 58.007605816194463 ], [ 56.253498645384489, 58.00756090978745 ], [ 56.253583245224036, 58.007561406005522 ], [ 56.253582310443107, 58.007606312413394 ], [ 56.253751510342447, 58.007607304682551 ], [ 56.253753379477814, 58.00751749186302 ], [ 56.253837979219831, 58.007517987911527 ], [ 56.253839848132152, 58.007428175088926 ], [ 56.253924447665121, 58.007428671079481 ], [ 56.253926316354402, 58.007338858253867 ], [ 56.254010915678322, 58.00733935418647 ], [ 56.254012784144557, 58.00724954135783 ], [ 56.254097383259435, 58.00725003723246 ], [ 56.254098317382436, 58.007205130816793 ], [ 56.254013718373493, 58.007204634942994 ], [ 56.254014652599622, 58.00715972852786 ], [ 56.253845454801969, 58.007158736613285 ], [ 56.253843585923221, 58.007248549439829 ], [ 56.253758986816742, 58.007248053396488 ], [ 56.253757117714954, 58.00733786621997 ], [ 56.253672518399441, 58.007337370118648 ], [ 56.253670649074614, 58.007427182939118 ], [ 56.253586049550037, 58.007426686779858 ] ] ] } },
{ "type": "Feature", "properties": { }, "geometry": { "type": "Polygon", "coordinates": [ [ [ 56.249432216514151, 58.007806463378806 ], [ 56.249347616176593, 58.007805964400134 ], [ 56.249346676082524, 58.007850870762873 ], [ 56.249262075641845, 58.007850371727102 ], [ 56.249261135439028, 58.007895278088661 ], [ 56.249345735985635, 58.007895777125299 ], [ 56.249344795885932, 58.007940683487398 ], [ 56.249767799190813, 58.007943177831415 ], [ 56.249768738760878, 58.007898271465002 ], [ 56.249599537642332, 58.007897273897818 ], [ 56.249600477421446, 58.007852367532799 ], [ 56.24943127652601, 58.007851369742426 ], [ 56.249432216514151, 58.007806463378806 ] ] ] } },
{ "type": "Feature", "properties": { }, "geometry": { "type": "Polygon", "coordinates": [ [ [ 56.251459813113243, 58.007953141149088 ], [ 56.251375212390435, 58.007952643517427 ], [ 56.251374274830184, 58.00799754989994 ], [ 56.251458875658926, 58.007998047532453 ], [ 56.251459813113243, 58.007953141149088 ] ] ] } },
{ "type": "Feature", "properties": { }, "geometry": { "type": "Polygon", "coordinates": [ [ [ 56.254083371078728, 58.007923633428227 ], [ 56.253829568975881, 58.007922145596858 ], [ 56.253827700001999, 58.008011958412233 ], [ 56.253743099094791, 58.008011462354261 ], [ 56.253741229897869, 58.008101275166553 ], [ 56.253656628781592, 58.008100779050622 ], [ 56.253655694073011, 58.008145685455446 ], [ 56.2538248965202, 58.008146677632801 ], [ 56.253823962020668, 58.008191584038997 ], [ 56.253908563354393, 58.008192080044175 ], [ 56.253910432138802, 58.008102267229724 ], [ 56.253995033263465, 58.008102763176936 ], [ 56.25399690182482, 58.008012950359465 ], [ 56.254081502740426, 58.008013446248739 ], [ 56.254083371078728, 58.007923633428227 ] ] ] } },
{ "type": "Feature", "properties": { }, "geometry": { "type": "Polygon", "coordinates": [ [ [ 56.250610051940257, 58.008127787798948 ], [ 56.250525450821819, 58.008127289601489 ], [ 56.250527328074938, 58.008037476855364 ], [ 56.250611928981513, 58.008037975051103 ], [ 56.250614744522316, 58.007903255926877 ], [ 56.250445543347539, 58.007902259484361 ], [ 56.250446482067368, 58.007857353110694 ], [ 56.250361881590123, 58.007856854805951 ], [ 56.25036094276436, 58.007901761178758 ], [ 56.250276342184002, 58.007901262816915 ], [ 56.250275403249503, 58.00794616918855 ], [ 56.250360003935789, 58.007946667551238 ], [ 56.250358126270214, 58.008036480295203 ], [ 56.250273525372066, 58.008035981930774 ], [ 56.250272586429134, 58.008080888301386 ], [ 56.250357187433202, 58.008081386666689 ], [ 56.250352493206002, 58.008305918519227 ], [ 56.250606297824035, 58.008307413290666 ], [ 56.250608174887766, 58.008217600545457 ], [ 56.250692776220873, 58.00821809868841 ], [ 56.250693714642594, 58.008173192314459 ], [ 56.250609113415422, 58.008172694172359 ], [ 56.250610051940257, 58.008127787798948 ] ] ] } },
{ "type": "Feature", "properties": { }, "geometry": { "type": "Polygon", "coordinates": [ [ [ 56.251374274830184, 58.00799754989994 ], [ 56.251289674004255, 58.007997052211167 ], [ 56.251288736335269, 58.0080419585925 ], [ 56.251119534479976, 58.008040963044543 ], [ 56.251118596596328, 58.008085869423809 ], [ 56.251033995566964, 58.008085371564611 ], [ 56.251033057574581, 58.008130277942719 ], [ 56.250948456442096, 58.00812978002643 ], [ 56.250945642130297, 58.008264499156084 ], [ 56.25119944648953, 58.008265992744015 ], [ 56.251201322064631, 58.008176179986059 ], [ 56.251285923311464, 58.008176677734504 ], [ 56.251287798663476, 58.008086864973492 ], [ 56.251372399701268, 58.008087362663964 ], [ 56.251374274830184, 58.00799754989994 ] ] ] } },
{ "type": "Feature", "properties": { }, "geometry": { "type": "Polygon", "coordinates": [ [ [ 56.254333437790088, 58.008104746403518 ], [ 56.254248836654234, 58.008104250681221 ], [ 56.254249770618529, 58.008059344270073 ], [ 56.254165169591403, 58.008058848492411 ], [ 56.254164235521181, 58.008103754902692 ], [ 56.254079634390926, 58.008103259067944 ], [ 56.254077766030242, 58.008193071885835 ], [ 56.253993164690918, 58.008192575993128 ], [ 56.253991296107181, 58.008282388807984 ], [ 56.25416049921234, 58.008283380540604 ], [ 56.254162367372352, 58.00819356772233 ], [ 56.254246968717268, 58.008194063502572 ], [ 56.254247902687155, 58.008149157092078 ], [ 56.254332503928936, 58.00814965281522 ], [ 56.254333437790088, 58.008104746403518 ] ] ] } },
{ "type": "Feature", "properties": { }, "geometry": { "type": "Polygon", "coordinates": [ [ [ 56.254244166790848, 58.008328782732086 ], [ 56.254159565128141, 58.008328286949258 ], [ 56.254158631041143, 58.008373193357571 ], [ 56.25424323280977, 58.008373689141273 ], [ 56.254244166790848, 58.008328782732086 ] ] ] } },
{ "type": "Feature", "properties": { }, "geometry": { "type": "Polygon", "coordinates": [ [ [ 56.254073095079576, 58.008417603924798 ], [ 56.254157696951339, 58.008418099765578 ], [ 56.254158631041143, 58.008373193357571 ], [ 56.254074029275301, 58.008372697517672 ], [ 56.254073095079576, 58.008417603924798 ] ] ] } },
{ "type": "Feature", "properties": { }, "geometry": { "type": "Polygon", "coordinates": [ [ [ 56.254073095079576, 58.008417603924798 ], [ 56.253988493210599, 58.008417108027771 ], [ 56.253987558906147, 58.008462014433718 ], [ 56.254072160881051, 58.008462510331604 ], [ 56.254073095079576, 58.008417603924798 ] ] ] } },
{ "type": "Feature", "properties": { }, "geometry": { "type": "Polygon", "coordinates": [ [ [ 56.252290837838508, 58.00867661660552 ], [ 56.252375440287061, 58.008677113632416 ], [ 56.25237637661823, 58.008632207244446 ], [ 56.252207171935794, 58.008631213136169 ], [ 56.252208108476019, 58.008586306749642 ], [ 56.252038904016665, 58.008585312418148 ], [ 56.252039840765953, 58.008540406032992 ], [ 56.251870636529681, 58.00853941147826 ], [ 56.251871573488032, 58.008494505094532 ], [ 56.251786971480037, 58.00849400773366 ], [ 56.251787908541509, 58.008449101350465 ], [ 56.251872510443576, 58.008449598710456 ], [ 56.251874384346245, 58.008359785941302 ], [ 56.251958986039249, 58.008360283243327 ], [ 56.251960859718835, 58.008270470471146 ], [ 56.25204546120279, 58.00827096771522 ], [ 56.252046397932446, 58.008226061327775 ], [ 56.251877195179205, 58.008225066785116 ], [ 56.251878132117916, 58.008180160399085 ], [ 56.251708929587757, 58.00817916563323 ], [ 56.251707992437183, 58.008224072017548 ], [ 56.251623391070389, 58.008223574549405 ], [ 56.251621516548973, 58.00831338731534 ], [ 56.251536914973116, 58.008312889789266 ], [ 56.251535040228617, 58.008402702552132 ], [ 56.251450438443705, 58.008402204968085 ], [ 56.25144856347611, 58.008492017727924 ], [ 56.251363961482156, 58.008491520085911 ], [ 56.251361148691913, 58.008626239220625 ], [ 56.25161495563561, 58.008627731985776 ], [ 56.251614018351049, 58.008672638365958 ], [ 56.251952428072336, 58.008674627935619 ], [ 56.251950554342258, 58.008764440701881 ], [ 56.252035156991461, 58.008764937955441 ], [ 56.252034220228147, 58.008809844338941 ], [ 56.252118822986084, 58.008810341537128 ], [ 56.252119759643463, 58.00876543515276 ], [ 56.252204362298272, 58.008765932293841 ], [ 56.252205298846917, 58.008721025908287 ], [ 56.252289901398605, 58.008721522992268 ], [ 56.252290837838508, 58.00867661660552 ] ] ] } },
{ "type": "Feature", "properties": { }, "geometry": { "type": "Polygon", "coordinates": [ [ [ 56.249330694052631, 58.008614278879378 ], [ 56.249246091811152, 58.008613779828899 ], [ 56.24924515156048, 58.008658686184866 ], [ 56.249329753907894, 58.008659185236226 ], [ 56.249330694052631, 58.008614278879378 ] ] ] } },
{ "type": "Feature", "properties": { }, "geometry": { "type": "Polygon", "coordinates": [ [ [ 56.253218659094415, 58.008816799996019 ], [ 56.253049453508467, 58.008815807005547 ], [ 56.253050389000578, 58.008770900611701 ], [ 56.252881183637697, 58.008769907398026 ], [ 56.252882119338871, 58.00872500100558 ], [ 56.252966721912976, 58.008725497639674 ], [ 56.252967657505415, 58.008680591246019 ], [ 56.253136862450162, 58.00868158434379 ], [ 56.25313873320291, 58.008591771552062 ], [ 56.253223335467624, 58.00859226801488 ], [ 56.25322427073386, 58.008547361617666 ], [ 56.253139668575081, 58.008546865155701 ], [ 56.253140603944452, 58.008501958759041 ], [ 56.252971399847162, 58.008500965668169 ], [ 56.252972335425596, 58.008456059272874 ], [ 56.252803131551374, 58.008455065958778 ], [ 56.252802195761085, 58.008499972352332 ], [ 56.252717593722238, 58.008499475610073 ], [ 56.252713850109309, 58.008679101177606 ], [ 56.252629247649537, 58.008678604375646 ], [ 56.252628311633366, 58.008723510765854 ], [ 56.252543709070473, 58.008723013906817 ], [ 56.25254277294556, 58.008767920295803 ], [ 56.252627375614395, 58.008768417155721 ], [ 56.252626439592611, 58.008813323545255 ], [ 56.25271104237018, 58.008813820349772 ], [ 56.252709170530082, 58.008903633129592 ], [ 56.252878376517359, 58.008904626573418 ], [ 56.25287744080498, 58.008949532964529 ], [ 56.253215853236888, 58.008951519180748 ], [ 56.253216788525535, 58.008906612786177 ], [ 56.253301391534578, 58.008907109198766 ], [ 56.25330232671449, 58.008862202803002 ], [ 56.253217723811375, 58.008861706391251 ], [ 56.253218659094415, 58.008816799996019 ] ] ] } },
{ "type": "Feature", "properties": { }, "geometry": { "type": "Polygon", "coordinates": [ [ [ 56.248555157212856, 58.00928338060158 ], [ 56.248639761020819, 58.009283880114943 ], [ 56.248640702052462, 58.009238973769655 ], [ 56.248725305757311, 58.009239473225911 ], [ 56.248726246680199, 58.009194566879408 ], [ 56.248810850281934, 58.009195066278565 ], [ 56.248812731907393, 58.009105253582838 ], [ 56.248897335300065, 58.00910575292405 ], [ 56.248899216702377, 58.009015940225297 ], [ 56.248983819886, 58.009016439508521 ], [ 56.24898570106518, 58.008926626806705 ], [ 56.249070304039748, 58.008927126031971 ], [ 56.249072184995796, 58.008837313327099 ], [ 56.249156787761308, 58.008837812494399 ], [ 56.249158668494225, 58.0087479997865 ], [ 56.249243271050688, 58.008748498895834 ], [ 56.24924515156048, 58.008658686184866 ], [ 56.249075946874108, 58.008657687913455 ], [ 56.249075006408745, 58.008702594267369 ], [ 56.248990403963852, 58.008702095046438 ], [ 56.248989463389755, 58.008747001399151 ], [ 56.248904860841741, 58.008746502121106 ], [ 56.248902979473215, 58.008836314823817 ], [ 56.248818376716159, 58.008835815487828 ], [ 56.248816495124501, 58.008925628187477 ], [ 56.248731892158389, 58.008925128793514 ], [ 56.248729069431974, 58.009059847837939 ], [ 56.248644466150871, 58.009059348385151 ], [ 56.248641643081292, 58.009194067424019 ], [ 56.248472435891927, 58.009193068344501 ], [ 56.248470553407714, 58.009282881031957 ], [ 56.248385949605378, 58.009282381406116 ], [ 56.248384066898012, 58.009372194090552 ], [ 56.248299462886635, 58.009371694406738 ], [ 56.248297579956116, 58.009461507088105 ], [ 56.248382184179377, 58.009462006773653 ], [ 56.248383125540109, 58.009417100432266 ], [ 56.248467729660241, 58.009417600060715 ], [ 56.248469612161372, 58.00932778737522 ], [ 56.248554216072456, 58.009328286945696 ], [ 56.248555157212856, 58.00928338060158 ] ] ] } },
{ "type": "Feature", "properties": { }, "geometry": { "type": "Polygon", "coordinates": [ [ [ 56.252019231633639, 58.009528346430272 ], [ 56.25227304500082, 58.00952983789751 ], [ 56.25227210850764, 58.009574744277998 ], [ 56.252441317644994, 58.009575738310033 ], [ 56.252440381360891, 58.009620644691921 ], [ 56.252609590721335, 58.009621638500739 ], [ 56.252610526793561, 58.009576732117104 ], [ 56.25269513137205, 58.009577228936287 ], [ 56.25269700329622, 58.009487416166344 ], [ 56.2525277945658, 58.009486422475184 ], [ 56.252528730735563, 58.009441516091428 ], [ 56.252359522228232, 58.009440522177059 ], [ 56.252360458607065, 58.009395615794716 ], [ 56.252191250322824, 58.009394621657094 ], [ 56.252192186910733, 58.009349715276151 ], [ 56.252022978849588, 58.009348720915334 ], [ 56.252023915646561, 58.009303814535762 ], [ 56.251939311726133, 58.009303317271865 ], [ 56.251937437917505, 58.009393130028933 ], [ 56.251852833788007, 58.009392632707076 ], [ 56.251851896773552, 58.009437539084225 ], [ 56.252021105247231, 58.009438533673446 ], [ 56.252020168441838, 58.009483440052037 ], [ 56.251935564097657, 58.009482942784665 ], [ 56.25193462718353, 58.009527849162048 ], [ 56.251850022736214, 58.009527351837598 ], [ 56.251849085713339, 58.009572258213765 ], [ 56.251764481162887, 58.009571760832216 ], [ 56.251759795476715, 58.009796292703925 ], [ 56.251844400556863, 58.009796790089794 ], [ 56.251846274627866, 58.009706977340386 ], [ 56.251930879498936, 58.009707474668275 ], [ 56.251932753346843, 58.009617661915826 ], [ 56.252017358008835, 58.009618159185763 ], [ 56.252019231633639, 58.009528346430272 ] ] ] } },
{ "type": "Feature", "properties": { }, "geometry": { "type": "Polygon", "coordinates": [ [ [ 56.246433456349351, 58.009585218740405 ], [ 56.246348851873194, 58.009584717758806 ], [ 56.246346964041287, 58.009674530396943 ], [ 56.246262359356081, 58.00967402935737 ], [ 56.246261415329947, 58.009718935675089 ], [ 56.246176810541627, 58.009718434578396 ], [ 56.246174922268999, 58.009808247211112 ], [ 56.246513342286754, 58.009810251267375 ], [ 56.246514286000718, 58.009765344947709 ], [ 56.246598890906284, 58.009765845820318 ], [ 56.246601721713418, 58.009631126856753 ], [ 56.246432512540743, 58.009630125060511 ], [ 56.246433456349351, 58.009585218740405 ] ] ] } },
{ "type": "Feature", "properties": { }, "geometry": { "type": "Polygon", "coordinates": [ [ [ 56.246089373025129, 58.009852652371428 ], [ 56.246173978128446, 58.009853153526976 ], [ 56.246174922268999, 58.009808247211112 ], [ 56.246090317271623, 58.009807746056445 ], [ 56.246089373025129, 58.009852652371428 ] ] ] } },
{ "type": "Feature", "properties": { }, "geometry": { "type": "Polygon", "coordinates": [ [ [ 56.254882103823327, 58.006131836889821 ], [ 56.254712910842024, 58.006130846139435 ], [ 56.254711977527542, 58.006175752569042 ], [ 56.25488117072068, 58.006176743321134 ], [ 56.254882103823327, 58.006131836889821 ] ] ] } },
{ "type": "Feature", "properties": { }, "geometry": { "type": "Polygon", "coordinates": [ [ [ 56.25657496523214, 58.006096825574254 ], [ 56.256236579481076, 58.006094848350401 ], [ 56.256235648075865, 58.006139754795754 ], [ 56.25632024461536, 58.006140249186927 ], [ 56.256319313313277, 58.006185155632821 ], [ 56.256488506612477, 58.00618614424819 ], [ 56.256487575519444, 58.006231050695462 ], [ 56.256741365806889, 58.006232533199345 ], [ 56.256742296582182, 58.006187626749487 ], [ 56.256657699922833, 58.006187132638622 ], [ 56.256658630801248, 58.006142226189283 ], [ 56.25657403425059, 58.006141732023046 ], [ 56.25657496523214, 58.006096825574254 ] ] ] } },
{ "type": "Feature", "properties": { }, "geometry": { "type": "Polygon", "coordinates": [ [ [ 56.25488117072068, 58.006176743321134 ], [ 56.254880237615239, 58.006221649752106 ], [ 56.255049431031388, 58.006222640281003 ], [ 56.255050363924994, 58.006177733848304 ], [ 56.25488117072068, 58.006176743321134 ] ] ] } },
{ "type": "Feature", "properties": { }, "geometry": { "type": "Polygon", "coordinates": [ [ [ 56.255554214555758, 58.006360329829739 ], [ 56.255553282286478, 58.006405236266268 ], [ 56.255722476594627, 58.006406225902346 ], [ 56.255721544534396, 58.006451132340288 ], [ 56.256059933607851, 58.006453110941109 ], [ 56.256060865244415, 58.006408204499756 ], [ 56.255807073752891, 58.006406720636051 ], [ 56.255808005704417, 58.006361814196943 ], [ 56.255638811602523, 58.006360824675042 ], [ 56.255639743763091, 58.006315918237306 ], [ 56.255470549884194, 58.006314928492202 ], [ 56.255471482253803, 58.006270022055865 ], [ 56.255302288597903, 58.006269032087573 ], [ 56.255303221176547, 58.006224125652622 ], [ 56.255049431031388, 58.006222640281003 ], [ 56.25504849813499, 58.006267546713367 ], [ 56.255217691774135, 58.006268537019054 ], [ 56.255216759086771, 58.006313443452811 ], [ 56.255385952948927, 58.006314433535302 ], [ 56.255385020470605, 58.006359339970444 ], [ 56.255554214555758, 58.006360329829739 ] ] ] } },
{ "type": "Feature", "properties": { }, "geometry": { "type": "Polygon", "coordinates": [ [ [ 56.256146393941698, 58.006363792565971 ], [ 56.256061796878186, 58.006363298058062 ], [ 56.256060865244415, 58.006408204499756 ], [ 56.256145462413841, 58.006408699008546 ], [ 56.256146393941698, 58.006363792565971 ] ] ] } },
{ "type": "Feature", "properties": { }, "geometry": { "type": "Polygon", "coordinates": [ [ [ 56.254869973271035, 58.006715620471148 ], [ 56.254954571142804, 58.006716115773166 ], [ 56.254956437200505, 58.006626302916409 ], [ 56.255041034863233, 58.006626798160475 ], [ 56.25504290069793, 58.006536985300684 ], [ 56.255127498151609, 58.006537480486791 ], [ 56.255131229363819, 58.006357854759798 ], [ 56.255046632333809, 58.006357359577102 ], [ 56.255047565235792, 58.006312453145405 ], [ 56.254878371395982, 58.006311462613048 ], [ 56.254879304507007, 58.006266556182744 ], [ 56.254794707697215, 58.006266060833084 ], [ 56.254793774480277, 58.006310967262536 ], [ 56.254709177567349, 58.006310471855805 ], [ 56.254707310913261, 58.006400284712029 ], [ 56.254876505165555, 58.006401275472712 ], [ 56.25487370579895, 58.006535994759751 ], [ 56.254789108353656, 58.006535499404926 ], [ 56.254787241883442, 58.006625312259601 ], [ 56.254702644229106, 58.006624816846823 ], [ 56.254700777535881, 58.006714629698429 ], [ 56.254616179672496, 58.006714134227728 ], [ 56.254613379293943, 58.006848853500102 ], [ 56.254190388430146, 58.006846375290188 ], [ 56.254189454435448, 58.00689128170935 ], [ 56.254104856165149, 58.006890785897824 ], [ 56.254103922061724, 58.0069356923158 ], [ 56.25427311881694, 58.006936683884369 ], [ 56.254272184922563, 58.006981590303752 ], [ 56.254695177389145, 58.006984068245401 ], [ 56.254696110753919, 58.006939161821727 ], [ 56.254780709149699, 58.006939657240494 ], [ 56.254782575659029, 58.006849844390452 ], [ 56.25486717384576, 58.006850339751267 ], [ 56.254869973271035, 58.006715620471148 ] ] ] } },
{ "type": "Feature", "properties": { }, "geometry": { "type": "Polygon", "coordinates": [ [ [ 56.256470815368026, 58.007039366690414 ], [ 56.256386216704577, 58.007038872394546 ], [ 56.256384354197934, 58.007128685274601 ], [ 56.256468953073224, 58.007129179572161 ], [ 56.256469884222021, 58.007084273131454 ], [ 56.256554482994183, 58.007084767371943 ], [ 56.256556345071566, 58.006994954487823 ], [ 56.256471746511245, 58.006994460249047 ], [ 56.256470815368026, 58.007039366690414 ] ] ] } },
{ "type": "Feature", "properties": { }, "geometry": { "type": "Polygon", "coordinates": [ [ [ 56.255622964445806, 58.007124234066019 ], [ 56.255538365598412, 58.007123739206115 ], [ 56.255543027140199, 58.006899207046459 ], [ 56.2554584288252, 58.006898712134607 ], [ 56.255456564005023, 58.006988524997766 ], [ 56.255371965480975, 58.006988030027976 ], [ 56.25537010043778, 58.007077842888094 ], [ 56.255454699173669, 58.007078337859589 ], [ 56.255452834331159, 58.007168150720091 ], [ 56.255368235383422, 58.007167655746862 ], [ 56.255367302852058, 58.007212562175759 ], [ 56.255451901905715, 58.007213057149826 ], [ 56.255450969477472, 58.007257963579278 ], [ 56.255620167805013, 58.007258953360456 ], [ 56.255619235585826, 58.007303859791243 ], [ 56.255703834859709, 58.007304354598368 ], [ 56.255704766972968, 58.007259448166685 ], [ 56.255789366143709, 58.007259942916676 ], [ 56.25579123015001, 58.007170130050625 ], [ 56.255622032235003, 58.007169140497815 ], [ 56.255622964445806, 58.007124234066019 ] ] ] } },
{ "type": "Feature", "properties": { }, "geometry": { "type": "Polygon", "coordinates": [ [ [ 56.256384354197934, 58.007128685274601 ], [ 56.256299755325422, 58.00712819092081 ], [ 56.256298823961998, 58.007173097359463 ], [ 56.256383422940424, 58.007173591714128 ], [ 56.256384354197934, 58.007128685274601 ] ] ] } },
{ "type": "Feature", "properties": { }, "geometry": { "type": "Polygon", "coordinates": [ [ [ 56.256127762854589, 58.007261921354377 ], [ 56.25612589968452, 58.007351734225971 ], [ 56.256210499081064, 58.007352228696519 ], [ 56.256212362039292, 58.007262415823206 ], [ 56.256127762854589, 58.007261921354377 ] ] ] } },
{ "type": "Feature", "properties": { }, "geometry": { "type": "Polygon", "coordinates": [ [ [ 56.256375972779992, 58.007532843218506 ], [ 56.256375041497385, 58.007577749655077 ], [ 56.256544241369241, 58.007578738211151 ], [ 56.256543310295704, 58.007623644649094 ], [ 56.256712510390557, 58.007624632981944 ], [ 56.256711579526083, 58.007669539421258 ], [ 56.256880779843939, 58.007670527530898 ], [ 56.256881710496558, 58.007625621089851 ], [ 56.256797110442164, 58.007625127064017 ], [ 56.256798041197925, 58.007580220623481 ], [ 56.256713441252245, 58.007579726542261 ], [ 56.256714372111148, 58.007534820102258 ], [ 56.256545172439992, 58.007533831772854 ], [ 56.256546103507958, 58.007488925334215 ], [ 56.25620770462281, 58.007486948004043 ], [ 56.25620863611168, 58.007442041568517 ], [ 56.256124036503294, 58.007441547096256 ], [ 56.25612589968452, 58.007351734225971 ], [ 56.256041300290768, 58.007351239699183 ], [ 56.256039436897687, 58.007441052567749 ], [ 56.255954837294873, 58.00744055798301 ], [ 56.255953905488226, 58.00748546441595 ], [ 56.25612310490849, 58.007486453530902 ], [ 56.256122173310899, 58.007531359965242 ], [ 56.256375972779992, 58.007532843218506 ] ] ] } },
{ "type": "Feature", "properties": { }, "geometry": { "type": "Polygon", "coordinates": [ [ [ 56.254597510007002, 58.007612262654384 ], [ 56.254682109988835, 58.00761275814228 ], [ 56.254683043392738, 58.007567851723238 ], [ 56.254513843643714, 58.007566860692904 ], [ 56.254514777256674, 58.007521954275219 ], [ 56.254599377023858, 58.007522449817621 ], [ 56.254601244029537, 58.007432636979559 ], [ 56.254685843587673, 58.007433132464016 ], [ 56.254688643757461, 58.007298413201895 ], [ 56.254519445279534, 58.007297422181892 ], [ 56.254520378875718, 58.007252515762239 ], [ 56.254351180620816, 58.007251524519027 ], [ 56.254350246812777, 58.007296430936954 ], [ 56.254265647583601, 58.00729593523014 ], [ 56.254263779747305, 58.0073857480633 ], [ 56.254348379188329, 58.007386243771833 ], [ 56.254347445371906, 58.007431150188779 ], [ 56.254432044921657, 58.007431645841947 ], [ 56.254431111208369, 58.007476552259405 ], [ 56.254261911899818, 58.007475560895138 ], [ 56.254258176171298, 58.007655186554906 ], [ 56.254173576097514, 58.007654690784967 ], [ 56.254171708004627, 58.007744503611143 ], [ 56.254087107721787, 58.007744007783252 ], [ 56.254085239405853, 58.007833820606415 ], [ 56.254169839900548, 58.007834316436011 ], [ 56.254168905844303, 58.007879222847954 ], [ 56.25442270766294, 58.007880710001935 ], [ 56.254424575137051, 58.007790897172541 ], [ 56.254509175537002, 58.007791392776355 ], [ 56.254511042788074, 58.007701579943969 ], [ 56.254595642978963, 58.007702075489817 ], [ 56.254597510007002, 58.007612262654384 ] ] ] } },
{ "type": "Feature", "properties": { }, "geometry": { "type": "Polygon", "coordinates": [ [ [ 56.255358909944093, 58.007616720021097 ], [ 56.255443509951071, 58.007617215002888 ], [ 56.255445374849423, 58.007527402148952 ], [ 56.255360775054299, 58.007526907168881 ], [ 56.255361707605211, 58.007482000742264 ], [ 56.255192508235183, 58.007481010615109 ], [ 56.255193440995157, 58.0074361041899 ], [ 56.255024241848155, 58.007435113839534 ], [ 56.255023308876339, 58.007480020263039 ], [ 56.254938709201106, 58.007479525002644 ], [ 56.254937776120563, 58.007524431424955 ], [ 56.255022375901724, 58.007524926686209 ], [ 56.255019576961125, 58.00765964595373 ], [ 56.254934976862188, 58.007659150689882 ], [ 56.254934043770476, 58.007704057110892 ], [ 56.254849443568403, 58.007703561789981 ], [ 56.254850376766043, 58.007658655369823 ], [ 56.254765776672691, 58.007658159993532 ], [ 56.254763910062771, 58.007747972831773 ], [ 56.254679309760363, 58.007747477397523 ], [ 56.254678376345282, 58.007792383815271 ], [ 56.254762976753618, 58.007792879250374 ], [ 56.254762043441666, 58.00783778566867 ], [ 56.25493124447857, 58.007838776371891 ], [ 56.254930311375681, 58.007883682791572 ], [ 56.255184113269777, 58.007885168427229 ], [ 56.255185978837197, 58.007795355582402 ], [ 56.255270579262294, 58.007795850680097 ], [ 56.255272444606689, 58.007706037832236 ], [ 56.255357044822723, 58.007706532872007 ], [ 56.255358909944093, 58.007616720021097 ] ] ] } },
{ "type": "Feature", "properties": { }, "geometry": { "type": "Polygon", "coordinates": [ [ [ 56.256031051490744, 58.007845210460083 ], [ 56.256115652049679, 58.007845704996328 ], [ 56.25611844689265, 58.007710985699262 ], [ 56.255864646177557, 58.007709501929597 ], [ 56.255862782316143, 58.007799314789473 ], [ 56.255778181871499, 58.007798820085412 ], [ 56.255775385740662, 58.007933539370207 ], [ 56.255690784981027, 58.00793304460732 ], [ 56.255688920667993, 58.008022857460503 ], [ 56.255773521639476, 58.008023352225081 ], [ 56.255772589584701, 58.008068258652045 ], [ 56.256026392833689, 58.008069742610985 ], [ 56.25602825630488, 58.00797992975162 ], [ 56.255943655430947, 58.007979435156599 ], [ 56.255944587268289, 58.007934528727262 ], [ 56.256029188036294, 58.007935023321437 ], [ 56.256031051490744, 58.007845210460083 ] ] ] } },
{ "type": "Feature", "properties": { }, "geometry": { "type": "Polygon", "coordinates": [ [ [ 56.254587241214423, 58.008106233232986 ], [ 56.254502640070179, 58.008105737679401 ], [ 56.254501706420889, 58.008150644092837 ], [ 56.254840111438334, 58.008152625973224 ], [ 56.254841977886699, 58.008062813139176 ], [ 56.254672775796102, 58.008061822314893 ], [ 56.254673709227959, 58.008016915899127 ], [ 56.254589108292777, 58.008016420403479 ], [ 56.254587241214423, 58.008106233232986 ] ] ] } },
{ "type": "Feature", "properties": { }, "geometry": { "type": "Polygon", "coordinates": [ [ [ 56.254754576845471, 58.008197037003136 ], [ 56.254669975483779, 58.008196541560281 ], [ 56.254669042040753, 58.008241447974733 ], [ 56.254753643508373, 58.008241943418454 ], [ 56.254754576845471, 58.008197037003136 ] ] ] } },
{ "type": "Feature", "properties": { }, "geometry": { "type": "Polygon", "coordinates": [ [ [ 56.255853462841607, 58.008248379069208 ], [ 56.255768861337678, 58.008247884356571 ], [ 56.255767929268949, 58.008292790781866 ], [ 56.255852530878805, 58.008293285495377 ], [ 56.255853462841607, 58.008248379069208 ] ] ] } },
{ "type": "Feature", "properties": { }, "geometry": { "type": "Polygon", "coordinates": [ [ [ 56.255685192008414, 58.008202483162904 ], [ 56.255515989226389, 58.008201493458138 ], [ 56.255516921607324, 58.008156587034755 ], [ 56.255432320326427, 58.008156092098879 ], [ 56.255431387839558, 58.008200998521417 ], [ 56.255346786455519, 58.008200503528442 ], [ 56.255343988660371, 58.008335222791466 ], [ 56.255259386961342, 58.008334727739694 ], [ 56.255257521538745, 58.008424540578368 ], [ 56.255426725363336, 58.008425530629111 ], [ 56.255429522857447, 58.008290811365477 ], [ 56.25559872605762, 58.008291801186139 ], [ 56.255599658338205, 58.00824689476255 ], [ 56.255684259836549, 58.008247389587666 ], [ 56.255685192008414, 58.008202483162904 ] ] ] } },
{ "type": "Feature", "properties": { }, "geometry": { "type": "Polygon", "coordinates": [ [ [ 56.256021734106888, 58.00829427475368 ], [ 56.255852530878805, 58.008293285495377 ], [ 56.255851598913218, 58.008338191921204 ], [ 56.255936200631794, 58.008338686579343 ], [ 56.255935268769342, 58.008383593005689 ], [ 56.256019870596639, 58.008384087608441 ], [ 56.256018938837322, 58.008428994035341 ], [ 56.256103540773346, 58.008429488582728 ], [ 56.256102609117178, 58.008474395010161 ], [ 56.256187211161915, 58.008474889502168 ], [ 56.25618627960889, 58.008519795930106 ], [ 56.256270881762354, 58.008520290366725 ], [ 56.256273676095269, 58.008385571079309 ], [ 56.256189074259602, 58.008385076645268 ], [ 56.256190005804257, 58.008340170216336 ], [ 56.256020802353156, 58.008339181181228 ], [ 56.256021734106888, 58.00829427475368 ] ] ] } },
{ "type": "Feature", "properties": { }, "geometry": { "type": "Polygon", "coordinates": [ [ [ 56.254994385364306, 58.008872119228307 ], [ 56.255078988326154, 58.008872614459101 ], [ 56.255079921278643, 58.00882770804494 ], [ 56.255164524137349, 58.008828203218641 ], [ 56.25516638982208, 58.008738390387606 ], [ 56.255250992471709, 58.008738885503355 ], [ 56.255256588823265, 58.008469446997196 ], [ 56.255171986809231, 58.008468951886627 ], [ 56.255170121158017, 58.008558764721592 ], [ 56.255085518934912, 58.008558269553056 ], [ 56.255084585999185, 58.008603175969206 ], [ 56.254999983672938, 58.008602680743572 ], [ 56.254998117581238, 58.008692493573115 ], [ 56.254913515045921, 58.008691998289535 ], [ 56.254911648731181, 58.00878181111608 ], [ 56.254827045986787, 58.00878131577452 ], [ 56.254825179448993, 58.008871128598024 ], [ 56.254740576495529, 58.008870633198534 ], [ 56.254739643116508, 58.008915539608928 ], [ 56.254824246175907, 58.0089160350093 ], [ 56.254823312900029, 58.00896094142022 ], [ 56.2550771224128, 58.008962427286448 ], [ 56.255076189451927, 58.009007333699621 ], [ 56.25516079273438, 58.009007828876754 ], [ 56.255162658441449, 58.008918016048369 ], [ 56.25499345230309, 58.008917025641296 ], [ 56.254994385364306, 58.008872119228307 ] ] ] } },
{ "type": "Feature", "properties": { }, "geometry": { "type": "Polygon", "coordinates": [ [ [ 56.254565769009709, 58.009139080677961 ], [ 56.25448116542902, 58.009138585104601 ], [ 56.254476496833071, 58.009363117130569 ], [ 56.254561100943448, 58.009363612708228 ], [ 56.254560167321806, 58.009408519113286 ], [ 56.254644771540917, 58.009409014635573 ], [ 56.254646638569525, 58.009319201823402 ], [ 56.254731242579552, 58.009319697287722 ], [ 56.254733109385107, 58.009229884472511 ], [ 56.254817713186064, 58.009230379878872 ], [ 56.254818646478711, 58.009185473469941 ], [ 56.254987853877118, 58.009186464112247 ], [ 56.254986920796348, 58.009231370522919 ], [ 56.255156128417809, 58.009232360942001 ], [ 56.255155195546116, 58.009277267354086 ], [ 56.255239799466978, 58.009277762480131 ], [ 56.255243530513241, 58.009098136826459 ], [ 56.255074323521811, 58.009097146525008 ], [ 56.255075256488269, 58.009052240112474 ], [ 56.254906049719885, 58.009051249587785 ], [ 56.254906982895413, 58.009006343176651 ], [ 56.254822379621352, 58.009005847830807 ], [ 56.254823312900029, 58.00896094142022 ], [ 56.254738709734696, 58.008960446018996 ], [ 56.25473777635009, 58.009005352428744 ], [ 56.254653173081607, 58.009004856970435 ], [ 56.254651306092128, 58.00909466978721 ], [ 56.254566702614582, 58.009094174270949 ], [ 56.254565769009709, 58.009139080677961 ] ] ] } },
{ "type": "Feature", "properties": { }, "geometry": { "type": "Polygon", "coordinates": [ [ [ 56.255136537525637, 58.010175395526375 ], [ 56.254967325454679, 58.010174405071204 ], [ 56.254968258594126, 58.010129498667432 ], [ 56.254799046746236, 58.010128507989009 ], [ 56.254799980094774, 58.010083601586643 ], [ 56.254630768469944, 58.010082610684996 ], [ 56.254631702027581, 58.010037704284002 ], [ 56.254462490625819, 58.010036713159117 ], [ 56.25446342439254, 58.009991806759523 ], [ 56.254294213213839, 58.009990815411399 ], [ 56.254295147189652, 58.009945909013204 ], [ 56.254125936234033, 58.009944917441864 ], [ 56.254126870418929, 58.009900011045026 ], [ 56.254042265051254, 58.009899515175853 ], [ 56.254040396466777, 58.009989327967453 ], [ 56.253955790890018, 58.009988832040314 ], [ 56.253954856487645, 58.010033738434757 ], [ 56.254124067855848, 58.010034730234501 ], [ 56.254123133662553, 58.010079636630358 ], [ 56.254292345253837, 58.010080628206843 ], [ 56.254291411269634, 58.010125534604086 ], [ 56.254460623083986, 58.01012652595734 ], [ 56.254459689308874, 58.010171432355961 ], [ 56.254628901346294, 58.010172423485983 ], [ 56.254627967780273, 58.010217329885997 ], [ 56.254797180040768, 58.010218320792809 ], [ 56.254796246683838, 58.010263227194194 ], [ 56.254965459167401, 58.010264217877761 ], [ 56.25496452601957, 58.010309124280546 ], [ 56.255133738726194, 58.010310114740861 ], [ 56.255132805787461, 58.010355021145052 ], [ 56.255302018717146, 58.010356011382136 ], [ 56.255301085987504, 58.010400917787713 ], [ 56.255385692562491, 58.010401412822752 ], [ 56.25538849042519, 58.010266693602489 ], [ 56.255303884168043, 58.010266198570022 ], [ 56.255304816889307, 58.010221292163465 ], [ 56.255135604595282, 58.010220301931518 ], [ 56.255136537525637, 58.010175395526375 ] ] ] } },
{ "type": "Feature", "properties": { }, "geometry": { "type": "Polygon", "coordinates": [ [ [ 56.258374709185908, 58.004984529462781 ], [ 56.258290115333267, 58.004984036443375 ], [ 56.258289186539557, 58.005028942917519 ], [ 56.25837378049809, 58.005029435937786 ], [ 56.258374709185908, 58.004984529462781 ] ] ] } },
{ "type": "Feature", "properties": { }, "geometry": { "type": "Polygon", "coordinates": [ [ [ 56.259547896770144, 58.005530303652442 ], [ 56.259378706448025, 58.005529319111282 ], [ 56.259379633895492, 58.005484412629656 ], [ 56.259210443796306, 58.005483427865286 ], [ 56.259211371452814, 58.005438521385031 ], [ 56.259126776513298, 58.005438028919329 ], [ 56.259127704272935, 58.005393122439607 ], [ 56.258958514614051, 58.005392137341275 ], [ 56.258959442582736, 58.005347230862931 ], [ 56.258790253146799, 58.005346245541389 ], [ 56.258791181324519, 58.005301339064431 ], [ 56.258621992111507, 58.005300353519701 ], [ 56.258622920498276, 58.005255447044078 ], [ 56.258453731508204, 58.005254461276152 ], [ 56.258454660104, 58.00520955480193 ], [ 56.258370065719049, 58.005209061834492 ], [ 56.258371923114126, 58.005119248886778 ], [ 56.258287328943773, 58.005118755864814 ], [ 56.258288257743054, 58.005073849391323 ], [ 56.258203663681385, 58.005073356313979 ], [ 56.258199019127638, 58.005297888673859 ], [ 56.258283613718852, 58.00529838175548 ], [ 56.258282684905673, 58.005343288227323 ], [ 56.258451874308257, 58.005344274223589 ], [ 56.258450945704112, 58.005389180696817 ], [ 56.258620135329643, 58.005390166469873 ], [ 56.25861920693454, 58.005435072944479 ], [ 56.258788396783011, 58.005436058494354 ], [ 56.25878746859695, 58.005480964970339 ], [ 56.25895665866836, 58.005481950297003 ], [ 56.258955730691341, 58.005526856774345 ], [ 56.25904032583712, 58.005527349354203 ], [ 56.259039397963235, 58.005572255832092 ], [ 56.259208588474955, 58.005573240824816 ], [ 56.259207660810119, 58.005618147304077 ], [ 56.259376851544772, 58.005619132073576 ], [ 56.259375924088985, 58.005664038554222 ], [ 56.259629710529524, 58.005665515289323 ], [ 56.259628783388692, 58.0057104217722 ], [ 56.259797974574759, 58.005711405982808 ], [ 56.259797047642977, 58.005756312467085 ], [ 56.259966239051977, 58.005757296454512 ], [ 56.259969019203517, 58.005622576995606 ], [ 56.259799828429998, 58.005621593013316 ], [ 56.25980075535346, 58.005576686528052 ], [ 56.259546969531726, 58.005575210135468 ], [ 56.259547896770144, 58.005530303652442 ] ] ] } },
{ "type": "Feature", "properties": { }, "geometry": { "type": "Polygon", "coordinates": [ [ [ 56.256915212135226, 58.006008988992981 ], [ 56.256830615893961, 58.006008494997992 ], [ 56.256829685235729, 58.006053401450018 ], [ 56.256914281582915, 58.006053895445866 ], [ 56.256915212135226, 58.006008988992981 ] ] ] } },
{ "type": "Feature", "properties": { }, "geometry": { "type": "Polygon", "coordinates": [ [ [ 56.25682875457472, 58.006098307901723 ], [ 56.256744158124405, 58.006097813848783 ], [ 56.25674322735469, 58.006142720299295 ], [ 56.256827823910911, 58.006143214353095 ], [ 56.25682875457472, 58.006098307901723 ] ] ] } },
{ "type": "Feature", "properties": { }, "geometry": { "type": "Polygon", "coordinates": [ [ [ 56.256643736412073, 58.00686072933911 ], [ 56.256728334660195, 58.006861223462842 ], [ 56.256727403843101, 58.006906129907769 ], [ 56.256642805489058, 58.00690563578317 ], [ 56.256640012703294, 58.007040355113425 ], [ 56.256724611375098, 58.007040849240596 ], [ 56.256725542200556, 58.00699594279665 ], [ 56.256810140769232, 58.006996436866714 ], [ 56.256814794325102, 58.006771904637787 ], [ 56.25664559824974, 58.00677091644998 ], [ 56.256643736412073, 58.00686072933911 ] ] ] } },
{ "type": "Feature", "properties": { }, "geometry": { "type": "Polygon", "coordinates": [ [ [ 56.256880779843939, 58.007670527530898 ], [ 56.256879849188529, 58.007715433971626 ], [ 56.257049049729382, 58.007716421858028 ], [ 56.257049980172937, 58.007671515415588 ], [ 56.256880779843939, 58.007670527530898 ] ] ] } },
{ "type": "Feature", "properties": { }, "geometry": { "type": "Polygon", "coordinates": [ [ [ 56.257217320046898, 58.007762315963312 ], [ 56.257218250281383, 58.007717409519493 ], [ 56.257049049729382, 58.007716421858028 ], [ 56.257048119283041, 58.007761328300141 ], [ 56.257217320046898, 58.007762315963312 ] ] ] } },
{ "type": "Feature", "properties": { }, "geometry": { "type": "Polygon", "coordinates": [ [ [ 56.257217320046898, 58.007762315963312 ], [ 56.257216389809621, 58.007807222406797 ], [ 56.257385590796467, 58.007808209846779 ], [ 56.257386520821882, 58.007763303401561 ], [ 56.257217320046898, 58.007762315963312 ] ] ] } },
{ "type": "Feature", "properties": { }, "geometry": { "type": "Polygon", "coordinates": [ [ [ 56.257553861978103, 58.007854103508407 ], [ 56.257554791794455, 58.007809197061789 ], [ 56.257385590796467, 58.007808209846779 ], [ 56.25738466076826, 58.007853116291663 ], [ 56.257553861978103, 58.007854103508407 ] ] ] } },
{ "type": "Feature", "properties": { }, "geometry": { "type": "Polygon", "coordinates": [ [ [ 56.257638462587195, 58.00785459703242 ], [ 56.257553861978103, 58.007854103508407 ], [ 56.257552932158973, 58.007899009954656 ], [ 56.257637532873993, 58.007899503479535 ], [ 56.257638462587195, 58.00785459703242 ] ] ] } },
{ "type": "Feature", "properties": { }, "geometry": { "type": "Polygon", "coordinates": [ [ [ 56.257891335035765, 58.007900983716766 ], [ 56.257806734312396, 58.007900490360591 ], [ 56.257805804808257, 58.007945396809077 ], [ 56.257890405637568, 58.00794589016612 ], [ 56.257891335035765, 58.007900983716766 ] ] ] } },
{ "type": "Feature", "properties": { }, "geometry": { "type": "Polygon", "coordinates": [ [ [ 56.258059607304524, 58.007946876711465 ], [ 56.25797500646965, 58.007946383466908 ], [ 56.257974077174595, 58.007991289916809 ], [ 56.25805867811539, 58.007991783162225 ], [ 56.258059607304524, 58.007946876711465 ] ] ] } },
{ "type": "Feature", "properties": { }, "geometry": { "type": "Polygon", "coordinates": [ [ [ 56.258227880005329, 58.00799276948436 ], [ 56.258143279058963, 58.007992276351402 ], [ 56.258142349972985, 58.008037182802674 ], [ 56.258226951025271, 58.008037675936485 ], [ 56.258227880005329, 58.00799276948436 ] ] ] } },
{ "type": "Feature", "properties": { }, "geometry": { "type": "Polygon", "coordinates": [ [ [ 56.257460891945996, 58.008257767924988 ], [ 56.257207087283689, 58.008256286823709 ], [ 56.257205226745072, 58.008346099703154 ], [ 56.25712062498468, 58.008345605888529 ], [ 56.257118764223058, 58.008435418764932 ], [ 56.25720336619532, 58.008435912581277 ], [ 56.257204296471585, 58.008391006142382 ], [ 56.257288898340697, 58.008391499901613 ], [ 56.257290758673022, 58.008301687021124 ], [ 56.257459961995878, 58.008302674367457 ], [ 56.257460891945996, 58.008257767924988 ] ] ] } },
{ "type": "Feature", "properties": { }, "geometry": { "type": "Polygon", "coordinates": [ [ [ 56.258216732061072, 58.00853164688818 ], [ 56.258385936504467, 58.008532633005899 ], [ 56.258388722892491, 58.008397913654242 ], [ 56.258473324800562, 58.008398406626199 ], [ 56.258474253485083, 58.008353500174138 ], [ 56.258220448086995, 58.008352021092172 ], [ 56.258216732061072, 58.00853164688818 ] ] ] } },
{ "type": "Feature", "properties": { }, "geometry": { "type": "Polygon", "coordinates": [ [ [ 56.263113513712263, 58.009054124431955 ], [ 56.263198117258653, 58.009054614266624 ], [ 56.263199962837938, 58.008964801275901 ], [ 56.263284566175216, 58.008965291052647 ], [ 56.263287334205607, 58.008830571561525 ], [ 56.263456540252839, 58.008831550941203 ], [ 56.263458385168882, 58.008741737942081 ], [ 56.263373782355757, 58.008741248282064 ], [ 56.263374704915563, 58.008696341782851 ], [ 56.263205499509468, 58.008695362295811 ], [ 56.263203653963345, 58.008785175290491 ], [ 56.26311905105257, 58.00878468546091 ], [ 56.263117205283521, 58.008874498452563 ], [ 56.263032602163641, 58.008874008565058 ], [ 56.263030756171666, 58.008963821553699 ], [ 56.262946152842673, 58.008963331608257 ], [ 56.26294430662778, 58.009053144593878 ], [ 56.262859703089681, 58.009052654590491 ], [ 56.262857856651848, 58.00914246757312 ], [ 56.262773252904644, 58.009141977511781 ], [ 56.262771406243878, 58.009231790491398 ], [ 56.262856010202967, 58.009232280554421 ], [ 56.262856933428786, 58.009187374063941 ], [ 56.263026141143371, 58.009188354019564 ], [ 56.263027064154556, 58.009143447527045 ], [ 56.263111667910053, 58.00914393741968 ], [ 56.263113513712263, 58.009054124431955 ] ] ] } },
{ "type": "Feature", "properties": { }, "geometry": { "type": "Polygon", "coordinates": [ [ [ 56.257266573483861, 58.009469254365008 ], [ 56.257351177898201, 58.009469748088549 ], [ 56.257353038152331, 58.009379935222121 ], [ 56.25743764235758, 58.009380428887717 ], [ 56.257439502388706, 58.009290616018262 ], [ 56.257524106384864, 58.00929110962592 ], [ 56.257525036290311, 58.009246203189825 ], [ 56.257694244079104, 58.009247190234731 ], [ 56.257693314385534, 58.009292096672503 ], [ 56.257862522397332, 58.009293083494164 ], [ 56.257863451879032, 58.009248177054658 ], [ 56.257778847977676, 58.009247683672804 ], [ 56.257779777562526, 58.009202777233831 ], [ 56.257610569980038, 58.009201790303131 ], [ 56.257611499773979, 58.009156883865522 ], [ 56.257357688738935, 58.009155403050293 ], [ 56.257355828512658, 58.009245215920004 ], [ 56.257271224627999, 58.009244722200734 ], [ 56.257269364178704, 58.009334535067417 ], [ 56.257184760084961, 58.009334041290195 ], [ 56.257182899412641, 58.009423854153873 ], [ 56.257098295109806, 58.009423360318692 ], [ 56.257096434214468, 58.009513173179336 ], [ 56.257011829702549, 58.00951267928621 ], [ 56.257009968584178, 58.009602492143813 ], [ 56.256925363863161, 58.009601998192728 ], [ 56.2569225718469, 58.009736717474112 ], [ 56.257091781927357, 58.009737705325158 ], [ 56.257093642850563, 58.009647892467811 ], [ 56.257178247683093, 58.009648386307269 ], [ 56.257181038729179, 58.009513667016222 ], [ 56.257265643246676, 58.009514160796876 ], [ 56.257266573483861, 58.009469254365008 ] ] ] } },
{ "type": "Feature", "properties": { }, "geometry": { "type": "Polygon", "coordinates": [ [ [ 56.259211547917204, 58.00952550223024 ], [ 56.259126943335723, 58.009525009743065 ], [ 56.259126015426418, 58.009569916193421 ], [ 56.259210620113841, 58.009570408681455 ], [ 56.259211547917204, 58.00952550223024 ] ] ] } },
{ "type": "Feature", "properties": { }, "geometry": { "type": "Polygon", "coordinates": [ [ [ 56.259377046705907, 58.009706112845635 ], [ 56.259292441695109, 58.0097056204675 ], [ 56.259291513986582, 58.009750526918253 ], [ 56.259376119103322, 58.009751019297227 ], [ 56.259377046705907, 58.009706112845635 ] ] ] } },
{ "type": "Feature", "properties": { }, "geometry": { "type": "Polygon", "coordinates": [ [ [ 56.261805629936227, 58.010932842093737 ], [ 56.261721021984478, 58.010932351323525 ], [ 56.26172287139817, 58.010842538389312 ], [ 56.261807479138014, 58.010843029157819 ], [ 56.261808403734754, 58.010798122689366 ], [ 56.26172379610086, 58.010797631921704 ], [ 56.261724720800778, 58.010752725453784 ], [ 56.261555505753186, 58.010751743751435 ], [ 56.261552731009424, 58.010886463149141 ], [ 56.261298907505271, 58.010884990166147 ], [ 56.261297982267301, 58.010929896628824 ], [ 56.261382590205194, 58.010930387680233 ], [ 56.261381665070395, 58.010975294143449 ], [ 56.261297057026553, 58.01097480309118 ], [ 56.261296131783034, 58.011019709553224 ], [ 56.261465348085395, 58.011020691603235 ], [ 56.261466273117009, 58.010975785139479 ], [ 56.2615508811664, 58.010976276079269 ], [ 56.261549956240735, 58.011021182543885 ], [ 56.261803780723362, 58.01102265502837 ], [ 56.261805629936227, 58.010932842093737 ] ] ] } },
{ "type": "Feature", "properties": { }, "geometry": { "type": "Polygon", "coordinates": [ [ [ 56.262052059432996, 58.011293565817958 ], [ 56.262051135123656, 58.011338472285338 ], [ 56.262220352959176, 58.011339453334934 ], [ 56.262221277056611, 58.011294546865841 ], [ 56.262052059432996, 58.011293565817958 ] ] ] } },
{ "type": "Feature", "properties": { }, "geometry": { "type": "Polygon", "coordinates": [ [ [ 56.261800082264415, 58.011202280893635 ], [ 56.261799157642756, 58.011247187359125 ], [ 56.26171454894935, 58.011246696582958 ], [ 56.26171269948582, 58.011336509511267 ], [ 56.261628090583287, 58.011336018677142 ], [ 56.261626240896774, 58.011425831602423 ], [ 56.261710850011212, 58.011426322438268 ], [ 56.261709925269763, 58.011471228901257 ], [ 56.261879143718858, 58.011472210405877 ], [ 56.261881917299199, 58.011337491010799 ], [ 56.261966526210045, 58.011337981676192 ], [ 56.26196837503786, 58.011248168742767 ], [ 56.261883766338919, 58.01124767807908 ], [ 56.261884690854629, 58.01120277161273 ], [ 56.261800082264415, 58.011202280893635 ] ] ] } }
]
}
