{
"type": "FeatureCollection",
"name": "visible",
"crs": { "type": "name", "properties": { "name": "urn:ogc:def:crs:OGC:1.3:CRS84" } },
"features": [
{ "type": "Feature", "properties": { }, "geometry": { "type": "Polygon", "coordinates": [ [ [ 56.245625, 58.000416666666666 ], [ 56.245625, 58.000138888888891 ], [ 56.245208333333331, 58.000138888888891 ], [ 56.245208333333331, 58.000416666666666 ], [ 56.245625, 58.000416666666666 ] ] ] } },
{ "type": "Feature", "properties": { }, "geometry": { "type": "Polygon", "coordinates": [ [ [ 56.244375, 58.000972222222224 ], [ 56.244375, 58.000694444444449 ], [ 56.243958333333332, 58.000694444444449 ], [ 56.243958333333332, 58.000972222222224 ], [ 56.244375, 58.000972222222224 ] ] ] } },
{ "type": "Feature", "properties": { }, "geometry": { "type": "Polygon", "coordinates": [ [ [ 56.241875, 58.000972222222224 ], [ 56.241458333333334, 58.000972222222224 ], [ 56.241458333333334, 58.00125 ], [ 56.241875, 58.00125 ], [ 56.241875, 58.000972222222224 ] ] ] } },
{ "type": "Feature", "properties": { }, "geometry": { "type": "Polygon", "coordinates": [ [ [ 56.241875, 58.001805555555556 ], [ 56.242291666666667, 58.001805555555556 ], [ 56.242291666666667, 58.00125 ], [ 56.241875, 58.00125 ], [ 56.241875, 58.001805555555556 ] ] ] } },
{ "type": "Feature", "properties": { }, "geometry": { "type": "Polygon", "coordinates": [ [ [ 56.245625, 58.001805555555556 ], [ 56.245625, 58.00125 ], [ 56.245208333333331, 58.00125 ], [ 56.245208333333331, 58.001805555555556 ], [ 56.245625, 58.001805555555556 ] ] ] } },
{ "type": "Feature", "properties": { }, "geometry": { "type": "Polygon", "coordinates": [ [ [ 56.245208333333331, 58.002638888888889 ], [ 56.245208333333331, 58.002361111111114 ], [ 56.244791666666664, 58.002361111111114 ], [ 56.244791666666664, 58.002638888888889 ], [ 56.245208333333331, 58.002638888888889 ] ] ] } },
{ "type": "Feature", "properties": { }, "geometry": { "type": "Polygon", "coordinates": [ [ [ 56.248125, 58.002638888888889 ], [ 56.248125, 58.002361111111114 ], [ 56.247708333333328, 58.002361111111114 ], [ 56.247708333333328, 58.002638888888889 ], [ 56.248125, 58.002638888888889 ] ] ] } },
{ "type": "Feature", "properties": { }, "geometry": { "type": "Polygon", "coordinates": [ [ [ 56.253125, 58.005694444444444 ], [ 56.253125, 58.005416666666669 ], [ 56.252708333333331, 58.005416666666669 ], [ 56.252708333333331, 58.005694444444444 ], [ 56.253125, 58.005694444444444 ] ] ] } },
{ "type": "Feature", "properties": { }, "geometry": { "type": "Polygon", "coordinates": [ [ [ 56.252708333333331, 58.00625 ], [ 56.252708333333331, 58.005972222222226 ], [ 56.252291666666665, 58.005972222222226 ], [ 56.252291666666665, 58.00625 ], [ 56.252708333333331, 58.00625 ] ] ] } },
{ "type": "Feature", "properties": { }, "geometry": { "type": "Polygon", "coordinates": [ [ [ 56.250625, 58.008194444444449 ], [ 56.250625, 58.007916666666667 ], [ 56.249791666666667, 58.007916666666667 ], [ 56.249791666666667, 58.008194444444449 ], [ 56.250625, 58.008194444444449 ] ] ] } },
{ "type": "Feature", "properties": { }, "geometry": { "type": "Polygon", "coordinates": [ [ [ 56.252291666666665, 58.00875 ], [ 56.252291666666665, 58.008472222222224 ], [ 56.251458333333332, 58.008472222222224 ], [ 56.251458333333332, 58.00875 ], [ 56.252291666666665, 58.00875 ] ] ] } },
{ "type": "Feature", "properties": { }, "geometry": { "type": "Polygon", "coordinates": [ [ [ 56.252708333333331, 58.008472222222224 ], [ 56.252708333333331, 58.009027777777781 ], [ 56.253541666666663, 58.009027777777781 ], [ 56.253541666666663, 58.00875 ], [ 56.253125, 58.00875 ], [ 56.253125, 58.008472222222224 ], [ 56.252708333333331, 58.008472222222224 ] ] ] } },
{ "type": "Feature", "properties": { }, "geometry": { "type": "Polygon", "coordinates": [ [ [ 56.252291666666665, 58.009583333333339 ], [ 56.252291666666665, 58.009305555555557 ], [ 56.251875, 58.009305555555557 ], [ 56.251875, 58.009583333333339 ], [ 56.252291666666665, 58.009583333333339 ] ] ] } },
{ "type": "Feature", "properties": { }, "geometry": { "type": "Polygon", "coordinates": [ [ [ 56.251458333333332, 58.009583333333339 ], [ 56.251458333333332, 58.009861111111114 ], [ 56.251875, 58.009861111111114 ], [ 56.251875, 58.009583333333339 ], [ 56.251458333333332, 58.009583333333339 ] ] ] } },
{ "type": "Feature", "properties": { }, "geometry": { "type": "Polygon", "coordinates": [ [ [ 56.253125, 58.009861111111114 ], [ 56.253125, 58.009583333333339 ], [ 56.252708333333331, 58.009583333333339 ], [ 56.252708333333331, 58.009861111111114 ], [ 56.253125, 58.009861111111114 ] ] ] } },
{ "type": "Feature", "properties": { }, "geometry": { "type": "Polygon", "coordinates": [ [ [ 56.251041666666666, 58.009861111111114 ], [ 56.250625, 58.009861111111114 ], [ 56.250625, 58.010138888888889 ], [ 56.251041666666666, 58.010138888888889 ], [ 56.251041666666666, 58.009861111111114 ] ] ] } },
{ "type": "Feature", "properties": { }, "geometry": { "type": "Polygon", "coordinates": [ [ [ 56.251458333333332, 58.010972222222222 ], [ 56.250625, 58.010972222222222 ], [ 56.250625, 58.01125 ], [ 56.251458333333332, 58.01125 ], [ 56.251458333333332, 58.010972222222222 ] ] ] } },
{ "type": "Feature", "properties": { }, "geometry": { "type": "Polygon", "coordinates": [ [ [ 56.258958333333332, 58.005138888888894 ], [ 56.258125, 58.005138888888894 ], [ 56.258125, 58.005416666666669 ], [ 56.258958333333332, 58.005416666666669 ], [ 56.258958333333332, 58.005138888888894 ] ] ] } },
{ "type": "Feature", "properties": { }, "geometry": { "type": "Polygon", "coordinates": [ [ [ 56.258958333333332, 58.005694444444444 ], [ 56.260208333333331, 58.005694444444444 ], [ 56.260208333333331, 58.005416666666669 ], [ 56.258958333333332, 58.005416666666669 ], [ 56.258958333333332, 58.005694444444444 ] ] ] } },
{ "type": "Feature", "properties": { }, "geometry": { "type": "Polygon", "coordinates": [ [ [ 56.257291666666667, 58.007083333333334 ], [ 56.257291666666667, 58.006805555555559 ], [ 56.256458333333327, 58.006805555555559 ], [ 56.256458333333327, 58.007083333333334 ], [ 56.257291666666667, 58.007083333333334 ] ] ] } },
{ "type": "Feature", "properties": { }, "geometry": { "type": "Polygon", "coordinates": [ [ [ 56.255208333333329, 58.008194444444449 ], [ 56.255208333333329, 58.008472222222224 ], [ 56.256041666666661, 58.008472222222224 ], [ 56.256041666666661, 58.008194444444449 ], [ 56.256458333333327, 58.008194444444449 ], [ 56.256458333333327, 58.007361111111116 ], [ 56.255625, 58.007361111111116 ], [ 56.255625, 58.007083333333334 ], [ 56.255208333333329, 58.007083333333334 ], [ 56.255208333333329, 58.00625 ], [ 56.255625, 58.00625 ], [ 56.255625, 58.006527777777777 ], [ 56.256041666666661, 58.006527777777777 ], [ 56.256041666666661, 58.00625 ], [ 56.256875, 58.00625 ], [ 56.256875, 58.005972222222226 ], [ 56.254791666666662, 58.005972222222226 ], [ 56.254791666666662, 58.006805555555559 ], [ 56.253541666666663, 58.006805555555559 ], [ 56.253541666666663, 58.007361111111116 ], [ 56.253125, 58.007361111111116 ], [ 56.253125, 58.007638888888891 ], [ 56.25395833333333, 58.007638888888891 ], [ 56.25395833333333, 58.008472222222224 ], [ 56.254791666666662, 58.008472222222224 ], [ 56.254791666666662, 58.007916666666667 ], [ 56.255625, 58.007916666666667 ], [ 56.255625, 58.008194444444449 ], [ 56.255208333333329, 58.008194444444449 ] ] ] } },
{ "type": "Feature", "properties": { }, "geometry": { "type": "Polygon", "coordinates": [ [ [ 56.257708333333333, 58.007361111111116 ], [ 56.257708333333333, 58.007083333333334 ], [ 56.257291666666667, 58.007083333333334 ], [ 56.257291666666667, 58.007361111111116 ], [ 56.257708333333333, 58.007361111111116 ] ] ] } },
{ "type": "Feature", "properties": { }, "geometry": { "type": "Polygon", "coordinates": [ [ [ 56.257708333333333, 58.007916666666667 ], [ 56.257708333333333, 58.007638888888891 ], [ 56.257291666666667, 58.007638888888891 ], [ 56.257291666666667, 58.007916666666667 ], [ 56.257708333333333, 58.007916666666667 ] ] ] } },
{ "type": "Feature", "properties": { }, "geometry": { "type": "Polygon", "coordinates": [ [ [ 56.253541666666663, 58.008194444444449 ], [ 56.253541666666663, 58.007916666666667 ], [ 56.253125, 58.007916666666667 ], [ 56.253125, 58.008194444444449 ], [ 56.253541666666663, 58.008194444444449 ] ] ] } },
{ "type": "Feature", "properties": { }, "geometry": { "type": "Polygon", "coordinates": [ [ [ 56.257708333333333, 58.008472222222224 ], [ 56.257708333333333, 58.00875 ], [ 56.258541666666666, 58.00875 ], [ 56.258541666666666, 58.008194444444449 ], [ 56.258125, 58.008194444444449 ], [ 56.258125, 58.008472222222224 ], [ 56.257708333333333, 58.008472222222224 ] ] ] } },
{ "type": "Feature", "properties": { }, "geometry": { "type": "Polygon", "coordinates": [ [ [ 56.259375, 58.009027777777781 ], [ 56.259375, 58.00875 ], [ 56.258958333333332, 58.00875 ], [ 56.258958333333332, 58.009027777777781 ], [ 56.259375, 58.009027777777781 ] ] ] } },
{ "type": "Feature", "properties": { }, "geometry": { "type": "Polygon", "coordinates": [ [ [ 56.255208333333329, 58.009305555555557 ], [ 56.255208333333329, 58.00875 ], [ 56.254791666666662, 58.00875 ], [ 56.254791666666662, 58.009305555555557 ], [ 56.255208333333329, 58.009305555555557 ] ] ] } },
{ "type": "Feature", "properties": { }, "geometry": { "type": "Polygon", "coordinates": [ [ [ 56.257708333333333, 58.009583333333339 ], [ 56.257708333333333, 58.009027777777781 ], [ 56.257291666666667, 58.009027777777781 ], [ 56.257291666666667, 58.009583333333339 ], [ 56.257708333333333, 58.009583333333339 ] ] ] } },
{ "type": "Feature", "properties": { }, "geometry": { "type": "Polygon", "coordinates": [ [ [ 56.256875, 58.009583333333339 ], [ 56.256875, 58.009861111111114 ], [ 56.257291666666667, 58.009861111111114 ], [ 56.257291666666667, 58.009583333333339 ], [ 56.256875, 58.009583333333339 ] ] ] } },
{ "type": "Feature", "properties": { }, "geometry": { "type": "Polygon", "coordinates": [ [ [ 56.254375, 58.010138888888889 ], [ 56.254375, 58.009861111111114 ], [ 56.25395833333333, 58.009861111111114 ], [ 56.25395833333333, 58.010138888888889 ], [ 56.254375, 58.010138888888889 ] ] ] } },
{ "type": "Feature", "properties": { }, "geometry": { "type": "Polygon", "coordinates": [ [ [ 56.255625, 58.010416666666671 ], [ 56.255625, 58.010138888888889 ], [ 56.254791666666662, 58.010138888888889 ], [ 56.254791666666662, 58.010416666666671 ], [ 56.255625, 58.010416666666671 ] ] ] } },
{ "type": "Feature", "properties": { }, "geometry": { "type": "Polygon", "coordinates": [ [ [ 56.256458333333327, 58.010972222222222 ], [ 56.256458333333327, 58.010694444444447 ], [ 56.256041666666661, 58.010694444444447 ], [ 56.256041666666661, 58.010972222222222 ], [ 56.256458333333327, 58.010972222222222 ] ] ] } },
{ "type": "Feature", "properties": { }, "geometry": { "type": "Polygon", "coordinates": [ [ [ 56.261875, 58.010694444444447 ], [ 56.26145833333333, 58.010694444444447 ], [ 56.26145833333333, 58.010972222222222 ], [ 56.261875, 58.010972222222222 ], [ 56.261875, 58.010694444444447 ] ] ] } },
{ "type": "Feature", "properties": { }, "geometry": { "type": "Polygon", "coordinates": [ [ [ 56.262291666666663, 58.01125 ], [ 56.261875, 58.01125 ], [ 56.261875, 58.011527777777779 ], [ 56.262291666666663, 58.011527777777779 ], [ 56.262291666666663, 58.01125 ] ] ] } }
]
}
