{
"type": "FeatureCollection",
"name": "visible",
"crs": { "type": "name", "properties": { "name": "urn:ogc:def:crs:OGC:1.3:CRS84" } },
"features": [
{ "type": "Feature", "properties": { }, "geometry": { "type": "Polygon", "coordinates": [ [ [ 56.227720593763763, 58.004582158635792 ], [ 56.227805186071862, 58.004582671972699 ], [ 56.227808086906414, 58.004447953487286 ], [ 56.227554310943908, 58.004446413315897 ], [ 56.227552376421698, 58.004536225634503 ], [ 56.227467784228182, 58.004535712129815 ], [ 56.227466816856833, 58.004580618287733 ], [ 56.227551409156248, 58.004581131793309 ], [ 56.227549474616659, 58.004670944109947 ], [ 56.227634067130772, 58.004671457561088 ], [ 56.227633099962539, 58.004716363719787 ], [ 56.227548507342526, 58.004715850267772 ], [ 56.227547540065487, 58.004760756425235 ], [ 56.227462947342467, 58.004760242916099 ], [ 56.22746197995663, 58.004805149072368 ], [ 56.227631165617375, 58.004806176036233 ], [ 56.227630198440458, 58.004851082193944 ], [ 56.227714791381075, 58.004851595592427 ], [ 56.227715758452099, 58.004806689433828 ], [ 56.227800351289709, 58.004807202775176 ], [ 56.227803252167689, 58.004672484294709 ], [ 56.227718659647785, 58.004671970956011 ], [ 56.227720593763763, 58.004582158635792 ] ] ] } },
{ "type": "Feature", "properties": { }, "geometry": { "type": "Polygon", "coordinates": [ [ [ 56.233422001007732, 58.006996966700868 ], [ 56.233337402893099, 58.006996457084242 ], [ 56.23333644277966, 58.00704136328649 ], [ 56.233421041000213, 58.007041872904018 ], [ 56.233422001007732, 58.006996966700868 ] ] ] } },
{ "type": "Feature", "properties": { }, "geometry": { "type": "Polygon", "coordinates": [ [ [ 56.231387796834923, 58.007164345107547 ], [ 56.231472395307037, 58.007164856021035 ], [ 56.231474320208775, 58.007075043657125 ], [ 56.231305123691108, 58.007074021777463 ], [ 56.23130416102984, 58.007118927957805 ], [ 56.231388759393155, 58.007119438926637 ], [ 56.231387796834923, 58.007164345107547 ] ] ] } },
{ "type": "Feature", "properties": { }, "geometry": { "type": "Polygon", "coordinates": [ [ [ 56.231557956128427, 58.007120460695617 ], [ 56.231556993782036, 58.007165366878297 ], [ 56.231641592259919, 58.00716587767932 ], [ 56.231642554500382, 58.007120971495759 ], [ 56.231557956128427, 58.007120460695617 ] ] ] } },
{ "type": "Feature", "properties": { }, "geometry": { "type": "Polygon", "coordinates": [ [ [ 56.236377198983568, 58.007284205256568 ], [ 56.236376242666054, 58.007329111488595 ], [ 56.236460841625409, 58.007329619087074 ], [ 56.236461797837002, 58.007284712854165 ], [ 56.236377198983568, 58.007284205256568 ] ] ] } },
{ "type": "Feature", "properties": { }, "geometry": { "type": "Polygon", "coordinates": [ [ [ 56.236376242666054, 58.007329111488595 ], [ 56.236291643709556, 58.007328603833905 ], [ 56.236290687283258, 58.007373510064724 ], [ 56.236375286345677, 58.007374017720295 ], [ 56.236376242666054, 58.007329111488595 ] ] ] } },
{ "type": "Feature", "properties": { }, "geometry": { "type": "Polygon", "coordinates": [ [ [ 56.236205131688607, 58.007417908582539 ], [ 56.236289730854089, 58.007418416295245 ], [ 56.236290687283258, 58.007373510064724 ], [ 56.236206088223703, 58.007373002352907 ], [ 56.236205131688607, 58.007417908582539 ] ] ] } },
{ "type": "Feature", "properties": { }, "geometry": { "type": "Polygon", "coordinates": [ [ [ 56.236205131688607, 58.007417908582539 ], [ 56.236120532526002, 58.007417400813608 ], [ 56.236119575882128, 58.007462307042019 ], [ 56.236204175150661, 58.007462814811831 ], [ 56.236205131688607, 58.007417908582539 ] ] ] } },
{ "type": "Feature", "properties": { }, "geometry": { "type": "Polygon", "coordinates": [ [ [ 56.236034976616459, 58.007461799215982 ], [ 56.236034019863794, 58.007506705443177 ], [ 56.236118619235384, 58.007507213270102 ], [ 56.236119575882128, 58.007462307042019 ], [ 56.236034976616459, 58.007461799215982 ] ] ] } },
{ "type": "Feature", "properties": { }, "geometry": { "type": "Polygon", "coordinates": [ [ [ 56.236033063108266, 58.007551611670067 ], [ 56.236034019863794, 58.007506705443177 ], [ 56.235949420495068, 58.007506197560019 ], [ 56.235948463633619, 58.007551103786028 ], [ 56.236033063108266, 58.007551611670067 ] ] ] } },
{ "type": "Feature", "properties": { }, "geometry": { "type": "Polygon", "coordinates": [ [ [ 56.235948463633619, 58.007551103786028 ], [ 56.235863864161828, 58.007550595845771 ], [ 56.235862907191589, 58.007595502070558 ], [ 56.2359475067693, 58.007596010011717 ], [ 56.235948463633619, 58.007551103786028 ] ] ] } },
{ "type": "Feature", "properties": { }, "geometry": { "type": "Polygon", "coordinates": [ [ [ 56.233659480252093, 58.007761900667077 ], [ 56.233574880328163, 58.007761391204113 ], [ 56.233573920483622, 58.007806297403434 ], [ 56.23365852051348, 58.007806806867265 ], [ 56.233659480252093, 58.007761900667077 ] ] ] } },
{ "type": "Feature", "properties": { }, "geometry": { "type": "Polygon", "coordinates": [ [ [ 56.233826761052171, 58.007852731827896 ], [ 56.233911361196569, 58.007853241123932 ], [ 56.233912320620284, 58.007808334921414 ], [ 56.233827720581814, 58.007807825626266 ], [ 56.233826761052171, 58.007852731827896 ] ] ] } },
{ "type": "Feature", "properties": { }, "geometry": { "type": "Polygon", "coordinates": [ [ [ 56.234739153328533, 58.008711548944511 ], [ 56.23474011174752, 58.008666642739428 ], [ 56.234824713830214, 58.008667151432761 ], [ 56.234825672140396, 58.008622245226469 ], [ 56.234910274120026, 58.008622753862703 ], [ 56.234912190519921, 58.008532941447328 ], [ 56.234996792290559, 58.008533450025567 ], [ 56.234997750380273, 58.008488543816512 ], [ 56.235082352047847, 58.008489052337637 ], [ 56.23508522598199, 58.008354333705846 ], [ 56.235169827334644, 58.008354842168082 ], [ 56.235173658782962, 58.008175217317557 ], [ 56.235258259714776, 58.008175725720037 ], [ 56.235259217463764, 58.008130819505688 ], [ 56.235090015814862, 58.008129802646266 ], [ 56.235090973772834, 58.008084896433367 ], [ 56.235260175209874, 58.00808591329104 ], [ 56.23526113295312, 58.008041007076017 ], [ 56.237206947866625, 58.008052684751704 ], [ 56.237205992559701, 58.008097590986971 ], [ 56.237290593348398, 58.008098098038083 ], [ 56.237289638144539, 58.008143004273883 ], [ 56.237458839942356, 58.008144018209151 ], [ 56.237457884947496, 58.008188924446401 ], [ 56.237627086968608, 58.008189938158473 ], [ 56.23762613218274, 58.008234844397151 ], [ 56.237795334427148, 58.008235857886078 ], [ 56.237794379850278, 58.008280764126162 ], [ 56.237963582317981, 58.0082817773919 ], [ 56.237962627950104, 58.008326683633427 ], [ 56.238131830641095, 58.008327696676005 ], [ 56.238130876482224, 58.008372602918939 ], [ 56.238215477937935, 58.008373109356754 ], [ 56.238216431990871, 58.008328203112931 ], [ 56.238385634698993, 58.008329215818094 ], [ 56.238386588537217, 58.008284309572169 ], [ 56.238301987287656, 58.008283803248574 ], [ 56.238303895167391, 58.00819399075754 ], [ 56.238134693100548, 58.008192977945178 ], [ 56.238135647247994, 58.008148071700894 ], [ 56.237966445404439, 58.008147058665365 ], [ 56.23796835411445, 58.008057246179355 ], [ 56.237883753408816, 58.008056739579004 ], [ 56.237882798949308, 58.008101645821299 ], [ 56.237798198140602, 58.008101139163813 ], [ 56.237799152706039, 58.008056232922407 ], [ 56.237376149235018, 58.008053698795948 ], [ 56.23737710432723, 58.008008792558606 ], [ 56.237207903170685, 58.008007778516138 ], [ 56.237208858471895, 58.00796287228021 ], [ 56.237293458942808, 58.007963379328679 ], [ 56.237294414135228, 58.007918473091557 ], [ 56.237209813770242, 58.007917966043983 ], [ 56.237210769065726, 58.007873059807409 ], [ 56.236618567332407, 58.007869508905927 ], [ 56.236617611295443, 58.007914415136327 ], [ 56.23627920994425, 58.007912384809096 ], [ 56.236282079317661, 58.007777666127453 ], [ 56.236366679333386, 58.00777817379096 ], [ 56.236367635679535, 58.007733267562223 ], [ 56.236536835507742, 58.007734282718779 ], [ 56.236535879373434, 58.0077791889493 ], [ 56.236789679454979, 58.007780711265042 ], [ 56.23679254689597, 58.007645992564569 ], [ 56.236623347474293, 58.007644977748932 ], [ 56.236624303494082, 58.007600071516549 ], [ 56.236455104295707, 58.007599056477737 ], [ 56.23645797297344, 58.00746433778388 ], [ 56.236542572253427, 58.007464845328755 ], [ 56.236543528367697, 58.007419939095946 ], [ 56.236289730854089, 58.007418416295245 ], [ 56.236287817987169, 58.007508228755249 ], [ 56.236203218609838, 58.007507721040795 ], [ 56.236202262066165, 58.007552627269462 ], [ 56.236033063108266, 58.007551611670067 ], [ 56.236032106349867, 58.00759651789663 ], [ 56.2359475067693, 58.007596010011717 ], [ 56.235946549902117, 58.007640916237044 ], [ 56.235861950218485, 58.007640408295003 ], [ 56.235862907191589, 58.007595502070558 ], [ 56.235778307616748, 58.007594994073173 ], [ 56.235777350537717, 58.007639900296745 ], [ 56.235692750859819, 58.007639392242233 ], [ 56.235691793671997, 58.007684298464611 ], [ 56.235607193891035, 58.007683790352985 ], [ 56.235606236594435, 58.007728696574148 ], [ 56.235521636710416, 58.00772818840543 ], [ 56.235520679305012, 58.007773094625371 ], [ 56.235436079317942, 58.007772586399525 ], [ 56.235437994337715, 58.007682773961058 ], [ 56.235522594112943, 58.007683282185148 ], [ 56.235524508909407, 58.007593469743618 ], [ 56.235439909346034, 58.007592961521297 ], [ 56.235442781837001, 58.007458242859173 ], [ 56.235358182594261, 58.007457734583262 ], [ 56.23535722499421, 58.007502640803423 ], [ 56.235018827628224, 58.007500607133963 ], [ 56.23501786960162, 58.00754551335028 ], [ 56.234848670723991, 58.007544496176401 ], [ 56.234849628962444, 58.007499589961839 ], [ 56.234765029633849, 58.007499081291442 ], [ 56.234764071289476, 58.007543987505102 ], [ 56.234256474742679, 58.007540934296472 ], [ 56.23425743372259, 58.007496028088106 ], [ 56.234172834414096, 58.007495519024054 ], [ 56.234171875328258, 58.007540425231568 ], [ 56.234002676508041, 58.00753940693302 ], [ 56.23400363580572, 58.007494500727297 ], [ 56.233919036505839, 58.00749399149457 ], [ 56.233921914699415, 58.007359272878112 ], [ 56.233837315720173, 58.00735876359181 ], [ 56.233839234713372, 58.00726895118099 ], [ 56.233500839672516, 58.007266913480493 ], [ 56.233501799588488, 58.007222007278116 ], [ 56.233248003655781, 58.007220478414958 ], [ 56.233248963886645, 58.007175572214898 ], [ 56.232910569773637, 58.007173532946986 ], [ 56.232908648461674, 58.007263345339673 ], [ 56.232824049728769, 58.007262835380367 ], [ 56.232825010492114, 58.007217929185046 ], [ 56.23265581324678, 58.007216909099476 ], [ 56.232656774219087, 58.007172002905605 ], [ 56.232572175706657, 58.007171492779356 ], [ 56.23257505892407, 58.007036774198447 ], [ 56.232067469816478, 58.007033712276012 ], [ 56.232066508111373, 58.007078618464689 ], [ 56.231981909830935, 58.007078107946576 ], [ 56.231980948017025, 58.00712301413401 ], [ 56.231727152875223, 58.007121482239668 ], [ 56.231725228603239, 58.007211294608247 ], [ 56.231894425785249, 58.007212315930936 ], [ 56.231895387710836, 58.007167409745016 ], [ 56.232233781685714, 58.007169451712038 ], [ 56.232232820183803, 58.007214357901489 ], [ 56.232063622978764, 58.007213337028659 ], [ 56.232062661262141, 58.007258243216 ], [ 56.232316457391782, 58.007259774443533 ], [ 56.232315495990036, 58.007304680633197 ], [ 56.232484693636032, 58.007305701172172 ], [ 56.232483732443249, 58.007350607363271 ], [ 56.232652930312604, 58.007351627679085 ], [ 56.232651969328792, 58.007396533871635 ], [ 56.232736568373703, 58.007397043946085 ], [ 56.232735607492927, 58.007441950139174 ], [ 56.23290480580323, 58.00744297012114 ], [ 56.232903845131432, 58.007487876315679 ], [ 56.232988444396817, 58.007488386223201 ], [ 56.232987483828062, 58.007533292418323 ], [ 56.233156682579313, 58.007534312066419 ], [ 56.233155722219529, 58.007579218262954 ], [ 56.233324921194125, 58.00758023768789 ], [ 56.233323961043311, 58.007625143885889 ], [ 56.23349316024126, 58.007626163087657 ], [ 56.233492200299409, 58.007671069287078 ], [ 56.233661399720702, 58.007672088265693 ], [ 56.233660439987837, 58.00771699446657 ], [ 56.23374503980871, 58.007717503872399 ], [ 56.233744080178901, 58.007762410073809 ], [ 56.233913280041122, 58.007763428718583 ], [ 56.233912320620284, 58.007808334921414 ], [ 56.233996920661632, 58.007808844160323 ], [ 56.233995961343844, 58.007853750363736 ], [ 56.233911361196569, 58.007853241123932 ], [ 56.233908482908198, 58.007987959729512 ], [ 56.234162284311964, 58.007989487288157 ], [ 56.234161325194542, 58.008034393492011 ], [ 56.234330526356594, 58.008035411585041 ], [ 56.234329567448157, 58.008080317790345 ], [ 56.234244966759761, 58.008079808771051 ], [ 56.234242089699428, 58.008214527382314 ], [ 56.234157488696127, 58.008214018304137 ], [ 56.234154611292162, 58.008348736909745 ], [ 56.23423921261324, 58.00834924599058 ], [ 56.234234417412182, 58.008573776997778 ], [ 56.23431901926579, 58.008574286026764 ], [ 56.234318060322892, 58.008619192228132 ], [ 56.234402662285298, 58.008619701201752 ], [ 56.234401703445457, 58.008664607403659 ], [ 56.234570907590751, 58.008665625184008 ], [ 56.234569948959901, 58.008710531387337 ], [ 56.234739153328533, 58.008711548944511 ] ], [ [ 56.233076885487655, 58.007309271287269 ], [ 56.232992286643082, 58.007308761439504 ], [ 56.232993247197456, 58.007263855242776 ], [ 56.233077845936108, 58.00726436508964 ], [ 56.233076885487655, 58.007309271287269 ] ] ] } },
{ "type": "Feature", "properties": { }, "geometry": { "type": "Polygon", "coordinates": [ [ [ 56.234233458363349, 58.008618683198229 ], [ 56.234234417412182, 58.008573776997778 ], [ 56.234149815561445, 58.008573267912546 ], [ 56.234148856406684, 58.008618174112122 ], [ 56.234233458363349, 58.008618683198229 ] ] ] } },
{ "type": "Feature", "properties": { }, "geometry": { "type": "Polygon", "coordinates": [ [ [ 56.234148856406684, 58.008618174112122 ], [ 56.234064254452896, 58.008617664969769 ], [ 56.2340623359229, 58.00870747736618 ], [ 56.234146938088557, 58.008707986510288 ], [ 56.234145978925184, 58.00875289270887 ], [ 56.234315183476966, 58.008753910830158 ], [ 56.234316142428483, 58.008709004629807 ], [ 56.234231540257078, 58.00870849559815 ], [ 56.234232499311652, 58.008663589398381 ], [ 56.234147897249052, 58.008663080311386 ], [ 56.234148856406684, 58.008618174112122 ] ] ] } },
{ "type": "Feature", "properties": { }, "geometry": { "type": "Polygon", "coordinates": [ [ [ 56.234145019758934, 58.008797798907125 ], [ 56.234143101417828, 58.008887611302654 ], [ 56.234227704010074, 58.008888120394069 ], [ 56.234229622139324, 58.00879830799677 ], [ 56.234145019758934, 58.008797798907125 ] ] ] } },
{ "type": "Feature", "properties": { }, "geometry": { "type": "Polygon", "coordinates": [ [ [ 56.234472882940544, 58.009293803126234 ], [ 56.23447480048587, 58.009203990729574 ], [ 56.234220990467264, 58.009202463774216 ], [ 56.234221949553429, 58.009157557578021 ], [ 56.234052743100584, 58.009156539328366 ], [ 56.234048905891235, 58.009336164104042 ], [ 56.233964302245383, 58.009335654891316 ], [ 56.233961423990394, 58.009470373466947 ], [ 56.234384443837428, 58.009472918981423 ], [ 56.234383484943038, 58.009517825177063 ], [ 56.23446808902699, 58.009518334112123 ], [ 56.234470965383736, 58.009383615521585 ], [ 56.234555569152761, 58.009384124397762 ], [ 56.234556527826655, 58.009339218199372 ], [ 56.234387320503366, 58.009338200392534 ], [ 56.234388279386266, 58.009293294195579 ], [ 56.234472882940544, 58.009293803126234 ] ] ] } },
{ "type": "Feature", "properties": { }, "geometry": { "type": "Polygon", "coordinates": [ [ [ 56.234640172924642, 58.009384633217699 ], [ 56.234555569152761, 58.009384124397762 ], [ 56.23455269311382, 58.00951884299095 ], [ 56.23463729720352, 58.009519351813566 ], [ 56.234638255780098, 58.009474445615254 ], [ 56.234722859766727, 58.00947495438075 ], [ 56.234723818234507, 58.009430048181237 ], [ 56.234639214353805, 58.009429539416651 ], [ 56.234640172924642, 58.009384633217699 ] ] ] } },
{ "type": "Feature", "properties": { }, "geometry": { "type": "Polygon", "coordinates": [ [ [ 56.23485277678617, 58.011317125711344 ], [ 56.234850860030456, 58.011406938085891 ], [ 56.235443119946446, 58.011410497347768 ], [ 56.235442162305937, 58.011455403540758 ], [ 56.235611379662501, 58.011456419968312 ], [ 56.235612337091105, 58.011411513773581 ], [ 56.23569694566774, 58.011412021902117 ], [ 56.235698860304446, 58.011322209509956 ], [ 56.235783468672039, 58.011322717580491 ], [ 56.235781554247239, 58.011412529974429 ], [ 56.235866162829609, 58.011413037990472 ], [ 56.235865205718852, 58.011457944187846 ], [ 56.236288249203426, 58.011460483428934 ], [ 56.236287292619565, 58.011505389630379 ], [ 56.236371901431021, 58.011505897310769 ], [ 56.236375727325481, 58.011326272499524 ], [ 56.236544944109383, 58.011327287684502 ], [ 56.236543987851967, 58.011372193889549 ], [ 56.236713204859221, 58.011373208851325 ], [ 56.236712248810846, 58.011418115057836 ], [ 56.23688146604146, 58.011419129796408 ], [ 56.236884333542299, 58.011284411170642 ], [ 56.236715116947394, 58.011283396437342 ], [ 56.236716072987186, 58.011238490229864 ], [ 56.236546856615625, 58.011237475273361 ], [ 56.236547812864451, 58.011192569067312 ], [ 56.236378596716243, 58.011191553887627 ], [ 56.23637955317411, 58.011146647682999 ], [ 56.236294945210247, 58.011146140009664 ], [ 56.236296858329275, 58.011056327601175 ], [ 56.23595842735007, 58.011054296352505 ], [ 56.235959384329085, 58.011009390151315 ], [ 56.235536346199297, 58.011006849829492 ], [ 56.235531558626882, 58.011231380810166 ], [ 56.235362342335549, 58.011230364278937 ], [ 56.235363300067668, 58.011185458085237 ], [ 56.235194083999708, 58.011184441330784 ], [ 56.235195041940848, 58.011139535138504 ], [ 56.235025826096262, 58.011138518160884 ], [ 56.235026784246436, 58.011093611970054 ], [ 56.234857568625223, 58.011092594769202 ], [ 56.234859485340749, 58.011002782390079 ], [ 56.234944092938029, 58.011003291016834 ], [ 56.234946009430189, 58.010913478634592 ], [ 56.235199831603552, 58.010915004172162 ], [ 56.235198873676751, 58.01095991036609 ], [ 56.23528348117955, 58.010960418767006 ], [ 56.235284439000409, 58.010915512572197 ], [ 56.235369046400137, 58.010916020915992 ], [ 56.235370004112177, 58.01087111471999 ], [ 56.235285396818398, 58.010870606377061 ], [ 56.235286354633516, 58.010825700181577 ], [ 56.235201747448549, 58.010825191783312 ], [ 56.235202705366746, 58.010780285588389 ], [ 56.234948884146903, 58.010778760058756 ], [ 56.234949842380075, 58.010733853866164 ], [ 56.234696021503893, 58.010732327833026 ], [ 56.234693145842265, 58.010867046401913 ], [ 56.234608538571436, 58.010866537609076 ], [ 56.234604703891968, 58.011046162359435 ], [ 56.234520096200221, 58.011045653506827 ], [ 56.23451913741723, 58.01109055969269 ], [ 56.234434529622405, 58.011090050782961 ], [ 56.234425899492727, 58.011494206433163 ], [ 56.234510508241087, 58.011494715350842 ], [ 56.234511467049927, 58.0114498091679 ], [ 56.234596075695208, 58.011450318028444 ], [ 56.234597034395222, 58.011405411844315 ], [ 56.234681642937431, 58.011405920647746 ], [ 56.234683560116942, 58.011316108276745 ], [ 56.23485277678617, 58.011317125711344 ] ] ] } },
{ "type": "Feature", "properties": { }, "geometry": { "type": "Polygon", "coordinates": [ [ [ 56.23594502934305, 58.011682983134833 ], [ 56.235944072321054, 58.011727889331091 ], [ 56.236028681650822, 58.011728397240852 ], [ 56.236025810885494, 58.011863115830323 ], [ 56.236110420535979, 58.011863623686473 ], [ 56.236111377354668, 58.011818717489426 ], [ 56.236195986902068, 58.011819225288441 ], [ 56.236197900318935, 58.011729412891619 ], [ 56.23611329098344, 58.011728905094344 ], [ 56.23611424779353, 58.011683998896316 ], [ 56.23594502934305, 58.011682983134833 ] ] ] } },
{ "type": "Feature", "properties": { }, "geometry": { "type": "Polygon", "coordinates": [ [ [ 56.23450187883239, 58.011898870982286 ], [ 56.234417269130454, 58.011898362056662 ], [ 56.234416310186951, 58.011943268235413 ], [ 56.234500919994851, 58.01194377716191 ], [ 56.234499961154434, 58.011988683341208 ], [ 56.234838400838534, 58.011990718488342 ], [ 56.234840317668862, 58.011900906122371 ], [ 56.234671098244888, 58.011899888664821 ], [ 56.234672056867652, 58.011854982483079 ], [ 56.234502837667065, 58.011853964802334 ], [ 56.23450187883239, 58.011898870982286 ] ] ] } },
{ "type": "Feature", "properties": { }, "geometry": { "type": "Polygon", "coordinates": [ [ [ 56.233894257366735, 58.01261380605748 ], [ 56.233978868746739, 58.012614315334702 ], [ 56.233976949705387, 58.0127041276725 ], [ 56.234230784498408, 58.012705655171963 ], [ 56.234229825291294, 58.012750561343019 ], [ 56.234314437000677, 58.01275107039789 ], [ 56.234318273388041, 58.012571445708168 ], [ 56.233979828263109, 58.012569409165295 ], [ 56.233980787776602, 58.012524502995575 ], [ 56.233896176608511, 58.01252399372013 ], [ 56.233894257366735, 58.01261380605748 ] ] ] } },
{ "type": "Feature", "properties": { }, "geometry": { "type": "Polygon", "coordinates": [ [ [ 56.234983664648006, 58.01311439023236 ], [ 56.235152889816682, 58.013115407287628 ], [ 56.23515480594282, 58.01302559493103 ], [ 56.235070193568966, 58.013025086433295 ], [ 56.235069235401376, 58.01306999261088 ], [ 56.234984622924429, 58.013069484055997 ], [ 56.234983664648006, 58.01311439023236 ] ] ] } },
{ "type": "Feature", "properties": { }, "geometry": { "type": "Polygon", "coordinates": [ [ [ 56.234878925374808, 58.014056911229503 ], [ 56.234877966929275, 58.01410181739773 ], [ 56.234793352020858, 58.014101308710096 ], [ 56.234789517786147, 58.014280933376234 ], [ 56.23470490245672, 58.014280424628787 ], [ 56.234702985110196, 58.01437023695815 ], [ 56.234618369571699, 58.014369728152708 ], [ 56.234615493212473, 58.014504446641581 ], [ 56.234869340790333, 58.014505972897119 ], [ 56.234871257730191, 58.014416160566228 ], [ 56.234955873383271, 58.014416669203818 ], [ 56.234958748453614, 58.014281950702348 ], [ 56.235043363791661, 58.014282459281056 ], [ 56.23504815498832, 58.014057928434312 ], [ 56.234878925374808, 58.014056911229503 ] ] ] } },
{ "type": "Feature", "properties": { }, "geometry": { "type": "Polygon", "coordinates": [ [ [ 56.234352054430509, 58.014951981461543 ], [ 56.234354931829643, 58.014817262990469 ], [ 56.234101082078041, 58.01481573570392 ], [ 56.234097244268398, 58.014995360320746 ], [ 56.234012627266374, 58.014994851109215 ], [ 56.234005910247049, 58.015309194169788 ], [ 56.234090527990908, 58.015309703387523 ], [ 56.234091487467744, 58.015264797236121 ], [ 56.234176105108503, 58.015265306396707 ], [ 56.234180901919686, 58.015040775630325 ], [ 56.234265519033428, 58.015041284730266 ], [ 56.234267437525837, 58.014951472419632 ], [ 56.234352054430509, 58.014951981461543 ] ] ] } },
{ "type": "Feature", "properties": { }, "geometry": { "type": "Polygon", "coordinates": [ [ [ 56.235695393262922, 58.015454086339595 ], [ 56.235610775146583, 58.015453578187937 ], [ 56.235613647871482, 58.015318859688058 ], [ 56.235529030075945, 58.015318351482804 ], [ 56.23552998775115, 58.015273445316382 ], [ 56.235445370064461, 58.015272937055784 ], [ 56.235444412283279, 58.015317843221318 ], [ 56.235359794493476, 58.015317334903578 ], [ 56.235355005014625, 58.0155418657219 ], [ 56.235524241656883, 58.015542882309951 ], [ 56.235523283964469, 58.015587788474384 ], [ 56.235692520830156, 58.015588804839197 ], [ 56.235691563346833, 58.015633711005073 ], [ 56.23577618188996, 58.015634219103987 ], [ 56.235778096641774, 58.015544406770154 ], [ 56.235862714975809, 58.015544914811052 ], [ 56.235863672241443, 58.015500008642746 ], [ 56.235694435788197, 58.015498992506451 ], [ 56.235695393262922, 58.015454086339595 ] ] ] } },
{ "type": "Feature", "properties": { }, "geometry": { "type": "Polygon", "coordinates": [ [ [ 56.23458001599046, 58.016165974427601 ], [ 56.234410776443859, 58.01616495657732 ], [ 56.234408858220256, 58.016254768873715 ], [ 56.234239618261199, 58.016253750794903 ], [ 56.234234821592061, 58.016478281521273 ], [ 56.23440406261097, 58.016479299608925 ], [ 56.234403103480496, 58.016524205754955 ], [ 56.234572344722871, 58.016525223619368 ], [ 56.234578098190795, 58.01625578672752 ], [ 56.234493478204087, 58.016255277828748 ], [ 56.234494437211339, 58.016210371679819 ], [ 56.234579057092063, 58.016210880577702 ], [ 56.23458001599046, 58.016165974427601 ] ] ] } },
{ "type": "Feature", "properties": { }, "geometry": { "type": "Polygon", "coordinates": [ [ [ 56.237488443364867, 58.006751924691663 ], [ 56.237403845748133, 58.006751417779398 ], [ 56.237402890735986, 58.006796324025977 ], [ 56.23748748845864, 58.006796830939102 ], [ 56.237488443364867, 58.006751924691663 ] ] ] } },
{ "type": "Feature", "properties": { }, "geometry": { "type": "Polygon", "coordinates": [ [ [ 56.237318293016195, 58.006795817056592 ], [ 56.237317337895277, 58.006840723301941 ], [ 56.237401935720982, 58.006841230272194 ], [ 56.237402890735986, 58.006796324025977 ], [ 56.237318293016195, 58.006795817056592 ] ] ] } },
{ "type": "Feature", "properties": { }, "geometry": { "type": "Polygon", "coordinates": [ [ [ 56.237316382771496, 58.00688562954695 ], [ 56.237317337895277, 58.006840723301941 ], [ 56.237232740072429, 58.006840216275457 ], [ 56.237231784842727, 58.006885122519598 ], [ 56.237316382771496, 58.00688562954695 ] ] ] } },
{ "type": "Feature", "properties": { }, "geometry": { "type": "Polygon", "coordinates": [ [ [ 56.237231784842727, 58.006885122519598 ], [ 56.237147186916815, 58.006884615436007 ], [ 56.237146231578336, 58.006929521678941 ], [ 56.237230829610169, 58.006930028763399 ], [ 56.237231784842727, 58.006885122519598 ] ] ] } },
{ "type": "Feature", "properties": { }, "geometry": { "type": "Polygon", "coordinates": [ [ [ 56.237060678102111, 58.006973920779963 ], [ 56.237145276236994, 58.006974427921548 ], [ 56.237146231578336, 58.006929521678941 ], [ 56.237061633549366, 58.006929014538237 ], [ 56.237060678102111, 58.006973920779963 ] ] ] } },
{ "type": "Feature", "properties": { }, "geometry": { "type": "Polygon", "coordinates": [ [ [ 56.237060678102111, 58.006973920779963 ], [ 56.236976079970084, 58.006973413582173 ], [ 56.236975124414045, 58.00701831982267 ], [ 56.237059722651992, 58.007018827021369 ], [ 56.237060678102111, 58.006973920779963 ] ] ] } },
{ "type": "Feature", "properties": { }, "geometry": { "type": "Polygon", "coordinates": [ [ [ 56.236890526178954, 58.007017812567746 ], [ 56.236889570514144, 58.007062718807042 ], [ 56.236974168855149, 58.007063226062854 ], [ 56.236975124414045, 58.00701831982267 ], [ 56.236890526178954, 58.007017812567746 ] ] ] } },
{ "type": "Feature", "properties": { }, "geometry": { "type": "Polygon", "coordinates": [ [ [ 56.238749781339244, 58.00711877170356 ], [ 56.238750734676678, 58.00707386544525 ], [ 56.238581537877486, 58.007072853239137 ], [ 56.238582491423905, 58.007027946982248 ], [ 56.238497893134515, 58.007027440795724 ], [ 56.238498846784005, 58.006982534539397 ], [ 56.238245052250718, 58.00698101564506 ], [ 56.238246006215107, 58.006936109391006 ], [ 56.238076810085708, 58.006935096515377 ], [ 56.238077764259074, 58.006890190262787 ], [ 56.237908568352942, 58.006889177163991 ], [ 56.237905705188744, 58.007023895915538 ], [ 56.2380749017304, 58.00702490901962 ], [ 56.238073947548457, 58.00706981527123 ], [ 56.23824314431338, 58.007070828152109 ], [ 56.238242190340422, 58.007115734405161 ], [ 56.238411387328604, 58.007116747062895 ], [ 56.238410433564638, 58.007161653317354 ], [ 56.23857963077608, 58.007162665751913 ], [ 56.238578677221099, 58.007207572007815 ], [ 56.238747874655814, 58.007208584219192 ], [ 56.238746921309819, 58.007253490476515 ], [ 56.238916118967794, 58.00725450246474 ], [ 56.238915165830782, 58.00729940872349 ], [ 56.238999764769972, 58.007299914634117 ], [ 56.239001670829289, 58.007210102114534 ], [ 56.239086269559486, 58.007210607967188 ], [ 56.239087222478943, 58.007165701706022 ], [ 56.238918025233247, 58.007164689946237 ], [ 56.238918978361689, 58.007119783686527 ], [ 56.238749781339244, 58.00711877170356 ] ] ] } },
{ "type": "Feature", "properties": { }, "geometry": { "type": "Polygon", "coordinates": [ [ [ 56.236889570514144, 58.007062718807042 ], [ 56.236804972175996, 58.007062211495004 ], [ 56.236804016402395, 58.007107117733121 ], [ 56.236888614846457, 58.007107625046046 ], [ 56.236889570514144, 58.007062718807042 ] ] ] } },
{ "type": "Feature", "properties": { }, "geometry": { "type": "Polygon", "coordinates": [ [ [ 56.23671941796119, 58.007106610363962 ], [ 56.236718462078805, 58.007151516600871 ], [ 56.236803060625931, 58.007152023970875 ], [ 56.236804016402395, 58.007107117733121 ], [ 56.23671941796119, 58.007106610363962 ] ] ] } },
{ "type": "Feature", "properties": { }, "geometry": { "type": "Polygon", "coordinates": [ [ [ 56.236717506193571, 58.007196422837389 ], [ 56.236718462078805, 58.007151516600871 ], [ 56.23663386353455, 58.007151009174599 ], [ 56.236632907543381, 58.007195915410271 ], [ 56.236717506193571, 58.007196422837389 ] ] ] } },
{ "type": "Feature", "properties": { }, "geometry": { "type": "Polygon", "coordinates": [ [ [ 56.236632907543381, 58.007195915410271 ], [ 56.236548308896062, 58.007195407926879 ], [ 56.236547352796116, 58.007240314161379 ], [ 56.236631951549356, 58.007240821645624 ], [ 56.236632907543381, 58.007195915410271 ] ] ] } },
{ "type": "Feature", "properties": { }, "geometry": { "type": "Polygon", "coordinates": [ [ [ 56.236462754045739, 58.007239806620881 ], [ 56.236461797837002, 58.007284712854165 ], [ 56.236546396693306, 58.007285220395516 ], [ 56.236547352796116, 58.007240314161379 ], [ 56.236462754045739, 58.007239806620881 ] ] ] } },
{ "type": "Feature", "properties": { }, "geometry": { "type": "Polygon", "coordinates": [ [ [ 56.237805834584051, 58.00774188922334 ], [ 56.237803925490333, 58.007831701710415 ], [ 56.23771932532005, 58.007831195001984 ], [ 56.237718370662975, 58.007876101244172 ], [ 56.237887571218266, 58.007877114606565 ], [ 56.237888525663486, 58.007832208362636 ], [ 56.238057726018354, 58.007833221498316 ], [ 56.238058680248862, 58.007788315252306 ], [ 56.237974080175924, 58.007787808713466 ], [ 56.237975034509503, 58.007742902467982 ], [ 56.237805834584051, 58.00774188922334 ] ] ] } },
{ "type": "Feature", "properties": { }, "geometry": { "type": "Polygon", "coordinates": [ [ [ 56.238123243108433, 58.008731852850687 ], [ 56.237954038510708, 58.008730839792307 ], [ 56.237954992904292, 58.008685933553757 ], [ 56.237785788529855, 58.008684920272195 ], [ 56.237786743132446, 58.008640014035059 ], [ 56.237617538981304, 58.008639000530316 ], [ 56.237618493792901, 58.008594094294594 ], [ 56.237449289865054, 58.008593080566669 ], [ 56.23745024488565, 58.008548174332411 ], [ 56.23736564303195, 58.008547667384974 ], [ 56.237363732776032, 58.008637479851437 ], [ 56.237279130713326, 58.008636972846013 ], [ 56.237278175475147, 58.008681879077862 ], [ 56.237447379815279, 58.008682893034248 ], [ 56.2374464247861, 58.008727799267525 ], [ 56.237615629349534, 58.008728813000729 ], [ 56.237614674529361, 58.008773719235442 ], [ 56.237783879316098, 58.008774732745465 ], [ 56.237782924704931, 58.008819638981606 ], [ 56.237952129714955, 58.00882065226844 ], [ 56.237951175312794, 58.008865558506024 ], [ 56.238120380546128, 58.008866571569669 ], [ 56.238121334736412, 58.008821665330345 ], [ 56.238205937251436, 58.008822171776941 ], [ 56.238206891332936, 58.008777265536409 ], [ 56.238122288923854, 58.008776759090686 ], [ 56.238123243108433, 58.008731852850687 ] ] ] } },
{ "type": "Feature", "properties": { }, "geometry": { "type": "Polygon", "coordinates": [ [ [ 56.236764827220703, 58.008948273211622 ], [ 56.236849430007766, 58.00894878056063 ], [ 56.236855164674878, 58.0086793432028 ], [ 56.236939766829209, 58.008679850490282 ], [ 56.23694072249112, 58.008634944261949 ], [ 56.2366869163545, 58.008633422233437 ], [ 56.236685960374807, 58.008678328459148 ], [ 56.236516756086175, 58.008677313490523 ], [ 56.236514843694465, 58.00876712593741 ], [ 56.236430241342582, 58.008766618366991 ], [ 56.236426416101075, 58.00894624325327 ], [ 56.236341813328323, 58.008945735623108 ], [ 56.236340856904853, 58.008990641842963 ], [ 56.236256254029037, 58.008990134155674 ], [ 56.236254340961636, 58.009079946592664 ], [ 56.236169737876814, 58.009079438847387 ], [ 56.236168781232884, 58.0091243450645 ], [ 56.23608417804499, 58.009123837262088 ], [ 56.236083221292262, 58.009168743478 ], [ 56.235998618001297, 58.009168235618475 ], [ 56.23599766113977, 58.009213141833179 ], [ 56.236336074744543, 58.009215172937402 ], [ 56.236335118303892, 58.009260079155268 ], [ 56.236588928855355, 58.009261601895595 ], [ 56.236589884978201, 58.009216695675036 ], [ 56.236674488395138, 58.009217203141802 ], [ 56.236677356428707, 58.009082484475591 ], [ 56.23676195953071, 58.009082991883446 ], [ 56.236764827220703, 58.008948273211622 ] ] ] } },
{ "type": "Feature", "properties": { }, "geometry": { "type": "Polygon", "coordinates": [ [ [ 56.239301006641796, 58.009053281720064 ], [ 56.239131800481054, 58.009052270223997 ], [ 56.239132753411567, 58.009007363975435 ], [ 56.238963547474107, 58.009006352256172 ], [ 56.238964500613633, 58.008961446009046 ], [ 56.238795294899461, 58.008960434066594 ], [ 56.238796248248001, 58.008915527820889 ], [ 56.238627042757109, 58.008914515655249 ], [ 56.238627996314662, 58.008869609410979 ], [ 56.238458791047059, 58.008868597022143 ], [ 56.238459744813618, 58.008823690779323 ], [ 56.238375142290039, 58.008823184501431 ], [ 56.238373234542188, 58.008912996985032 ], [ 56.238288631809588, 58.008912490649152 ], [ 56.238287677825454, 58.008957396889578 ], [ 56.238456883505364, 58.008958409506853 ], [ 56.238455929730236, 58.009003315748707 ], [ 56.238625135633441, 58.009004328142801 ], [ 56.238624182067319, 58.009049234386076 ], [ 56.238793388193812, 58.009050246556995 ], [ 56.238792434836711, 58.009095152801713 ], [ 56.238961641186485, 58.00909616474943 ], [ 56.238960688038397, 58.009141070995568 ], [ 56.239129894611466, 58.009142082720089 ], [ 56.239128941672391, 58.009186988967656 ], [ 56.239298148468734, 58.009188000468995 ], [ 56.239299101195947, 58.009143094219695 ], [ 56.239383704492468, 58.009143599885128 ], [ 56.239384657110882, 58.009098693634613 ], [ 56.239300053920296, 58.009098187970046 ], [ 56.239301006641796, 58.009053281720064 ] ] ] } },
{ "type": "Feature", "properties": { }, "geometry": { "type": "Polygon", "coordinates": [ [ [ 56.236664928097206, 58.009666265341167 ], [ 56.236580323620899, 58.009665757865612 ], [ 56.236579367469425, 58.00971066408286 ], [ 56.236494762890032, 58.009710156550177 ], [ 56.236495719147449, 58.009665250333818 ], [ 56.236326510209139, 58.009664235101511 ], [ 56.23632937959983, 58.009529516455736 ], [ 56.236413983749742, 58.009530024097359 ], [ 56.236414940101639, 58.00948511788053 ], [ 56.236330336057669, 58.009484610239809 ], [ 56.23633224896475, 58.009394797806991 ], [ 56.236247645135521, 58.009394290111764 ], [ 56.236248601690697, 58.009349383895753 ], [ 56.236163997970266, 58.009348876145168 ], [ 56.23616112797832, 58.009483594789614 ], [ 56.236076523942941, 58.009483086980154 ], [ 56.236072696823157, 58.009662711831311 ], [ 56.235988092366895, 58.00966220396208 ], [ 56.235987135473856, 58.009707110173146 ], [ 56.236071740036053, 58.009707618043251 ], [ 56.236070783246085, 58.009752524254878 ], [ 56.23623999259096, 58.009753539828139 ], [ 56.236239036009998, 58.009798446041209 ], [ 56.236408245578211, 58.009799461391275 ], [ 56.236407289206262, 58.009844367605751 ], [ 56.23666110389788, 58.009845890211686 ], [ 56.236662059952003, 58.009800983994566 ], [ 56.237000479157139, 58.009803013344971 ], [ 56.237001434784652, 58.009758107123957 ], [ 56.236916830085015, 58.009757599871591 ], [ 56.236917785815599, 58.009712693651167 ], [ 56.237002390409295, 58.009713200902667 ], [ 56.237004301650003, 58.009623388459033 ], [ 56.237173510422231, 58.009624402789775 ], [ 56.237174465826413, 58.009579496565706 ], [ 56.237343674398218, 58.009580510669757 ], [ 56.23734462958766, 58.009535604443599 ], [ 56.237175421227739, 58.009534590341325 ], [ 56.237176376626209, 58.009489684116595 ], [ 56.237430188852564, 58.009491205183018 ], [ 56.237429233771913, 58.009536111410377 ], [ 56.237513837959028, 58.009536618320936 ], [ 56.237514792933737, 58.009491712092675 ], [ 56.237599397017767, 58.009492218946107 ], [ 56.237602261606952, 58.009357500256797 ], [ 56.237686865376027, 58.009358007051354 ], [ 56.237689729621664, 58.009223288356417 ], [ 56.237774333075798, 58.00922379509209 ], [ 56.237775287712694, 58.009178888858891 ], [ 56.237690684364495, 58.009178382124105 ], [ 56.237691639104462, 58.009133475891474 ], [ 56.237522432628509, 58.009132462254918 ], [ 56.23752338757749, 58.009087556023722 ], [ 56.237354181324847, 58.009086542163956 ], [ 56.237353226163997, 58.009131448393404 ], [ 56.237268622936035, 58.009130941378309 ], [ 56.237267667666394, 58.009175847606535 ], [ 56.237098461007172, 58.009174833405865 ], [ 56.237099416488682, 58.009129927179409 ], [ 56.236930210052776, 58.009128912755521 ], [ 56.236928298663152, 58.009218725204654 ], [ 56.236759091814953, 58.009217710552313 ], [ 56.236758135903976, 58.009262616774627 ], [ 56.236673532378234, 58.009262109363235 ], [ 56.236672576358458, 58.009307015584312 ], [ 56.236757179990136, 58.009307522996572 ], [ 56.236756224073432, 58.009352429218247 ], [ 56.236925431557246, 58.009353443875838 ], [ 56.236924475849563, 58.009398350098898 ], [ 56.2370090797017, 58.009398857344216 ], [ 56.237006212879265, 58.009533576014107 ], [ 56.236921608709316, 58.009533068766139 ], [ 56.236919697268178, 58.009622881209303 ], [ 56.236835092889216, 58.009622373903333 ], [ 56.23683318122476, 58.009712186343442 ], [ 56.236663972051673, 58.009711171559282 ], [ 56.236664928097206, 58.009666265341167 ] ], [ [ 56.237010035303449, 58.009353951120289 ], [ 56.23717924280443, 58.009354965440458 ], [ 56.237177332021808, 58.009444777891545 ], [ 56.237092728058016, 58.009444270757818 ], [ 56.237093683556687, 58.009399364533301 ], [ 56.2370090797017, 58.009398857344216 ], [ 56.237010035303449, 58.009353951120289 ] ] ] } },
{ "type": "Feature", "properties": { }, "geometry": { "type": "Polygon", "coordinates": [ [ [ 56.238867505341467, 58.009544721241468 ], [ 56.238868458621184, 58.009499814999167 ], [ 56.238783854494301, 58.009499308989277 ], [ 56.238784807877089, 58.009454402747544 ], [ 56.238615599843762, 58.009453390560822 ], [ 56.238613692651562, 58.009543203040494 ], [ 56.238529088427299, 58.009542696861033 ], [ 56.238527181011804, 58.0096325093376 ], [ 56.238696389886933, 58.009633521643806 ], [ 56.238695436386777, 58.009678427883387 ], [ 56.239033854595036, 58.009680451824472 ], [ 56.239034807671437, 58.009635545581396 ], [ 56.238865598773479, 58.00963453372507 ], [ 56.238866552058902, 58.00958962748345 ], [ 56.238781947720142, 58.009589121471819 ], [ 56.238782901108642, 58.009544215230711 ], [ 56.238867505341467, 58.009544721241468 ] ] ] } },
{ "type": "Feature", "properties": { }, "geometry": { "type": "Polygon", "coordinates": [ [ [ 56.237285402432818, 58.012319789842742 ], [ 56.237370013185803, 58.012320296864047 ], [ 56.237371923698909, 58.012230484449816 ], [ 56.237456534242845, 58.012230991413134 ], [ 56.237458444532599, 58.012141178995812 ], [ 56.237373834200575, 58.012140672034263 ], [ 56.237374789447117, 58.012095765825983 ], [ 56.237290179223912, 58.012095258809069 ], [ 56.23728826851606, 58.012185071223527 ], [ 56.2372036580838, 58.012184564148598 ], [ 56.237201747152596, 58.012274376559979 ], [ 56.23711713651128, 58.012273869427062 ], [ 56.23711522535671, 58.012363681835375 ], [ 56.237030614506359, 58.012363174644449 ], [ 56.237028703128424, 58.01245298704967 ], [ 56.23694409206901, 58.01245247980075 ], [ 56.236942180467715, 58.012542292202895 ], [ 56.237026791739041, 58.012542799453584 ], [ 56.237025836040061, 58.012587705655044 ], [ 56.237110447420214, 58.01258821285036 ], [ 56.237111403013238, 58.012543306648034 ], [ 56.237196014290291, 58.01254381378623 ], [ 56.237197925255835, 58.012454001378799 ], [ 56.237282536323839, 58.012454508458994 ], [ 56.237285402432818, 58.012319789842742 ] ] ] } },
{ "type": "Feature", "properties": { }, "geometry": { "type": "Polygon", "coordinates": [ [ [ 56.238459460360346, 58.012820851403596 ], [ 56.238290236451803, 58.01281983874771 ], [ 56.238291190575687, 58.012774932534697 ], [ 56.238206578731671, 58.012774426123265 ], [ 56.238208487182781, 58.012684613698035 ], [ 56.238293098814886, 58.01268512010769 ], [ 56.238295007042652, 58.012595307679362 ], [ 56.238210395622467, 58.012594801271447 ], [ 56.238214212467547, 58.012415176414379 ], [ 56.238129601474057, 58.012414669953728 ], [ 56.23812769284531, 58.012504482381161 ], [ 56.238043081642765, 58.012503975862508 ], [ 56.238041172790673, 58.012593788286893 ], [ 56.237956561379065, 58.012593281710245 ], [ 56.237953697761611, 58.012728000341681 ], [ 56.237869086034976, 58.012727493706151 ], [ 56.237867176730461, 58.012817306123708 ], [ 56.238121012554693, 58.012818825866852 ], [ 56.23811910387451, 58.012908638288344 ], [ 56.238372940360236, 58.012910157530541 ], [ 56.238371986333739, 58.012955063743426 ], [ 56.238456598607321, 58.012955570045889 ], [ 56.238455644683931, 58.013000476259343 ], [ 56.238624869451591, 58.013001488697292 ], [ 56.238623915737271, 58.013046394912159 ], [ 56.238793140728276, 58.013047407126891 ], [ 56.238796001226895, 58.012912688476 ], [ 56.238626776871662, 58.012911676266562 ], [ 56.238627730577413, 58.012866770050699 ], [ 56.238458506445525, 58.01286575761803 ], [ 56.238459460360346, 58.012820851403596 ] ] ] } },
{ "type": "Feature", "properties": { }, "geometry": { "type": "Polygon", "coordinates": [ [ [ 56.236507647948166, 58.013078629438276 ], [ 56.236592260476705, 58.013079136980728 ], [ 56.236593216736978, 58.013034230787298 ], [ 56.236677829162431, 58.013034738272644 ], [ 56.236679741462467, 58.012944925883005 ], [ 56.236764353678851, 58.012945433310357 ], [ 56.236766265755506, 58.012855620917641 ], [ 56.236850877762834, 58.012856128286984 ], [ 56.236852789616123, 58.012766315891191 ], [ 56.236683566028177, 58.012765301099797 ], [ 56.236684522162449, 58.012720394903177 ], [ 56.236430687119892, 58.012718872296908 ], [ 56.236431643569176, 58.012673966102582 ], [ 56.236262420433704, 58.012672950752282 ], [ 56.236258593771694, 58.012852575520512 ], [ 56.236597041749448, 58.012854606010251 ], [ 56.236596085500629, 58.012899512205003 ], [ 56.236511473395929, 58.012899004666053 ], [ 56.236510517038283, 58.01294391085959 ], [ 56.236256680423502, 58.012942387902648 ], [ 56.236254767063841, 58.013032200283469 ], [ 56.236170154652719, 58.013031692516911 ], [ 56.236168241069684, 58.013121504894663 ], [ 56.236337466318645, 58.013122520375063 ], [ 56.236338422899671, 58.013077614184596 ], [ 56.236423035422483, 58.013078121839541 ], [ 56.236423991894682, 58.01303321564788 ], [ 56.236508604314402, 58.013033723245719 ], [ 56.236507647948166, 58.013078629438276 ] ] ] } },
{ "type": "Feature", "properties": { }, "geometry": { "type": "Polygon", "coordinates": [ [ [ 56.237770152659166, 58.013400580100772 ], [ 56.237768243056962, 58.013490392506704 ], [ 56.237852856582101, 58.013490899213416 ], [ 56.237853811278669, 58.013445993009753 ], [ 56.237938424700701, 58.013446499659331 ], [ 56.237941288455367, 58.013311781043704 ], [ 56.237856675351232, 58.013311274396749 ], [ 56.237854765972379, 58.013401086805729 ], [ 56.237770152659166, 58.013400580100772 ] ] ] } },
{ "type": "Feature", "properties": { }, "geometry": { "type": "Polygon", "coordinates": [ [ [ 56.237342309459905, 58.013622576722668 ], [ 56.23734422013893, 58.013532764327522 ], [ 56.237428833755743, 58.013533271316348 ], [ 56.237431699434929, 58.013398552718492 ], [ 56.237347086136019, 58.013398045732309 ], [ 56.237348041462653, 58.013353139533244 ], [ 56.23726342827257, 58.01335263249171 ], [ 56.237261517404505, 58.013442444887737 ], [ 56.237176904005345, 58.013441937788187 ], [ 56.2371749929139, 58.01353175018113 ], [ 56.237090379305677, 58.013531243023571 ], [ 56.237088467990858, 58.013621055413466 ], [ 56.237003854173565, 58.013620548197878 ], [ 56.237001942635352, 58.013710360584696 ], [ 56.236917328608989, 58.013709853311134 ], [ 56.236914460962318, 58.01384457188621 ], [ 56.237083689653709, 58.013845586382395 ], [ 56.237084645326867, 58.01380068018927 ], [ 56.237169259570891, 58.013801187352108 ], [ 56.237171170696669, 58.013711374963094 ], [ 56.237255784731623, 58.013711882067931 ], [ 56.237257695634028, 58.013622069675854 ], [ 56.237342309459905, 58.013622576722668 ] ] ] } },
{ "type": "Feature", "properties": { }, "geometry": { "type": "Polygon", "coordinates": [ [ [ 56.2376740802924, 58.013938947744855 ], [ 56.237758694874344, 58.013939454516589 ], [ 56.237759649705474, 58.01389454831709 ], [ 56.237844264184318, 58.013895055031711 ], [ 56.237843309459166, 58.013939961232104 ], [ 56.238012538637356, 58.013940974494382 ], [ 56.238011584121274, 58.01398588069619 ], [ 56.238096198820635, 58.013986387243847 ], [ 56.238097153230747, 58.013941481041151 ], [ 56.238181767826994, 58.013941987531659 ], [ 56.238183676426701, 58.013852175123539 ], [ 56.23826829081387, 58.01385268155606 ], [ 56.238270199190218, 58.013762869144855 ], [ 56.238185585014989, 58.013762362714075 ], [ 56.238186539304841, 58.013717456508864 ], [ 56.238101925238439, 58.01371695002274 ], [ 56.238103834021501, 58.013627137613071 ], [ 56.238019220169896, 58.013626631072448 ], [ 56.238018265673823, 58.013671537276565 ], [ 56.237933651719096, 58.013671030678836 ], [ 56.237931742506447, 58.01376084308432 ], [ 56.237847128342644, 58.013760336428575 ], [ 56.237845218906621, 58.013850148831004 ], [ 56.23767599016373, 58.013849135347265 ], [ 56.23767694509511, 58.013804229147979 ], [ 56.23759233083392, 58.013803722322614 ], [ 56.237593285868407, 58.013758816123861 ], [ 56.237424057566543, 58.013757802306166 ], [ 56.237422147070845, 58.013847614699785 ], [ 56.237337532712267, 58.013847107704812 ], [ 56.237335621993189, 58.013936920095354 ], [ 56.2374202365637, 58.01393742709211 ], [ 56.23741928130584, 58.013982333287764 ], [ 56.237334666629359, 58.013981826290127 ], [ 56.237332755893114, 58.014071638678708 ], [ 56.237248141007555, 58.014071131623105 ], [ 56.237247185529171, 58.014116037816002 ], [ 56.2373318005207, 58.014116544872508 ], [ 56.237330845145422, 58.014161451065966 ], [ 56.237415460245778, 58.01416195806712 ], [ 56.237416415515085, 58.014117051872773 ], [ 56.237501030512334, 58.014117558816778 ], [ 56.237503895985178, 58.013982840229126 ], [ 56.237673125352437, 58.013983853943145 ], [ 56.2376740802924, 58.013938947744855 ] ] ] } },
{ "type": "Feature", "properties": { }, "geometry": { "type": "Polygon", "coordinates": [ [ [ 56.238436565616254, 58.013898600459221 ], [ 56.238521180117957, 58.013899106723898 ], [ 56.238520226240553, 58.013944012931297 ], [ 56.238774070080716, 58.013945531390419 ], [ 56.238775023640223, 58.013900625180369 ], [ 56.238690409129944, 58.013900119084461 ], [ 56.238691362792558, 58.013855212874951 ], [ 56.238437519596779, 58.013853694252354 ], [ 56.238436565616254, 58.013898600459221 ] ] ] } },
{ "type": "Feature", "properties": { }, "geometry": { "type": "Polygon", "coordinates": [ [ [ 56.236997163739751, 58.013934891545937 ], [ 56.236912549183558, 58.013934384267976 ], [ 56.236911593289875, 58.013979290458359 ], [ 56.236996207952046, 58.0139797977372 ], [ 56.236997163739751, 58.013934891545937 ] ] ] } },
{ "type": "Feature", "properties": { }, "geometry": { "type": "Polygon", "coordinates": [ [ [ 56.238723527340277, 58.016325560052302 ], [ 56.238724481051143, 58.016280653859667 ], [ 56.238639860924089, 58.016280147717225 ], [ 56.238640814738083, 58.016235241525145 ], [ 56.238556194719877, 58.016234735327309 ], [ 56.238555240799897, 58.016279641518516 ], [ 56.238386000560084, 58.016278628952314 ], [ 56.238388862947367, 58.016143910383065 ], [ 56.237965763987603, 58.016141377996405 ], [ 56.237967673291351, 58.016051565624018 ], [ 56.237883053719941, 58.016051058979698 ], [ 56.237884008473507, 58.016006152793885 ], [ 56.237799389010938, 58.016005646094186 ], [ 56.237797479288979, 58.016095458463695 ], [ 56.237712859617311, 58.016094951705995 ], [ 56.237713814585703, 58.016050045522285 ], [ 56.237544575462898, 58.016049031839877 ], [ 56.237546485815045, 58.015959219474972 ], [ 56.237631105163047, 58.015959726342537 ], [ 56.237633015291777, 58.015869913974583 ], [ 56.237717634430673, 58.01587042078414 ], [ 56.237716679473721, 58.015915326969157 ], [ 56.237801298721465, 58.015915833723348 ], [ 56.2378041632658, 58.015781115164629 ], [ 56.237719544336002, 58.015780608413088 ], [ 56.237720499284379, 58.015735702227083 ], [ 56.237551261645336, 58.015734688556968 ], [ 56.237550306484991, 58.01577959474124 ], [ 56.237465687563784, 58.015779087820931 ], [ 56.237464732294605, 58.015823994003988 ], [ 56.23738011327027, 58.015823487026559 ], [ 56.237378202511366, 58.015913299389887 ], [ 56.237293583277925, 58.015912792354435 ], [ 56.237289761301852, 58.0160924170737 ], [ 56.237374380959217, 58.016092924112655 ], [ 56.23737342556403, 58.016137830292521 ], [ 56.237542665099319, 58.016138844203461 ], [ 56.237541709913238, 58.016183750384755 ], [ 56.237710949671943, 58.016184764072442 ], [ 56.237709994694967, 58.01622967025515 ], [ 56.237879234677081, 58.016230683719613 ], [ 56.237878279909218, 58.016275589903756 ], [ 56.238047520114741, 58.016276603144959 ], [ 56.238046565555983, 58.016321509330538 ], [ 56.238215805984915, 58.016322522348474 ], [ 56.23821485163527, 58.016367428535496 ], [ 56.238384092287603, 58.016368441330201 ], [ 56.238383138147071, 58.016413347518608 ], [ 56.238552379022806, 58.01641436009006 ], [ 56.238551425091394, 58.016459266279938 ], [ 56.238720666190524, 58.016460278628145 ], [ 56.238719712468232, 58.016505184819437 ], [ 56.23888895379077, 58.016506196944377 ], [ 56.238888000277591, 58.016551103137097 ], [ 56.239141862600761, 58.016552620905259 ], [ 56.239143768988335, 58.016462808514234 ], [ 56.239228389556466, 58.016463314322692 ], [ 56.239230295720652, 58.016373501928591 ], [ 56.238807193968427, 58.016370972332524 ], [ 56.238808147576165, 58.016326066139371 ], [ 56.238723527340277, 58.016325560052302 ] ] ] } },
{ "type": "Feature", "properties": { }, "geometry": { "type": "Polygon", "coordinates": [ [ [ 56.256574184018035, 58.004394695415954 ], [ 56.256573253096974, 58.004439601876832 ], [ 56.256742438170917, 58.00444059013607 ], [ 56.256741507458884, 58.004485496598342 ], [ 56.256826100105933, 58.004485990644454 ], [ 56.25682796131543, 58.004396177717879 ], [ 56.256912553753466, 58.004396671706068 ], [ 56.25691348424813, 58.004351765241438 ], [ 56.256490522615323, 58.004349294742497 ], [ 56.256489591591141, 58.004394201202857 ], [ 56.256574184018035, 58.004394695415954 ] ] ] } },
{ "type": "Feature", "properties": { }, "geometry": { "type": "Polygon", "coordinates": [ [ [ 56.257664590252695, 58.004850179775097 ], [ 56.25749540321118, 58.004849192737431 ], [ 56.257496332992361, 58.004804286270051 ], [ 56.257073365966846, 58.004801817696212 ], [ 56.257074296274766, 58.004756911232832 ], [ 56.256905109695865, 58.004755923411409 ], [ 56.256906040212812, 58.0047110169494 ], [ 56.256736853856872, 58.004710028904782 ], [ 56.256737784582846, 58.004665122444145 ], [ 56.256568598449853, 58.004664134176352 ], [ 56.256569529384848, 58.004619227717093 ], [ 56.256400343474816, 58.00461823922609 ], [ 56.256401274618838, 58.004573332768253 ], [ 56.256232088931768, 58.004572344054075 ], [ 56.256230226217326, 58.004662156966042 ], [ 56.256145633166163, 58.004661662522885 ], [ 56.256143770228746, 58.004751475431796 ], [ 56.256312956757483, 58.004752464265295 ], [ 56.256312025496406, 58.004797370720979 ], [ 56.256481212248104, 58.004798359331303 ], [ 56.256480281196048, 58.004843265788388 ], [ 56.256649468170714, 58.004844254175502 ], [ 56.256648537327678, 58.004889160633965 ], [ 56.256817724525305, 58.004890148797891 ], [ 56.256816793891304, 58.004935055257711 ], [ 56.256901387600202, 58.004935549256189 ], [ 56.256900457069321, 58.004980455716584 ], [ 56.257069644707286, 58.004981443546562 ], [ 56.257068714385433, 58.005026350008322 ], [ 56.257407090118413, 58.005028324996978 ], [ 56.257408020016641, 58.004983418531801 ], [ 56.257577207688023, 58.004984405687061 ], [ 56.257578137371645, 58.004939499219802 ], [ 56.257662731105611, 58.004939992712238 ], [ 56.257664590252695, 58.004850179775097 ] ] ] } },
{ "type": "Feature", "properties": { }, "geometry": { "type": "Polygon", "coordinates": [ [ [ 56.240226967065844, 58.005286208917191 ], [ 56.240227918485829, 58.005241302630466 ], [ 56.240058730274619, 58.005240292408082 ], [ 56.240057778642814, 58.005285198693045 ], [ 56.239973184435577, 58.005284693496634 ], [ 56.239972232695024, 58.005329599780396 ], [ 56.240056827008168, 58.005330104977695 ], [ 56.240055875370672, 58.005375011261989 ], [ 56.240225064217334, 58.005376021489624 ], [ 56.240224112788802, 58.005420927775354 ], [ 56.240308707322313, 58.005421432805711 ], [ 56.240307755996845, 58.005466339092003 ], [ 56.240476945284229, 58.005467348985782 ], [ 56.240477896397877, 58.00542244269775 ], [ 56.240562490939936, 58.005422947559431 ], [ 56.240564392946879, 58.005333134980638 ], [ 56.24039520428925, 58.005332125204568 ], [ 56.240396155500264, 58.005287218916429 ], [ 56.240226967065844, 58.005286208917191 ] ] ] } },
{ "type": "Feature", "properties": { }, "geometry": { "type": "Polygon", "coordinates": [ [ [ 56.240729778437888, 58.005513769695071 ], [ 56.240728827636275, 58.005558675985064 ], [ 56.240898017375763, 58.005559685320073 ], [ 56.240900869136624, 58.005424966443854 ], [ 56.240816274583182, 58.005424461807074 ], [ 56.240815323893166, 58.005469368098609 ], [ 56.240646134583002, 58.00546835865466 ], [ 56.240645183678325, 58.005513264944099 ], [ 56.240729778437888, 58.005513769695071 ] ] ] } },
{ "type": "Feature", "properties": { }, "geometry": { "type": "Polygon", "coordinates": [ [ [ 56.24216788978584, 58.005522341858672 ], [ 56.242252484596598, 58.00552284559754 ], [ 56.242253433489005, 58.005477939291481 ], [ 56.242338028196691, 58.005478442973228 ], [ 56.242339925761158, 58.005388630358368 ], [ 56.242170736772252, 58.005387622942102 ], [ 56.242169787779616, 58.005432529247969 ], [ 56.24208519318352, 58.005432025454624 ], [ 56.242083294977917, 58.005521838063594 ], [ 56.241998700172843, 58.005521334212254 ], [ 56.241996801744051, 58.005611146818147 ], [ 56.241912206729992, 58.005610642908863 ], [ 56.241910308078019, 58.0057004555117 ], [ 56.241825712854983, 58.005699951544415 ], [ 56.241824763418819, 58.005744857844469 ], [ 56.241909358747762, 58.005745361812608 ], [ 56.24190840941467, 58.00579026811323 ], [ 56.242162195736292, 58.005791779682923 ], [ 56.242164093764174, 58.005701967076149 ], [ 56.242079498532611, 58.00570146327756 ], [ 56.242082345870848, 58.00556674436757 ], [ 56.242166940784678, 58.005567248163537 ], [ 56.24216788978584, 58.005522341858672 ] ] ] } },
{ "type": "Feature", "properties": { }, "geometry": { "type": "Polygon", "coordinates": [ [ [ 56.242504371888053, 58.00561416909315 ], [ 56.242503423304854, 58.00565907540085 ], [ 56.242672613587402, 58.005660082377773 ], [ 56.242671665213194, 58.005704988686873 ], [ 56.242756260464631, 58.005705492091877 ], [ 56.242758156998406, 58.005615679471546 ], [ 56.242842752040858, 58.005616182818564 ], [ 56.242843700197575, 58.005571276507041 ], [ 56.242674510327312, 58.005570269758536 ], [ 56.242673561958775, 58.005615176068311 ], [ 56.242504371888053, 58.00561416909315 ] ] ] } },
{ "type": "Feature", "properties": { }, "geometry": { "type": "Polygon", "coordinates": [ [ [ 56.255103466229023, 58.005958011571536 ], [ 56.255104399045393, 58.005913105136393 ], [ 56.255188995028526, 58.005913600278298 ], [ 56.25518992773619, 58.005868693842004 ], [ 56.255274523616201, 58.005869188926852 ], [ 56.255276388811325, 58.0057793760515 ], [ 56.255360984482301, 58.005779871078389 ], [ 56.255362849454428, 58.005690058200024 ], [ 56.255278253995272, 58.005689563174847 ], [ 56.25527918658306, 58.005644656736038 ], [ 56.255109995884951, 58.005643666518743 ], [ 56.255110928681766, 58.005598760081305 ], [ 56.255026333442814, 58.00559826488918 ], [ 56.2550300650258, 58.00541863913962 ], [ 56.25477628059663, 58.005417153236138 ], [ 56.254774414175259, 58.005506966106417 ], [ 56.254689819159296, 58.005506470691095 ], [ 56.254687019188559, 58.005641189991472 ], [ 56.254771614522241, 58.005641685409387 ], [ 56.254770681298993, 58.005686591843045 ], [ 56.254939872186576, 58.005687582511896 ], [ 56.254938939172348, 58.005732488946961 ], [ 56.255108130282935, 58.005733479392603 ], [ 56.255107197477741, 58.005778385829046 ], [ 56.255022601815142, 58.00577789063346 ], [ 56.255020735984544, 58.005867703503654 ], [ 56.254936140112903, 58.005867208250152 ], [ 56.254934274059309, 58.00595702111729 ], [ 56.25484967797864, 58.005956525805821 ], [ 56.254847811702035, 58.006046338669933 ], [ 56.254763215412339, 58.006045843300512 ], [ 56.254760415658737, 58.006180562591652 ], [ 56.254845012266181, 58.006181057963644 ], [ 56.254845945414267, 58.006136151532722 ], [ 56.25493054191859, 58.006136646847615 ], [ 56.254932407994538, 58.00604683398312 ], [ 56.255017004289826, 58.006047329240076 ], [ 56.25501887014277, 58.005957516372526 ], [ 56.255103466229023, 58.005958011571536 ] ] ] } },
{ "type": "Feature", "properties": { }, "geometry": { "type": "Polygon", "coordinates": [ [ [ 56.247905274246904, 58.006274969799016 ], [ 56.248074467645381, 58.006275969601212 ], [ 56.248077292526112, 58.006141250517622 ], [ 56.247992696143207, 58.006140750647234 ], [ 56.247991754413199, 58.00618565700789 ], [ 56.247907157927202, 58.006185157080417 ], [ 56.247905274246904, 58.006274969799016 ] ] ] } },
{ "type": "Feature", "properties": { }, "geometry": { "type": "Polygon", "coordinates": [ [ [ 56.24222116955341, 58.007004753513165 ], [ 56.242390366173836, 58.007005760879863 ], [ 56.242391314948158, 58.006960854582886 ], [ 56.242306716742448, 58.006960350928544 ], [ 56.24230766561984, 58.006915444632114 ], [ 56.242223067522893, 58.0069149409224 ], [ 56.24222116955341, 58.007004753513165 ] ] ] } },
{ "type": "Feature", "properties": { }, "geometry": { "type": "Polygon", "coordinates": [ [ [ 56.24340554613493, 58.007011800356707 ], [ 56.243320947789222, 58.007011297376245 ], [ 56.243320000177185, 58.007056203682474 ], [ 56.243404598628814, 58.007056706663811 ], [ 56.24340554613493, 58.007011800356707 ] ] ] } },
{ "type": "Feature", "properties": { }, "geometry": { "type": "Polygon", "coordinates": [ [ [ 56.242050074539819, 58.007093558507449 ], [ 56.242048176123916, 58.007183371092083 ], [ 56.241963577399964, 58.007182867208421 ], [ 56.241961678760859, 58.00727267978997 ], [ 56.241877079827901, 58.007272175848335 ], [ 56.241875180965579, 58.007361988426808 ], [ 56.242044379258012, 58.007362996257363 ], [ 56.242046277696652, 58.007273183675387 ], [ 56.242215475576764, 58.007274191277517 ], [ 56.242217373580345, 58.007184378690695 ], [ 56.242301972312816, 58.007184882405674 ], [ 56.242303870093188, 58.007095069815819 ], [ 56.242050074539819, 58.007093558507449 ] ] ] } },
{ "type": "Feature", "properties": { }, "geometry": { "type": "Polygon", "coordinates": [ [ [ 56.241704083387127, 58.007450792945029 ], [ 56.24170313373417, 58.007495699231356 ], [ 56.241787733191053, 58.007496203289847 ], [ 56.241788682738083, 58.007451297002625 ], [ 56.241704083387127, 58.007450792945029 ] ] ] } },
{ "type": "Feature", "properties": { }, "geometry": { "type": "Polygon", "coordinates": [ [ [ 56.24145028535132, 58.00744928043482 ], [ 56.241281086675002, 58.007448271813516 ], [ 56.241282036854734, 58.007403365531204 ], [ 56.241197437626766, 58.007402861137074 ], [ 56.241196487341114, 58.007447767418519 ], [ 56.241111888010067, 58.007447262967283 ], [ 56.24110998721838, 58.007537075527381 ], [ 56.241279186307011, 58.007538084377131 ], [ 56.241278236118738, 58.007582990658449 ], [ 56.241532035090792, 58.007584503513925 ], [ 56.241532984961289, 58.007539597229972 ], [ 56.241617584518401, 58.00754010140178 ], [ 56.241618534280136, 58.007495195116647 ], [ 56.241449335380594, 58.007494186718525 ], [ 56.24145028535132, 58.00744928043482 ] ] ] } },
{ "type": "Feature", "properties": { }, "geometry": { "type": "Polygon", "coordinates": [ [ [ 56.239334350097131, 58.007481562763608 ], [ 56.239165151351401, 58.007480551328925 ], [ 56.239164198517898, 58.00752545758867 ], [ 56.239333397475477, 58.007526469025095 ], [ 56.239334350097131, 58.007481562763608 ] ] ] } },
{ "type": "Feature", "properties": { }, "geometry": { "type": "Polygon", "coordinates": [ [ [ 56.250404688759438, 58.008131104721599 ], [ 56.250235486517667, 58.008130107997388 ], [ 56.250236425508859, 58.008085201627502 ], [ 56.250151824498118, 58.008084703181922 ], [ 56.250152763592425, 58.008039796812533 ], [ 56.250068162690425, 58.008039298311573 ], [ 56.250069101887838, 58.007994391942781 ], [ 56.24998450109458, 58.007993893386434 ], [ 56.249985440395122, 58.00794898701816 ], [ 56.249731638349999, 58.007947491014363 ], [ 56.249730698731682, 58.007992397380043 ], [ 56.249561497170482, 58.007991399761295 ], [ 56.249562437000655, 58.00794649339732 ], [ 56.249393235662566, 58.007945495555376 ], [ 56.249395115738182, 58.00785568282992 ], [ 56.249310515285217, 58.007855183826315 ], [ 56.249309575142888, 58.007900090188336 ], [ 56.249140374033537, 58.007899092010703 ], [ 56.24913943367654, 58.007943998370671 ], [ 56.249224034335732, 58.007944497488488 ], [ 56.249223094081849, 58.00798940384896 ], [ 56.249392295620538, 58.007990401917596 ], [ 56.249391355575689, 58.008035308279496 ], [ 56.249560557337496, 58.008036306124929 ], [ 56.249559617501689, 58.008081212488243 ], [ 56.249728819486606, 58.008082210110452 ], [ 56.249727879859847, 58.008127116475144 ], [ 56.249812480962447, 58.008127615202788 ], [ 56.249811541438802, 58.008172521568035 ], [ 56.249980743864313, 58.008173518856296 ], [ 56.249979804549717, 58.008218425222942 ], [ 56.250149007198331, 58.008219422288022 ], [ 56.250148068092784, 58.008264328656061 ], [ 56.250317270964509, 58.008265325497931 ], [ 56.250316332068003, 58.008310231867384 ], [ 56.250570136714458, 58.008311726710986 ], [ 56.250571075293173, 58.00826682033896 ], [ 56.250486473847474, 58.008266322114856 ], [ 56.250488351208332, 58.008176509371509 ], [ 56.250403749977295, 58.0081760110929 ], [ 56.250404688759438, 58.008131104721599 ] ] ] } },
{ "type": "Feature", "properties": { }, "geometry": { "type": "Polygon", "coordinates": [ [ [ 56.245491213781861, 58.008416452635586 ], [ 56.245490268836051, 58.008461358954271 ], [ 56.2454056670299, 58.008460857351764 ], [ 56.245404721975326, 58.00850576366927 ], [ 56.245320120066076, 58.008505262009642 ], [ 56.245321065226577, 58.008460355693003 ], [ 56.245067259833597, 58.008458850379334 ], [ 56.24506820530906, 58.008413944065005 ], [ 56.244560595235122, 58.008410931924537 ], [ 56.244559649124078, 58.008455838233651 ], [ 56.244728852682591, 58.008456842507158 ], [ 56.244727906780575, 58.0085017488177 ], [ 56.244897110562277, 58.008502752868004 ], [ 56.244896164869289, 58.008547659179932 ], [ 56.24506536887418, 58.008548663007033 ], [ 56.245064423390225, 58.008593569320382 ], [ 56.245233627618298, 58.008594572924288 ], [ 56.245232682343378, 58.008639479239051 ], [ 56.245401886794646, 58.008640482619739 ], [ 56.245402831857703, 58.00859557630325 ], [ 56.245487433981644, 58.008596077908372 ], [ 56.245489323887412, 58.008506265272665 ], [ 56.245573925802319, 58.008506766819799 ], [ 56.245575815484912, 58.008416954181008 ], [ 56.245491213781861, 58.008416452635586 ] ] ] } },
{ "type": "Feature", "properties": { }, "geometry": { "type": "Polygon", "coordinates": [ [ [ 56.246759296267669, 58.00846887624391 ], [ 56.246760239624514, 58.008423969912187 ], [ 56.246506434405106, 58.008422467469096 ], [ 56.246505490730463, 58.008467373798211 ], [ 56.246420888890384, 58.008466872870507 ], [ 56.24641900132076, 58.008556685526052 ], [ 56.246334399271639, 58.008556184540367 ], [ 56.246332511478847, 58.008645997192822 ], [ 56.246247909220692, 58.008645496149178 ], [ 56.246246021204726, 58.008735308798606 ], [ 56.246161418737536, 58.008734807697003 ], [ 56.246159530498403, 58.008824620343361 ], [ 56.246413338544066, 58.008826123484752 ], [ 56.246415226147597, 58.008736310833157 ], [ 56.246499828623278, 58.00873681176607 ], [ 56.246501716003642, 58.008646999111427 ], [ 56.246586318270275, 58.008647499986353 ], [ 56.246590092573371, 58.008467874669677 ], [ 56.246759296267669, 58.00846887624391 ] ] ] } },
{ "type": "Feature", "properties": { }, "geometry": { "type": "Polygon", "coordinates": [ [ [ 56.2443705721413, 58.009397866114057 ], [ 56.244455176138082, 58.009398368409684 ], [ 56.244456122414562, 58.009353462108351 ], [ 56.244540726308244, 58.009353964346865 ], [ 56.244542618640821, 58.009264151741476 ], [ 56.244627222325462, 58.00926465392201 ], [ 56.244629114434836, 58.009174841313552 ], [ 56.244713717910436, 58.009175343436119 ], [ 56.244719393534972, 58.008905905597643 ], [ 56.244803996377797, 58.008906407658735 ], [ 56.244804942199366, 58.008861501350303 ], [ 56.244720339462468, 58.008860999290064 ], [ 56.244721285387151, 58.008816092982173 ], [ 56.24455208013373, 58.008815088694732 ], [ 56.244551133997192, 58.008859995000897 ], [ 56.244466531268792, 58.008859492771961 ], [ 56.244464638775341, 58.008949305381542 ], [ 56.244380035837906, 58.008948803094604 ], [ 56.24437814312126, 58.00903861570113 ], [ 56.244462746270557, 58.009039117989794 ], [ 56.244461800013916, 58.009084024293415 ], [ 56.244546403271983, 58.009084526526728 ], [ 56.244545457118441, 58.009129432830903 ], [ 56.24446085375444, 58.009128930596745 ], [ 56.244458961226989, 58.009218743202354 ], [ 56.244374357653953, 58.009218240910201 ], [ 56.244372464903293, 58.009308053512783 ], [ 56.244287861121215, 58.009307551162657 ], [ 56.244285968147352, 58.00939736376219 ], [ 56.244201364156233, 58.009396861354077 ], [ 56.244199470959153, 58.009486673950512 ], [ 56.244114866758991, 58.009486171484433 ], [ 56.244113920050268, 58.009531077781297 ], [ 56.244029315747007, 58.009530575258097 ], [ 56.244031209373503, 58.009440762665797 ], [ 56.24386200119924, 58.009439757454189 ], [ 56.24386010714899, 58.009529570042993 ], [ 56.243775502854234, 58.009529067351096 ], [ 56.243774555718915, 58.00957397364413 ], [ 56.243859160119612, 58.009574476336915 ], [ 56.2438582130874, 58.009619382630511 ], [ 56.243942817596867, 58.009619885267931 ], [ 56.243941870667761, 58.009664791562031 ], [ 56.244111079907078, 58.009665796669907 ], [ 56.244110133187007, 58.009710702965464 ], [ 56.244194737916857, 58.009711205435892 ], [ 56.244198524356364, 58.009531580248257 ], [ 56.244283128665295, 58.009532082658978 ], [ 56.244285021656168, 58.009442270061456 ], [ 56.244369625756057, 58.009442772414189 ], [ 56.2443705721413, 58.009397866114057 ] ] ] } },
{ "type": "Feature", "properties": { }, "geometry": { "type": "Polygon", "coordinates": [ [ [ 56.239292432045609, 58.009457437958012 ], [ 56.239377036083681, 58.009457943629606 ], [ 56.239377988722062, 58.009413037381378 ], [ 56.239462592657041, 58.00941354299583 ], [ 56.239464497713385, 58.009323730496654 ], [ 56.239549101439351, 58.009324236053139 ], [ 56.239551006272407, 58.009234423550872 ], [ 56.239635609789353, 58.009234929049377 ], [ 56.239636562095669, 58.009190022796872 ], [ 56.239721165509529, 58.009190528238257 ], [ 56.239722117707061, 58.009145621984537 ], [ 56.239468307791832, 58.009144105494336 ], [ 56.239467355276503, 58.009189011745413 ], [ 56.239298148468734, 58.009188000468995 ], [ 56.239297195738686, 58.009232906718005 ], [ 56.23938179924707, 58.0092334123852 ], [ 56.239380846620101, 58.009278318634749 ], [ 56.239296243005775, 58.009277812966666 ], [ 56.239294337531391, 58.009367625463007 ], [ 56.239209733708044, 58.00936711973695 ], [ 56.239207828010386, 58.009456932230187 ], [ 56.239123223978019, 58.009456426446143 ], [ 56.239121318057066, 58.009546238936338 ], [ 56.239036713815686, 58.009545733094278 ], [ 56.239034807671437, 58.009635545581396 ], [ 56.23928862103979, 58.009637062944087 ], [ 56.239290526548402, 58.009547250451703 ], [ 56.239205922301309, 58.009546744722137 ], [ 56.239206875157272, 58.009501838476325 ], [ 56.23929147929843, 58.009502344205018 ], [ 56.239292432045609, 58.009457437958012 ] ] ] } },
{ "type": "Feature", "properties": { }, "geometry": { "type": "Polygon", "coordinates": [ [ [ 56.244363947385061, 58.0097122102081 ], [ 56.244279342649548, 58.009711707850109 ], [ 56.244278396138519, 58.009756614147079 ], [ 56.24436300097998, 58.009757116505916 ], [ 56.244363947385061, 58.0097122102081 ] ] ] } },
{ "type": "Feature", "properties": { }, "geometry": { "type": "Polygon", "coordinates": [ [ [ 56.24444760582427, 58.009757618808528 ], [ 56.244446659522296, 58.009802525106892 ], [ 56.244531264475363, 58.009803027354131 ], [ 56.244532210671402, 58.009758121054887 ], [ 56.24444760582427, 58.009757618808528 ] ] ] } },
{ "type": "Feature", "properties": { }, "geometry": { "type": "Polygon", "coordinates": [ [ [ 56.244615869431257, 58.009803529545131 ], [ 56.244614923338332, 58.009848435844944 ], [ 56.244699528403004, 58.009848937980578 ], [ 56.244700474389994, 58.009804031679899 ], [ 56.244615869431257, 58.009803529545131 ] ] ] } },
{ "type": "Feature", "properties": { }, "geometry": { "type": "Polygon", "coordinates": [ [ [ 56.239130637663152, 58.013094337101201 ], [ 56.239046025048843, 58.013093831246067 ], [ 56.239045071858619, 58.013138737464672 ], [ 56.239129684578899, 58.013139243320687 ], [ 56.239130637663152, 58.013094337101201 ] ] ] } },
{ "type": "Feature", "properties": { }, "geometry": { "type": "Polygon", "coordinates": [ [ [ 56.239451939825194, 58.013904671922873 ], [ 56.239455750643693, 58.013725047051295 ], [ 56.239540364755783, 58.013725552637496 ], [ 56.239542269935974, 58.013635740197977 ], [ 56.239457656035817, 58.013635234613531 ], [ 56.239458608727602, 58.013590328394159 ], [ 56.239373994936265, 58.013589822754334 ], [ 56.239375900523207, 58.013500010316363 ], [ 56.239291286946653, 58.013499504622068 ], [ 56.239292239841809, 58.013454598403463 ], [ 56.239207626374075, 58.013454092653795 ], [ 56.239208579372345, 58.01340918643573 ], [ 56.239039352657372, 58.013408174769403 ], [ 56.239037446234114, 58.013497987201681 ], [ 56.238952832668978, 58.0134974812824 ], [ 56.238950926022376, 58.013587293711616 ], [ 56.239035539799438, 58.013587799632667 ], [ 56.23903458657783, 58.013632705847641 ], [ 56.239203814352464, 58.013633717522723 ], [ 56.239202861339926, 58.013678623739132 ], [ 56.23911824734521, 58.013678117928826 ], [ 56.239116341099638, 58.013767930358924 ], [ 56.239031726895846, 58.013767424490624 ], [ 56.239029820426921, 58.013857236917637 ], [ 56.239114434842655, 58.013857742787692 ], [ 56.239112528574239, 58.013947555215147 ], [ 56.239027913946579, 58.013947049343358 ], [ 56.239026007454818, 58.014036861767728 ], [ 56.239279851982182, 58.014038379219691 ], [ 56.239280804911587, 58.013993473005023 ], [ 56.239534649146734, 58.013994989948138 ], [ 56.239535601755371, 58.013950083730521 ], [ 56.239620216400155, 58.013950589264851 ], [ 56.239621168899973, 58.013905683046026 ], [ 56.239451939825194, 58.013904671922873 ] ] ] } },
{ "type": "Feature", "properties": { }, "geometry": { "type": "Polygon", "coordinates": [ [ [ 56.239778970343373, 58.01444556856945 ], [ 56.239778018021269, 58.014490474786086 ], [ 56.239862633946267, 58.014490980162194 ], [ 56.239865490586105, 58.014356261508695 ], [ 56.239780874979033, 58.014355756135195 ], [ 56.239779922662628, 58.014400662352493 ], [ 56.239695306952434, 58.014400156921887 ], [ 56.239694354527202, 58.014445063137956 ], [ 56.239778970343373, 58.01444556856945 ] ] ] } },
{ "type": "Feature", "properties": { }, "geometry": { "type": "Polygon", "coordinates": [ [ [ 56.239861681727284, 58.014535886379377 ], [ 56.239692449668205, 58.01453487556914 ], [ 56.239690544797796, 58.014624687998996 ], [ 56.239605928560586, 58.014624182507767 ], [ 56.239604023466811, 58.014713994934553 ], [ 56.239519407020516, 58.014713489385308 ], [ 56.239518454363377, 58.014758395597326 ], [ 56.239603070915656, 58.014758901147466 ], [ 56.239602118361638, 58.014803807360039 ], [ 56.239686735022737, 58.014804312854785 ], [ 56.239687687470784, 58.014759406641325 ], [ 56.239772304028769, 58.014759912078958 ], [ 56.239775161037855, 58.014625193433993 ], [ 56.239859777280763, 58.014625698812729 ], [ 56.239861681727284, 58.014535886379377 ] ] ] } },
{ "type": "Feature", "properties": { }, "geometry": { "type": "Polygon", "coordinates": [ [ [ 56.239517501703382, 58.014803301809046 ], [ 56.239516549040538, 58.014848208020403 ], [ 56.239347315520646, 58.014847196747901 ], [ 56.239348268395439, 58.014802290538313 ], [ 56.239263651745745, 58.014801784818552 ], [ 56.239264604723658, 58.014756878609482 ], [ 56.239095371644787, 58.014755867003004 ], [ 56.239096324831799, 58.014710960795369 ], [ 56.238842475552822, 58.014709442966435 ], [ 56.238839615029455, 58.014844161580449 ], [ 56.239008848515098, 58.014845173527938 ], [ 56.239007895213547, 58.014890079733696 ], [ 56.239177128922563, 58.01489109145794 ], [ 56.23917617583011, 58.014935997665177 ], [ 56.239345409762493, 58.014937009166175 ], [ 56.239344456879138, 58.01498191537479 ], [ 56.239513691034887, 58.014982926652543 ], [ 56.239512738360631, 58.015027832862593 ], [ 56.239681972739746, 58.015028843917108 ], [ 56.239681020274588, 58.015073750128593 ], [ 56.239765637574408, 58.015074255572372 ], [ 56.239767542289911, 58.014984443147327 ], [ 56.239682925202047, 58.014983937705331 ], [ 56.239684830118094, 58.014894125280705 ], [ 56.239600213245041, 58.014893619784182 ], [ 56.239602118361638, 58.014803807360039 ], [ 56.239517501703382, 58.014803301809046 ] ] ] } },
{ "type": "Feature", "properties": { }, "geometry": { "type": "Polygon", "coordinates": [ [ [ 56.240250499218433, 58.016155036177757 ], [ 56.240252402799037, 58.016065223758005 ], [ 56.240337022450376, 58.0160657288273 ], [ 56.240339877481951, 58.015931010192553 ], [ 56.240424496818193, 58.015931515202972 ], [ 56.240425448383697, 58.015886608989859 ], [ 56.240510067616803, 58.015887113943144 ], [ 56.240511970527308, 58.015797301514183 ], [ 56.240596589551302, 58.015797806409459 ], [ 56.240595638203459, 58.015842712624995 ], [ 56.240764876471957, 58.015843722248583 ], [ 56.240763925333226, 58.015888628465525 ], [ 56.240933163825076, 58.015889637865847 ], [ 56.240932212895466, 58.015934544084232 ], [ 56.241016832251653, 58.015935048700896 ], [ 56.241017783075279, 58.015890142481645 ], [ 56.241102402328323, 58.015890647041189 ], [ 56.241104303755073, 58.015800834599951 ], [ 56.240935065675757, 58.015799825428132 ], [ 56.240936016596827, 58.015754919208774 ], [ 56.240766778740863, 58.015753909813689 ], [ 56.240767729871045, 58.015709003595767 ], [ 56.240683111053322, 58.015708498814732 ], [ 56.240684062286633, 58.015663592597313 ], [ 56.240514824871696, 58.015662582868259 ], [ 56.240513873426416, 58.015707489083908 ], [ 56.240429254617233, 58.015706984134113 ], [ 56.240426399946358, 58.015841702776413 ], [ 56.240341780822085, 58.015841197767749 ], [ 56.240340829153446, 58.015886103980307 ], [ 56.240256209926038, 58.015885598914522 ], [ 56.240253354585064, 58.016020317547614 ], [ 56.240168735042559, 58.01601981242294 ], [ 56.240167783150547, 58.01606471863245 ], [ 56.240083163504913, 58.016064213450662 ], [ 56.240081259500371, 58.016154025866918 ], [ 56.239996639645611, 58.016153520627114 ], [ 56.239993783299468, 58.016288239246393 ], [ 56.239909163129603, 58.016287733947706 ], [ 56.239908210902534, 58.016332640152598 ], [ 56.239823590629541, 58.016332134796798 ], [ 56.239821685954873, 58.016421947203838 ], [ 56.239990926927653, 58.016422957862723 ], [ 56.239992831178384, 58.016333145452165 ], [ 56.240077451457076, 58.016333650695493 ], [ 56.240080307493827, 58.016198932074545 ], [ 56.240164927457414, 58.016199437258969 ], [ 56.240165879357974, 58.016154531050475 ], [ 56.240250499218433, 58.016155036177757 ] ] ] } }
]
}
