{"type":"FeatureCollection","features":[{"type":"Feature","properties":{},"geometry":{"coordinates":[[[56.254446283182006,58.00782392970149],[56.255950235180165,58.007699784211866],[56.255652386235596,58.007993621114224],[56.25578590472736,58.0080262695102],[56.255714010154634,58.008058917876355],[56.255868069953806,58.008091566212386],[56.25572428080835,58.008243924721455],[56.255436702517414,58.00816774554818],[56.25519020683819,58.00839628258154],[56.25527237206458,58.00842893061022],[56.25510804161178,58.00858672899503],[56.254943714964014,58.008058919723595],[56.25501832973066,58.00798644632991],[56.254827647548524,58.00792056129919],[56.254802775958524,58.00794252298948],[56.254570641127486,58.00788542256646],[56.25458722218755,58.00786346084115],[56.254446283182006,58.00782392970149],[56.255950235180165,58.00770522565773],[56.25449180241671,58.007824937261546],[56.25470748613495,58.00760183804155],[56.254553426335775,58.00754742338643],[56.254758839401774,58.00734608844425],[56.25436855457713,58.007242699790254],[56.254553426335775,58.00703592158678],[56.25461505025635,58.006965181401114],[56.25470748613495,58.006976064515385],[56.254799922015025,58.0068944410753],[56.25534426663734,58.00704680467996],[56.2554469731696,58.00707945393958],[56.255354537291,58.007220933719765],[56.255703739500944,58.007329763939566],[56.25582698734061,58.007171960012926],[56.256155648244686,58.00728079038163],[56.25597077648604,58.00744403531445],[56.255950235180165,58.00770522565773]]],"type":"Polygon"}}]}