{
  "type": "FeatureCollection",
  "features": [
      {
        "type": "Feature",
        "properties": {
          "stroke": "#555555",
          "stroke-width": 2,
          "stroke-opacity": 1,
          "fill": "#53d5fd",
          "fill-opacity": 1,
          "sinagogue-area": 1
        },
        "geometry": {
          "coordinates": [
            [
              [
                56.23442161421471,
                58.00864173762977
              ],
              [
                56.23425220898105,
                58.00857858056946
              ],
              [
                56.23430867739282,
                58.00850877526764
              ],
              [
                56.23425220898105,
                58.00829935854577
              ],
              [
                56.23438396860743,
                58.00803343078394
              ],
              [
                56.23417691776646,
                58.00800018967462
              ],
              [
                56.233994963996366,
                58.007883845549486
              ],
              [
                56.233994963996366,
                58.007830659537746
              ],
              [
                56.233160486360475,
                58.00755807998681
              ],
              [
                56.23383183302903,
                58.00726887746217
              ],
              [
                56.23405770667455,
                58.00757137659846
              ],
              [
                56.235463142691486,
                58.0077974182401
              ],
              [
                56.23602155253815,
                58.00751486596508
              ],
              [
                56.23619095777187,
                58.00764783201933
              ],
              [
                56.23604664960905,
                58.00789049379546
              ],
              [
                56.23636036313664,
                58.0079037902849
              ],
              [
                56.23641055728032,
                58.00804672722029
              ],
              [
                56.23505531540695,
                58.00805005132838
              ],
              [
                56.23498629846057,
                58.008149774424254
              ],
              [
                56.23506158967518,
                58.0081697190102
              ],
              [
                56.23486708736871,
                58.008458914255954
              ],
              [
                56.234703956403195,
                58.00844561797399
              ],
              [
                56.2345157283649,
                58.00851874746337
              ],
              [
                56.23442161421471,
                58.00864173762977
              ]
            ]
          ],
          "type": "Polygon"
        },
        "id": 200
      }
  ]}