{"type": "FeatureCollection", "features": [
  {
    "type": "Feature",
    "properties": {},
    "geometry": {
      "coordinates": [
        [
          [
            56.23455897763378,
            58.00848663575681
          ],
          [
            56.234434023459954,
            58.00847192465886
          ],
          [
            56.234392372067646,
            58.008358649001025
          ],
          [
            56.23447289809155,
            58.008135038858
          ],
          [
            56.23463672689846,
            58.0079143695838
          ],
          [
            56.235044910536345,
            58.00798939728958
          ],
          [
            56.23498104506908,
            58.00815563458718
          ],
          [
            56.235011589423095,
            58.00816593244775
          ],
          [
            56.23484498385693,
            58.00842779132836
          ],
          [
            56.23474224375656,
            58.00841602243091
          ],
          [
            56.23471169940407,
            58.008457213554465
          ],
          [
            56.23460062902609,
            58.008441031333206
          ],
          [
            56.23455897763378,
            58.00848663575681
          ]
        ]
      ],
      "type": "Polygon"
    }
  }
]
}