{
"type": "FeatureCollection",
"name": "visible",
"crs": { "type": "name", "properties": { "name": "urn:ogc:def:crs:OGC:1.3:CRS84" } },
"features": [
{ "type": "Feature", "properties": { }, "geometry": { "type": "Polygon", "coordinates": [ [ [ 56.23333644277966, 58.00704136328649 ], [ 56.233421041000213, 58.007041872904018 ], [ 56.233422001007732, 58.006996966700868 ], [ 56.233337402893099, 58.006996457084242 ], [ 56.23333644277966, 58.00704136328649 ] ] ] } },
{ "type": "Feature", "properties": { }, "geometry": { "type": "Polygon", "coordinates": [ [ [ 56.234508355670265, 58.007632273574856 ], [ 56.234507396999511, 58.007677179784856 ], [ 56.234761196239141, 58.007678706144063 ], [ 56.234760237883286, 58.007723612356415 ], [ 56.235098637333323, 58.007725646718292 ], [ 56.235097679398308, 58.007770552933835 ], [ 56.23535147933373, 58.007772078117448 ], [ 56.235350521713606, 58.007816984335285 ], [ 56.235435121803746, 58.007817492618265 ], [ 56.235438951843314, 58.007637867741359 ], [ 56.23535435217687, 58.007637359461924 ], [ 56.235353394565358, 58.007682265680764 ], [ 56.235268794795871, 58.007681757344209 ], [ 56.235269752513304, 58.00763685112625 ], [ 56.234762154592119, 58.007633799931405 ], [ 56.234763112942233, 58.00758889371842 ], [ 56.234509314338148, 58.007587367364501 ], [ 56.23451027300316, 58.007542461153832 ], [ 56.234002676508041, 58.00753940693302 ], [ 56.23400363580572, 58.007494500727297 ], [ 56.233919036505839, 58.00749399149457 ], [ 56.233921914699415, 58.007359272878112 ], [ 56.233837315720173, 58.00735876359181 ], [ 56.233838275218211, 58.007313857386571 ], [ 56.233753676347767, 58.007313348044896 ], [ 56.233754635948848, 58.007268441840203 ], [ 56.233500839672516, 58.007266913480493 ], [ 56.233501799588488, 58.007222007278116 ], [ 56.233248003655781, 58.007220478414958 ], [ 56.233248963886645, 58.007175572214898 ], [ 56.232910569773637, 58.007173532946986 ], [ 56.232909609119098, 58.007218439143493 ], [ 56.232994207748952, 58.007218949045722 ], [ 56.232993247197456, 58.007263855242776 ], [ 56.233077845936108, 58.00726436508964 ], [ 56.233076885487655, 58.007309271287269 ], [ 56.233161484335106, 58.007309781078774 ], [ 56.233160523989703, 58.007354687276965 ], [ 56.233245122945945, 58.007355197013112 ], [ 56.233244162703585, 58.007400103211864 ], [ 56.233328761768632, 58.007400612892688 ], [ 56.233327801629322, 58.007445519091988 ], [ 56.233412400803161, 58.007446028717467 ], [ 56.233411440766893, 58.007490934917307 ], [ 56.233496040049531, 58.007491444487421 ], [ 56.233495080116313, 58.00753635068785 ], [ 56.233579679507756, 58.00753686020262 ], [ 56.233578719677581, 58.00758176640359 ], [ 56.233663319177815, 58.007582275863015 ], [ 56.233662359450697, 58.007627182064518 ], [ 56.233746959059722, 58.007627691468606 ], [ 56.233745999435662, 58.007672597670663 ], [ 56.233830599153485, 58.007673107019393 ], [ 56.233829639632468, 58.007718013222011 ], [ 56.233914239459089, 58.007718522515404 ], [ 56.233913280041122, 58.007763428718583 ], [ 56.233997879976549, 58.007763937956611 ], [ 56.233996920661632, 58.007808844160323 ], [ 56.23408152070585, 58.007809353343013 ], [ 56.23408056149399, 58.007854259547301 ], [ 56.234165161647006, 58.00785476867464 ], [ 56.234170916239549, 58.00758533143869 ], [ 56.234255515759891, 58.007585840504511 ], [ 56.234254556774239, 58.007630746712188 ], [ 56.234508355670265, 58.007632273574856 ] ] ] } },
{ "type": "Feature", "properties": { }, "geometry": { "type": "Polygon", "coordinates": [ [ [ 56.234331485262167, 58.007990505379432 ], [ 56.234329567448157, 58.008080317790345 ], [ 56.234244966759761, 58.008079808771051 ], [ 56.234241130673567, 58.00825943358538 ], [ 56.234325731785667, 58.008259942608198 ], [ 56.234328608536842, 58.008125223995293 ], [ 56.234413209334029, 58.008125732959229 ], [ 56.234416085741572, 58.00799101434071 ], [ 56.234331485262167, 58.007990505379432 ] ] ] } },
{ "type": "Feature", "properties": { }, "geometry": { "type": "Polygon", "coordinates": [ [ [ 56.234827588752147, 58.008532432812871 ], [ 56.234912190519921, 58.008532941447328 ], [ 56.234913148715563, 58.008488035239154 ], [ 56.234997750380273, 58.008488543816512 ], [ 56.2350006246322, 58.008353825187363 ], [ 56.23508522598199, 58.008354333705846 ], [ 56.235087141923742, 58.008264521283003 ], [ 56.235171743064548, 58.00826502974347 ], [ 56.235174616637877, 58.00813031110409 ], [ 56.235090015814862, 58.008129802646266 ], [ 56.235091931727929, 58.008039990220126 ], [ 56.23500733111964, 58.008039481707833 ], [ 56.23500637305861, 58.008084387920192 ], [ 56.234921772347263, 58.008083879350785 ], [ 56.2349236886783, 58.007994066927509 ], [ 56.234669887197022, 58.007992540887166 ], [ 56.234668928715159, 58.008037447096299 ], [ 56.234584328121215, 58.008036938302844 ], [ 56.234581452340613, 58.008171656925668 ], [ 56.234496851431757, 58.00817114807333 ], [ 56.234493975307544, 58.008305866690549 ], [ 56.234409374083775, 58.008305357779307 ], [ 56.234408415264035, 58.008350263983488 ], [ 56.234577617926298, 58.00835128175148 ], [ 56.23457665931555, 58.008396187957132 ], [ 56.234661260756923, 58.008396696757636 ], [ 56.234662219261743, 58.008351790551139 ], [ 56.234746820600058, 58.008352299294536 ], [ 56.234744903799395, 58.008442111709009 ], [ 56.234575700701924, 58.008441094162428 ], [ 56.234574742085428, 58.008486000367391 ], [ 56.234490140435071, 58.008485491508871 ], [ 56.234488222981611, 58.008575303916054 ], [ 56.234403621122262, 58.008574794999532 ], [ 56.234402662285298, 58.008619701201752 ], [ 56.234487264250575, 58.008620210119176 ], [ 56.234486305516668, 58.00866511632195 ], [ 56.23474011174752, 58.008666642739428 ], [ 56.234742028576882, 58.008576830328224 ], [ 56.234826630447706, 58.00857733901983 ], [ 56.234827588752147, 58.008532432812871 ] ] ] } },
{ "type": "Feature", "properties": { }, "geometry": { "type": "Polygon", "coordinates": [ [ [ 56.234240171644849, 58.00830433978814 ], [ 56.234241130673567, 58.00825943358538 ], [ 56.234156529564345, 58.008258924506343 ], [ 56.234154611292162, 58.008348736909745 ], [ 56.23423921261324, 58.00834924599058 ], [ 56.234237294541437, 58.008439058394451 ], [ 56.234406497615943, 58.008440076390912 ], [ 56.234407456441417, 58.008395170187363 ], [ 56.234322855008656, 58.008394661218134 ], [ 56.23432477286287, 58.008304848811832 ], [ 56.234240171644849, 58.00830433978814 ] ] ] } },
{ "type": "Feature", "properties": { }, "geometry": { "type": "Polygon", "coordinates": [ [ [ 56.23431901926579, 58.008574286026764 ], [ 56.234320937142968, 58.00848447362312 ], [ 56.234236335501222, 58.008483964595889 ], [ 56.234234417412182, 58.008573776997778 ], [ 56.23431901926579, 58.008574286026764 ] ] ] } },
{ "type": "Feature", "properties": { }, "geometry": { "type": "Polygon", "coordinates": [ [ [ 56.234232499311652, 58.008663589398381 ], [ 56.23406329518933, 58.008662571168138 ], [ 56.2340623359229, 58.00870747736618 ], [ 56.234146938088557, 58.008707986510288 ], [ 56.234145978925184, 58.00875289270887 ], [ 56.234315183476966, 58.008753910830158 ], [ 56.234316142428483, 58.008709004629807 ], [ 56.234231540257078, 58.00870849559815 ], [ 56.234232499311652, 58.008663589398381 ] ] ] } },
{ "type": "Feature", "properties": { }, "geometry": { "type": "Polygon", "coordinates": [ [ [ 56.234227704010074, 58.008888120394069 ], [ 56.234229622139324, 58.00879830799677 ], [ 56.234145019758934, 58.008797798907125 ], [ 56.234143101417828, 58.008887611302654 ], [ 56.234227704010074, 58.008888120394069 ] ] ] } },
{ "type": "Feature", "properties": { }, "geometry": { "type": "Polygon", "coordinates": [ [ [ 56.234387320503366, 58.009338200392534 ], [ 56.234388279386266, 58.009293294195579 ], [ 56.234472882940544, 58.009293803126234 ], [ 56.23447480048587, 58.009203990729574 ], [ 56.234220990467264, 58.009202463774216 ], [ 56.234221949553429, 58.009157557578021 ], [ 56.234052743100584, 58.009156539328366 ], [ 56.234048905891235, 58.009336164104042 ], [ 56.233964302245383, 58.009335654891316 ], [ 56.233961423990394, 58.009470373466947 ], [ 56.234384443837428, 58.009472918981423 ], [ 56.234383484943038, 58.009517825177063 ], [ 56.23446808902699, 58.009518334112123 ], [ 56.234470965383736, 58.009383615521585 ], [ 56.234555569152761, 58.009384124397762 ], [ 56.234556527826655, 58.009339218199372 ], [ 56.234387320503366, 58.009338200392534 ] ] ] } },
{ "type": "Feature", "properties": { }, "geometry": { "type": "Polygon", "coordinates": [ [ [ 56.234147132208058, 58.01266023989124 ], [ 56.234146172897859, 58.01270514606172 ], [ 56.234230784498408, 58.012705655171963 ], [ 56.234229825291294, 58.012750561343019 ], [ 56.234314437000677, 58.01275107039789 ], [ 56.234318273388041, 58.012571445708168 ], [ 56.234064439540035, 58.012569918385381 ], [ 56.234062520716343, 58.01265973072563 ], [ 56.234147132208058, 58.01266023989124 ] ] ] } },
{ "type": "Feature", "properties": { }, "geometry": { "type": "Polygon", "coordinates": [ [ [ 56.234185698659033, 58.014816244855695 ], [ 56.234180901919686, 58.015040775630325 ], [ 56.234265519033428, 58.015041284730266 ], [ 56.234267437525837, 58.014951472419632 ], [ 56.234352054430509, 58.014951981461543 ], [ 56.234354931829643, 58.014817262990469 ], [ 56.234185698659033, 58.014816244855695 ] ] ] } },
{ "type": "Feature", "properties": { }, "geometry": { "type": "Polygon", "coordinates": [ [ [ 56.234176105108503, 58.015265306396707 ], [ 56.234178023841594, 58.015175494091153 ], [ 56.234093406412789, 58.015174984932308 ], [ 56.234091487467744, 58.015264797236121 ], [ 56.234176105108503, 58.015265306396707 ] ] ] } },
{ "type": "Feature", "properties": { }, "geometry": { "type": "Polygon", "coordinates": [ [ [ 56.234405980863301, 58.01638948731582 ], [ 56.234406939985156, 58.016344581168774 ], [ 56.234322319792227, 58.016344072155732 ], [ 56.234321360564387, 58.01638897830189 ], [ 56.234405980863301, 58.01638948731582 ] ] ] } },
{ "type": "Feature", "properties": { }, "geometry": { "type": "Polygon", "coordinates": [ [ [ 56.238386588537217, 58.008284309572169 ], [ 56.238301987287656, 58.008283803248574 ], [ 56.238303895167391, 58.00819399075754 ], [ 56.237627086968608, 58.008189938158473 ], [ 56.23762613218274, 58.008234844397151 ], [ 56.237795334427148, 58.008235857886078 ], [ 56.237794379850278, 58.008280764126162 ], [ 56.237963582317981, 58.0082817773919 ], [ 56.237962627950104, 58.008326683633427 ], [ 56.238131830641095, 58.008327696676005 ], [ 56.238130876482224, 58.008372602918939 ], [ 56.238215477937935, 58.008373109356754 ], [ 56.238216431990871, 58.008328203112931 ], [ 56.238385634698993, 58.008329215818094 ], [ 56.238386588537217, 58.008284309572169 ] ] ] } },
{ "type": "Feature", "properties": { }, "geometry": { "type": "Polygon", "coordinates": [ [ [ 56.237449289865054, 58.008593080566669 ], [ 56.23745024488565, 58.008548174332411 ], [ 56.23736564303195, 58.008547667384974 ], [ 56.237363732776032, 58.008637479851437 ], [ 56.237279130713326, 58.008636972846013 ], [ 56.237278175475147, 58.008681879077862 ], [ 56.237785788529855, 58.008684920272195 ], [ 56.237786743132446, 58.008640014035059 ], [ 56.237617538981304, 58.008639000530316 ], [ 56.237618493792901, 58.008594094294594 ], [ 56.237449289865054, 58.008593080566669 ] ] ] } },
{ "type": "Feature", "properties": { }, "geometry": { "type": "Polygon", "coordinates": [ [ [ 56.244369625756057, 58.009442772414189 ], [ 56.2443705721413, 58.009397866114057 ], [ 56.244455176138082, 58.009398368409684 ], [ 56.244456122414562, 58.009353462108351 ], [ 56.244540726308244, 58.009353964346865 ], [ 56.244542618640821, 58.009264151741476 ], [ 56.244627222325462, 58.00926465392201 ], [ 56.244629114434836, 58.009174841313552 ], [ 56.244713717910436, 58.009175343436119 ], [ 56.244719393534972, 58.008905905597643 ], [ 56.244803996377797, 58.008906407658735 ], [ 56.244804942199366, 58.008861501350303 ], [ 56.244720339462468, 58.008860999290064 ], [ 56.244721285387151, 58.008816092982173 ], [ 56.24455208013373, 58.008815088694732 ], [ 56.244551133997192, 58.008859995000897 ], [ 56.244466531268792, 58.008859492771961 ], [ 56.244464638775341, 58.008949305381542 ], [ 56.244380035837906, 58.008948803094604 ], [ 56.24437814312126, 58.00903861570113 ], [ 56.244462746270557, 58.009039117989794 ], [ 56.244461800013916, 58.009084024293415 ], [ 56.244546403271983, 58.009084526526728 ], [ 56.244545457118441, 58.009129432830903 ], [ 56.24446085375444, 58.009128930596745 ], [ 56.244458961226989, 58.009218743202354 ], [ 56.244374357653953, 58.009218240910201 ], [ 56.244372464903293, 58.009308053512783 ], [ 56.244287861121215, 58.009307551162657 ], [ 56.244285968147352, 58.00939736376219 ], [ 56.244201364156233, 58.009396861354077 ], [ 56.244199470959153, 58.009486673950512 ], [ 56.244114866758991, 58.009486171484433 ], [ 56.244113920050268, 58.009531077781297 ], [ 56.244029315747007, 58.009530575258097 ], [ 56.244031209373503, 58.009440762665797 ], [ 56.24386200119924, 58.009439757454189 ], [ 56.24386010714899, 58.009529570042993 ], [ 56.243775502854234, 58.009529067351096 ], [ 56.243774555718915, 58.00957397364413 ], [ 56.243859160119612, 58.009574476336915 ], [ 56.2438582130874, 58.009619382630511 ], [ 56.243942817596867, 58.009619885267931 ], [ 56.243941870667761, 58.009664791562031 ], [ 56.244111079907078, 58.009665796669907 ], [ 56.244110133187007, 58.009710702965464 ], [ 56.244194737916857, 58.009711205435892 ], [ 56.244198524356364, 58.009531580248257 ], [ 56.244283128665295, 58.009532082658978 ], [ 56.244285021656168, 58.009442270061456 ], [ 56.244369625756057, 58.009442772414189 ] ] ] } },
{ "type": "Feature", "properties": { }, "geometry": { "type": "Polygon", "coordinates": [ [ [ 56.239292432045609, 58.009457437958012 ], [ 56.239377036083681, 58.009457943629606 ], [ 56.239377988722062, 58.009413037381378 ], [ 56.239462592657041, 58.00941354299583 ], [ 56.239464497713385, 58.009323730496654 ], [ 56.239549101439351, 58.009324236053139 ], [ 56.239551006272407, 58.009234423550872 ], [ 56.239635609789353, 58.009234929049377 ], [ 56.239636562095669, 58.009190022796872 ], [ 56.239721165509529, 58.009190528238257 ], [ 56.239722117707061, 58.009145621984537 ], [ 56.239468307791832, 58.009144105494336 ], [ 56.239467355276503, 58.009189011745413 ], [ 56.23938275187119, 58.009188506135331 ], [ 56.239380846620101, 58.009278318634749 ], [ 56.239296243005775, 58.009277812966666 ], [ 56.239294337531391, 58.009367625463007 ], [ 56.239209733708044, 58.00936711973695 ], [ 56.239207828010386, 58.009456932230187 ], [ 56.239123223978019, 58.009456426446143 ], [ 56.239121318057066, 58.009546238936338 ], [ 56.239036713815686, 58.009545733094278 ], [ 56.23903576074499, 58.009590639338001 ], [ 56.23920496944249, 58.009591650967614 ], [ 56.239206875157272, 58.009501838476325 ], [ 56.23929147929843, 58.009502344205018 ], [ 56.239292432045609, 58.009457437958012 ] ] ] } },
{ "type": "Feature", "properties": { }, "geometry": { "type": "Polygon", "coordinates": [ [ [ 56.238615599843762, 58.009453390560822 ], [ 56.238614646249083, 58.009498296800807 ], [ 56.238699250370267, 58.009498802923169 ], [ 56.238698296878681, 58.009543709163715 ], [ 56.238867505341467, 58.009544721241468 ], [ 56.238868458621184, 58.009499814999167 ], [ 56.238783854494301, 58.009499308989277 ], [ 56.238784807877089, 58.009454402747544 ], [ 56.238615599843762, 58.009453390560822 ] ] ] } },
{ "type": "Feature", "properties": { }, "geometry": { "type": "Polygon", "coordinates": [ [ [ 56.237003346031081, 58.009668294681013 ], [ 56.237005257266063, 58.009578482236748 ], [ 56.237343674398218, 58.009580510669757 ], [ 56.23734462958766, 58.009535604443599 ], [ 56.237175421227739, 58.009534590341325 ], [ 56.237176376626209, 58.009489684116595 ], [ 56.237007168489605, 58.009488669791132 ], [ 56.237006212879265, 58.009533576014107 ], [ 56.236921608709316, 58.009533068766139 ], [ 56.236919697268178, 58.009622881209303 ], [ 56.236835092889216, 58.009622373903333 ], [ 56.23683318122476, 58.009712186343442 ], [ 56.236663972051673, 58.009711171559282 ], [ 56.236664928097206, 58.009666265341167 ], [ 56.236580323620899, 58.009665757865612 ], [ 56.236579367469425, 58.00971066408286 ], [ 56.236494762890032, 58.009710156550177 ], [ 56.236495719147449, 58.009665250333818 ], [ 56.236326510209139, 58.009664235101511 ], [ 56.23632937959983, 58.009529516455736 ], [ 56.236413983749742, 58.009530024097359 ], [ 56.236414940101639, 58.00948511788053 ], [ 56.236330336057669, 58.009484610239809 ], [ 56.23633224896475, 58.009394797806991 ], [ 56.236247645135521, 58.009394290111764 ], [ 56.236248601690697, 58.009349383895753 ], [ 56.236163997970266, 58.009348876145168 ], [ 56.23616112797832, 58.009483594789614 ], [ 56.236076523942941, 58.009483086980154 ], [ 56.236072696823157, 58.009662711831311 ], [ 56.235988092366895, 58.00966220396208 ], [ 56.235987135473856, 58.009707110173146 ], [ 56.236071740036053, 58.009707618043251 ], [ 56.236070783246085, 58.009752524254878 ], [ 56.23623999259096, 58.009753539828139 ], [ 56.236239036009998, 58.009798446041209 ], [ 56.236746664748999, 58.009801491416518 ], [ 56.236747620694324, 58.009756585198147 ], [ 56.236916830085015, 58.009757599871591 ], [ 56.23691874154332, 58.009667787430416 ], [ 56.237003346031081, 58.009668294681013 ] ] ] } },
{ "type": "Feature", "properties": { }, "geometry": { "type": "Polygon", "coordinates": [ [ [ 56.244278396138519, 58.009756614147079 ], [ 56.24436300097998, 58.009757116505916 ], [ 56.244363947385061, 58.0097122102081 ], [ 56.244279342649548, 58.009711707850109 ], [ 56.244278396138519, 58.009756614147079 ] ] ] } },
{ "type": "Feature", "properties": { }, "geometry": { "type": "Polygon", "coordinates": [ [ [ 56.244531264475363, 58.009803027354131 ], [ 56.244532210671402, 58.009758121054887 ], [ 56.24444760582427, 58.009757618808528 ], [ 56.244446659522296, 58.009802525106892 ], [ 56.244531264475363, 58.009803027354131 ] ] ] } },
{ "type": "Feature", "properties": { }, "geometry": { "type": "Polygon", "coordinates": [ [ [ 56.244699528403004, 58.009848937980578 ], [ 56.244700474389994, 58.009804031679899 ], [ 56.244615869431257, 58.009803529545131 ], [ 56.244614923338332, 58.009848435844944 ], [ 56.244699528403004, 58.009848937980578 ] ] ] } },
{ "type": "Feature", "properties": { }, "geometry": { "type": "Polygon", "coordinates": [ [ [ 56.235530601103797, 58.011276287005316 ], [ 56.235531558626882, 58.011231380810166 ], [ 56.235362342335549, 58.011230364278937 ], [ 56.235363300067668, 58.011185458085237 ], [ 56.235194083999708, 58.011184441330784 ], [ 56.235195041940848, 58.011139535138504 ], [ 56.235025826096262, 58.011138518160884 ], [ 56.235026784246436, 58.011093611970054 ], [ 56.234857568625223, 58.011092594769202 ], [ 56.234859485340749, 58.011002782390079 ], [ 56.234944092938029, 58.011003291016834 ], [ 56.234946009430189, 58.010913478634592 ], [ 56.235199831603552, 58.010915004172162 ], [ 56.235198873676751, 58.01095991036609 ], [ 56.23528348117955, 58.010960418767006 ], [ 56.235284439000409, 58.010915512572197 ], [ 56.235369046400137, 58.010916020915992 ], [ 56.235370004112177, 58.01087111471999 ], [ 56.235285396818398, 58.010870606377061 ], [ 56.235286354633516, 58.010825700181577 ], [ 56.235201747448549, 58.010825191783312 ], [ 56.235202705366746, 58.010780285588389 ], [ 56.23486427707936, 58.010778251436399 ], [ 56.234860443694217, 58.010957876200003 ], [ 56.234775836205749, 58.010957367517875 ], [ 56.234771043880009, 58.011181898460521 ], [ 56.234855651898208, 58.011182407147061 ], [ 56.234854693530401, 58.011227313335482 ], [ 56.23493930165742, 58.011227821966656 ], [ 56.234938343392685, 58.011272728155639 ], [ 56.235022951628522, 58.011273236731462 ], [ 56.23502103530236, 58.011363049110194 ], [ 56.235105643752966, 58.011363557631526 ], [ 56.235104685691525, 58.011408463821283 ], [ 56.235443119946446, 58.011410497347768 ], [ 56.235442162305937, 58.011455403540758 ], [ 56.235611379662501, 58.011456419968312 ], [ 56.235612337091105, 58.011411513773581 ], [ 56.23569694566774, 58.011412021902117 ], [ 56.235699817618496, 58.011277303313349 ], [ 56.235530601103797, 58.011276287005316 ] ] ] } },
{ "type": "Feature", "properties": { }, "geometry": { "type": "Polygon", "coordinates": [ [ [ 56.235043363791661, 58.014282459281056 ], [ 56.23504815498832, 58.014057928434312 ], [ 56.234878925374808, 58.014056911229503 ], [ 56.234877966929275, 58.01410181739773 ], [ 56.234793352020858, 58.014101308710096 ], [ 56.234789517786147, 58.014280933376234 ], [ 56.23470490245672, 58.014280424628787 ], [ 56.234702985110196, 58.01437023695815 ], [ 56.234618369571699, 58.014369728152708 ], [ 56.234615493212473, 58.014504446641581 ], [ 56.234869340790333, 58.014505972897119 ], [ 56.234871257730191, 58.014416160566228 ], [ 56.234955873383271, 58.014416669203818 ], [ 56.234958748453614, 58.014281950702348 ], [ 56.235043363791661, 58.014282459281056 ] ] ] } },
{ "type": "Feature", "properties": { }, "geometry": { "type": "Polygon", "coordinates": [ [ [ 56.235355005014625, 58.0155418657219 ], [ 56.235524241656883, 58.015542882309951 ], [ 56.235526157033114, 58.015453069980069 ], [ 56.235441538922515, 58.015452561715925 ], [ 56.235443454499226, 58.015362749386519 ], [ 56.235358836603446, 58.015362241067891 ], [ 56.235355005014625, 58.0155418657219 ] ] ] } },
{ "type": "Feature", "properties": { }, "geometry": { "type": "Polygon", "coordinates": [ [ [ 56.235523283964469, 58.015587788474384 ], [ 56.235607902395877, 58.015588296684918 ], [ 56.235608859982314, 58.015543390519596 ], [ 56.235524241656883, 58.015542882309951 ], [ 56.235523283964469, 58.015587788474384 ] ] ] } }
]
}
