{
"type": "FeatureCollection",
"name": "visible",
"crs": { "type": "name", "properties": { "name": "urn:ogc:def:crs:OGC:1.3:CRS84" } },
"features": [
{ "type": "Feature", "properties": { }, "geometry": { "type": "Polygon", "coordinates": [ [ [ 56.245531080123094, 58.000193275835187 ], [ 56.245446497817952, 58.000192774304374 ], [ 56.245442718999271, 58.000372399809095 ], [ 56.245527301727918, 58.000372901343411 ], [ 56.245526357122053, 58.00041780771965 ], [ 56.245695522799558, 58.000418810621333 ], [ 56.245697411584963, 58.000328997865068 ], [ 56.245781994216216, 58.000329499229842 ], [ 56.245783882778568, 58.000239686470522 ], [ 56.245530135528547, 58.000238182212748 ], [ 56.245531080123094, 58.000193275835187 ] ] ] } },
{ "type": "Feature", "properties": { }, "geometry": { "type": "Polygon", "coordinates": [ [ [ 56.245860911730624, 58.000599438813708 ], [ 56.245861855924304, 58.000554532435316 ], [ 56.24569268960024, 58.000553529753283 ], [ 56.245693634002841, 58.00050862337627 ], [ 56.245609050950925, 58.00050812195181 ], [ 56.245609995456576, 58.000463215575365 ], [ 56.245525412513359, 58.000462714095541 ], [ 56.245523523287488, 58.000552526846349 ], [ 56.245438940135358, 58.000552025308579 ], [ 56.245437995412303, 58.000596931682615 ], [ 56.245353412157122, 58.000596430087739 ], [ 56.245351522490786, 58.000686242833119 ], [ 56.245266939026678, 58.000685741180284 ], [ 56.245265994083397, 58.000730647551613 ], [ 56.245435161226183, 58.000731650802791 ], [ 56.245434216491816, 58.00077655717552 ], [ 56.24560338385767, 58.000777560203552 ], [ 56.245602439332231, 58.000822466577702 ], [ 56.245771606921146, 58.00082346938261 ], [ 56.245773495545698, 58.00073365663053 ], [ 56.245858079132638, 58.000734157946916 ], [ 56.24585996753413, 58.000644345191752 ], [ 56.245944550912149, 58.0006448464502 ], [ 56.245945495002772, 58.000599940071261 ], [ 56.245860911730624, 58.000599438813708 ] ] ] } },
{ "type": "Feature", "properties": { }, "geometry": { "type": "Polygon", "coordinates": [ [ [ 56.244167354250855, 58.000679214577715 ], [ 56.244165461608681, 58.000769027297373 ], [ 56.244250045247732, 58.000769529682778 ], [ 56.244251937678165, 58.000679716961379 ], [ 56.244167354250855, 58.000679214577715 ] ] ] } },
{ "type": "Feature", "properties": { }, "geometry": { "type": "Polygon", "coordinates": [ [ [ 56.244076145788036, 58.000993056644816 ], [ 56.24407709223059, 58.000948150287662 ], [ 56.243907924119625, 58.000947145228778 ], [ 56.243908870771101, 58.00090223887306 ], [ 56.243824286825742, 58.000901736260161 ], [ 56.243822393308214, 58.000991548969573 ], [ 56.244076145788036, 58.000993056644816 ] ] ] } },
{ "type": "Feature", "properties": { }, "geometry": { "type": "Polygon", "coordinates": [ [ [ 56.241622256703309, 58.001023367587997 ], [ 56.24162130718463, 58.001068273919159 ], [ 56.241705891479697, 58.001068777997226 ], [ 56.241708739709587, 58.000934059000073 ], [ 56.241454987785801, 58.000932546605128 ], [ 56.24145403806105, 58.00097745293521 ], [ 56.241538622138677, 58.000977957123951 ], [ 56.241537672516962, 58.00102286345458 ], [ 56.241622256703309, 58.001023367587997 ] ] ] } },
{ "type": "Feature", "properties": { }, "geometry": { "type": "Polygon", "coordinates": [ [ [ 56.237896738471115, 58.001180757704205 ], [ 56.237898646840002, 58.00109094512063 ], [ 56.237983231115578, 58.001091451673169 ], [ 56.237987047395563, 58.00091182649858 ], [ 56.237479544326021, 58.000908786361109 ], [ 56.237473816077305, 58.001178224089394 ], [ 56.237896738471115, 58.001180757704205 ] ] ] } },
{ "type": "Feature", "properties": { }, "geometry": { "type": "Polygon", "coordinates": [ [ [ 56.243229356783665, 58.001032935441131 ], [ 56.243227461766836, 58.001122748136332 ], [ 56.243312046221725, 58.001123251147128 ], [ 56.243311098814935, 58.001168157495108 ], [ 56.243480267944996, 58.001169163349758 ], [ 56.243481215140029, 58.001124257 ], [ 56.243396630679463, 58.00112375410167 ], [ 56.243397577977547, 58.001078847752481 ], [ 56.243312993625686, 58.001078344798799 ], [ 56.243313941026805, 58.001033438450172 ], [ 56.243229356783665, 58.001032935441131 ] ] ] } },
{ "type": "Feature", "properties": { }, "geometry": { "type": "Polygon", "coordinates": [ [ [ 56.241870314030493, 58.00129431764875 ], [ 56.241616559548575, 58.001292805570124 ], [ 56.241613710932832, 58.001427524556746 ], [ 56.242121221828093, 58.001430548223773 ], [ 56.242126915222322, 58.001161110216081 ], [ 56.241788577155226, 58.001159094683928 ], [ 56.241787627839777, 58.00120400101585 ], [ 56.241872212458169, 58.001204504984102 ], [ 56.241870314030493, 58.00129431764875 ] ] ] } },
{ "type": "Feature", "properties": { }, "geometry": { "type": "Polygon", "coordinates": [ [ [ 56.245423824227153, 58.001270527253823 ], [ 56.24542287945885, 58.001315433622615 ], [ 56.245338294509622, 58.001314932013841 ], [ 56.24533640475277, 58.001404744748655 ], [ 56.245420989913761, 58.001405246359191 ], [ 56.245419100357353, 58.001495059094452 ], [ 56.245503685732928, 58.001495560650497 ], [ 56.245505575077573, 58.001405747913502 ], [ 56.24559016024422, 58.001406249411588 ], [ 56.245592049365783, 58.001316436671551 ], [ 56.245507464410899, 58.001315935175199 ], [ 56.245508409073324, 58.00127102880554 ], [ 56.245423824227153, 58.001270527253823 ] ] ] } },
{ "type": "Feature", "properties": { }, "geometry": { "type": "Polygon", "coordinates": [ [ [ 56.245670023089687, 58.001631282702206 ], [ 56.245670967560145, 58.001586376333108 ], [ 56.245501796376978, 58.001585373386177 ], [ 56.245499907009709, 58.001675186120551 ], [ 56.245415321210601, 58.001674684561024 ], [ 56.245413431620257, 58.001764497292356 ], [ 56.245244259606999, 58.001763494001139 ], [ 56.245245204615351, 58.001718587637377 ], [ 56.245160618718849, 58.001718085908315 ], [ 56.245158728487546, 58.001807898633757 ], [ 56.245327900706918, 58.001808902039137 ], [ 56.245326955798788, 58.001853808403105 ], [ 56.245580714466712, 58.001855313092136 ], [ 56.245582603644834, 58.00176550035868 ], [ 56.245667189661361, 58.001766001807503 ], [ 56.245669078616402, 58.001676189070963 ], [ 56.245753664423994, 58.001676690461835 ], [ 56.245754608791394, 58.001631784092204 ], [ 56.245670023089687, 58.001631282702206 ] ] ] } },
{ "type": "Feature", "properties": { }, "geometry": { "type": "Polygon", "coordinates": [ [ [ 56.242283751209065, 58.001745900002575 ], [ 56.242199165305898, 58.001745396304919 ], [ 56.242200114126042, 58.001700489972563 ], [ 56.242115528331595, 58.001699986219585 ], [ 56.24211742617512, 58.001610173555626 ], [ 56.242032840595286, 58.00160966974817 ], [ 56.242028095435749, 58.001834201401238 ], [ 56.241858923225763, 58.001833193608924 ], [ 56.241855126199923, 58.002012818918466 ], [ 56.241939712727024, 58.002013322846238 ], [ 56.241940661881863, 58.001968416518459 ], [ 56.242025248305929, 58.001968920389132 ], [ 56.24202619735204, 58.00192401406018 ], [ 56.242195369996928, 58.001925021631088 ], [ 56.242196318828427, 58.00188011530004 ], [ 56.242280905049249, 58.001880619000296 ], [ 56.242283751209065, 58.001745900002575 ] ] ] } },
{ "type": "Feature", "properties": { }, "geometry": { "type": "Polygon", "coordinates": [ [ [ 56.241850379853666, 58.002237350547986 ], [ 56.242019553969584, 58.002238358356024 ], [ 56.242020503032741, 58.002193452029047 ], [ 56.242105089989074, 58.002193955847851 ], [ 56.242107936843851, 58.002059236862273 ], [ 56.242023350205173, 58.002058733046077 ], [ 56.242024299256975, 58.002013826717764 ], [ 56.241939712727024, 58.002013322846238 ], [ 56.241936865245457, 58.002148041827553 ], [ 56.241852278400692, 58.002147537897159 ], [ 56.2418513291286, 58.00219244422275 ], [ 56.241682155235829, 58.00219143619158 ], [ 56.241680256259571, 58.00228124883823 ], [ 56.241849430575897, 58.002282256872888 ], [ 56.241850379853666, 58.002237350547986 ] ] ] } },
{ "type": "Feature", "properties": { }, "geometry": { "type": "Polygon", "coordinates": [ [ [ 56.245907729173091, 58.0023961949721 ], [ 56.245905840762894, 58.002486007703318 ], [ 56.246159603937414, 58.002487511248241 ], [ 56.246160547826257, 58.002442604880194 ], [ 56.246075960204486, 58.002442103755655 ], [ 56.246077848185479, 58.002352291020266 ], [ 56.24582408597243, 58.002350787314505 ], [ 56.245823141665682, 58.002395693679759 ], [ 56.245907729173091, 58.0023961949721 ] ] ] } },
{ "type": "Feature", "properties": { }, "geometry": { "type": "Polygon", "coordinates": [ [ [ 56.245397369645524, 58.002527905455409 ], [ 56.245399259332032, 58.002438092735268 ], [ 56.245314671735699, 58.002437591104737 ], [ 56.245317506561925, 58.002302872024671 ], [ 56.245232919286082, 58.002302370340516 ], [ 56.245231974240959, 58.002347276699986 ], [ 56.244893624742346, 58.002345269397651 ], [ 56.244892679270833, 58.002390175753355 ], [ 56.244300567016047, 58.00238666080368 ], [ 56.244299620800483, 58.002431567152911 ], [ 56.244215033240955, 58.002431064791487 ], [ 56.244214086916678, 58.002475971139532 ], [ 56.24429867458209, 58.002476473501837 ], [ 56.244295835909917, 58.002611192546581 ], [ 56.244380423895841, 58.002611694855268 ], [ 56.244379477772007, 58.002656601203739 ], [ 56.244464065866644, 58.002657103457082 ], [ 56.244465011884593, 58.00261219710773 ], [ 56.244803363867909, 58.002614205555382 ], [ 56.244804309459461, 58.002569299202243 ], [ 56.245142661064513, 58.002571306746844 ], [ 56.245143606229682, 58.002526400389883 ], [ 56.245397369645524, 58.002527905455409 ] ] ] } },
{ "type": "Feature", "properties": { }, "geometry": { "type": "Polygon", "coordinates": [ [ [ 56.243447114332255, 58.00274088538314 ], [ 56.243616290885576, 58.00274189107396 ], [ 56.243618185047758, 58.002652078393709 ], [ 56.243533596981457, 58.002651575578156 ], [ 56.243537385695348, 58.002471950217192 ], [ 56.243199035152735, 58.002469938406691 ], [ 56.243198087554958, 58.002514844743949 ], [ 56.243282675292249, 58.002515347781774 ], [ 56.243279832799573, 58.002650066794168 ], [ 56.243026068643218, 58.002648557504159 ], [ 56.243025120822324, 58.00269346383832 ], [ 56.242686768230016, 58.002691450661075 ], [ 56.242685819982718, 58.00273635699142 ], [ 56.24234746701228, 58.002734342911111 ], [ 56.242346518338579, 58.002779249237655 ], [ 56.2420927533229, 58.002777738084447 ], [ 56.242091804328695, 58.002822644408056 ], [ 56.242260981214748, 58.002823651901473 ], [ 56.242260032429485, 58.002868558226488 ], [ 56.242767563791169, 58.00287157936269 ], [ 56.242768511941101, 58.002826673032438 ], [ 56.243106865815435, 58.002828685995283 ], [ 56.243107813538955, 58.002783779661215 ], [ 56.243446167035131, 58.002785791721024 ], [ 56.243447114332255, 58.00274088538314 ] ] ] } },
{ "type": "Feature", "properties": { }, "geometry": { "type": "Polygon", "coordinates": [ [ [ 56.240735537567097, 58.002949295291408 ], [ 56.240738389649536, 58.002814576364614 ], [ 56.240992154846417, 58.002816090219099 ], [ 56.240993105217207, 58.002771183906844 ], [ 56.241077693515962, 58.002771688411691 ], [ 56.241080544293567, 58.002636969470444 ], [ 56.240995956312474, 58.002636464968212 ], [ 56.240997857028432, 58.002546652340818 ], [ 56.240828681498343, 58.002545643171224 ], [ 56.240825829784804, 58.002680362106588 ], [ 56.24074124170636, 58.002679857434835 ], [ 56.240740291023599, 58.002724763745086 ], [ 56.240571114663467, 58.002723754231162 ], [ 56.24057016376608, 58.00276866053931 ], [ 56.240654752050609, 58.002769165325255 ], [ 56.240653801256272, 58.002814071633992 ], [ 56.24048462447827, 58.002813062004122 ], [ 56.240483673469299, 58.002857968310742 ], [ 56.24031449649091, 58.002856958454224 ], [ 56.240313545267313, 58.002901864758783 ], [ 56.240228956676496, 58.002901359745316 ], [ 56.240227054008976, 58.002991172351713 ], [ 56.240311642811569, 58.002991677366929 ], [ 56.240309740344436, 58.003081489973745 ], [ 56.24047891838174, 58.003082499839017 ], [ 56.240477967355687, 58.003127406143683 ], [ 56.240562556484498, 58.003127910992873 ], [ 56.240563507404666, 58.003083004687333 ], [ 56.240732685459051, 58.003084014215283 ], [ 56.240733636164578, 58.003039107907647 ], [ 56.240818225090145, 58.003039612586399 ], [ 56.240820126280887, 58.002949799968434 ], [ 56.240735537567097, 58.002949295291408 ] ] ] } },
{ "type": "Feature", "properties": { }, "geometry": { "type": "Polygon", "coordinates": [ [ [ 56.244951740805398, 58.003603149166274 ], [ 56.244949849912814, 58.003692961860587 ], [ 56.245034440462824, 58.003693463740397 ], [ 56.245036331143609, 58.003603651044344 ], [ 56.244951740805398, 58.003603149166274 ] ] ] } },
{ "type": "Feature", "properties": { }, "geometry": { "type": "Polygon", "coordinates": [ [ [ 56.249155876137841, 58.004840646629354 ], [ 56.249156816361058, 58.004795740247189 ], [ 56.249072223131115, 58.00479524110159 ], [ 56.249069402135291, 58.004929960244553 ], [ 56.248984808590443, 58.004929461040142 ], [ 56.248982927700673, 58.005019273798752 ], [ 56.249067521457334, 58.005019773004904 ], [ 56.249066581114128, 58.005064679384574 ], [ 56.249235768847711, 58.005065677629908 ], [ 56.249236708979097, 58.005020771248503 ], [ 56.249321302744207, 58.00502127028598 ], [ 56.249322242766873, 58.004976363903381 ], [ 56.24923764910767, 58.004975864866779 ], [ 56.249240469476511, 58.00484114571961 ], [ 56.249155876137841, 58.004840646629354 ] ] ] } },
{ "type": "Feature", "properties": { }, "geometry": { "type": "Polygon", "coordinates": [ [ [ 56.244367557156899, 58.00723754936157 ], [ 56.244368503463789, 58.007192643045776 ], [ 56.244283904672677, 58.00719214070444 ], [ 56.244284851082647, 58.007147234389194 ], [ 56.244200252400297, 58.007146731992492 ], [ 56.244198359365676, 58.007236544620902 ], [ 56.244367557156899, 58.00723754936157 ] ] ] } },
{ "type": "Feature", "properties": { }, "geometry": { "type": "Polygon", "coordinates": [ [ [ 56.248684927361602, 58.007128375169465 ], [ 56.248682104655472, 58.00726309425076 ], [ 56.248851302746182, 58.00726409303082 ], [ 56.248850362050355, 58.007308999392322 ], [ 56.249104159525309, 58.007310497143273 ], [ 56.249106040278619, 58.00722068441474 ], [ 56.249190639230719, 58.007221183550861 ], [ 56.249191579497229, 58.007176277185209 ], [ 56.249106980651042, 58.007175778049991 ], [ 56.249107921020659, 58.007130871684893 ], [ 56.248684927361602, 58.007128375169465 ] ] ] } },
{ "type": "Feature", "properties": { }, "geometry": { "type": "Polygon", "coordinates": [ [ [ 56.245467343076008, 58.00724407469324 ], [ 56.245466398143279, 58.007288981019997 ], [ 56.245635596231288, 58.00728998407542 ], [ 56.245636540952169, 58.007245077746916 ], [ 56.245467343076008, 58.00724407469324 ] ] ] } },
{ "type": "Feature", "properties": { }, "geometry": { "type": "Polygon", "coordinates": [ [ [ 56.247495833552179, 58.007345909187286 ], [ 56.247580432768508, 58.00734640939443 ], [ 56.247582317340672, 58.007256596697736 ], [ 56.247328520335707, 58.007255095912861 ], [ 56.247327577733273, 58.007300002258759 ], [ 56.247496775945599, 58.007301002839988 ], [ 56.247495833552179, 58.007345909187286 ] ] ] } },
{ "type": "Feature", "properties": { }, "geometry": { "type": "Polygon", "coordinates": [ [ [ 56.246308613174151, 58.007473619386509 ], [ 56.246309557058964, 58.007428713052356 ], [ 56.246140358290177, 58.00742771089142 ], [ 56.246141302384004, 58.007382804558681 ], [ 56.245972103838369, 58.007381802174535 ], [ 56.245973048141224, 58.007336895843203 ], [ 56.245803849818742, 58.007335893235883 ], [ 56.24580479433061, 58.007290986905943 ], [ 56.245635596231288, 58.00728998407542 ], [ 56.245632762051649, 58.007424703059016 ], [ 56.245801960786515, 58.00742570589474 ], [ 56.245801016266164, 58.007470612223685 ], [ 56.245970215224183, 58.007471614836234 ], [ 56.245969270912852, 58.007516521166586 ], [ 56.246138470094024, 58.00751752355594 ], [ 56.246137525991713, 58.007562429887685 ], [ 56.246306725396053, 58.00756343205385 ], [ 56.246305781502755, 58.007608338387008 ], [ 56.246474981130248, 58.007609340329978 ], [ 56.246474037445985, 58.007654246664579 ], [ 56.246643237296617, 58.007655248384332 ], [ 56.246642293821381, 58.007700154720325 ], [ 56.246811493895173, 58.007701156216882 ], [ 56.246814323676873, 58.007566437202733 ], [ 56.246645124238633, 58.007565435711371 ], [ 56.246646067705399, 58.007520529374403 ], [ 56.246476868490305, 58.007519527659838 ], [ 56.246477812166098, 58.007474621324263 ], [ 56.246308613174151, 58.007473619386509 ] ] ] } },
{ "type": "Feature", "properties": { }, "geometry": { "type": "Polygon", "coordinates": [ [ [ 56.244019694124141, 58.007684602760222 ], [ 56.244018747362382, 58.007729509068888 ], [ 56.244357147594137, 58.007731518813493 ], [ 56.244358093932192, 58.007686612501338 ], [ 56.244019694124141, 58.007684602760222 ] ] ] } },
{ "type": "Feature", "properties": { }, "geometry": { "type": "Polygon", "coordinates": [ [ [ 56.247148951234131, 58.007748064876111 ], [ 56.247148008388791, 58.007792971216674 ], [ 56.247232608653071, 58.007793471657408 ], [ 56.247233551392476, 58.007748565315978 ], [ 56.247148951234131, 58.007748064876111 ] ] ] } },
{ "type": "Feature", "properties": { }, "geometry": { "type": "Polygon", "coordinates": [ [ [ 56.248724364831602, 58.009284379572073 ], [ 56.248726246680199, 58.009194566879408 ], [ 56.248810850281934, 58.009195066278565 ], [ 56.248812731907393, 58.009105253582838 ], [ 56.248897335300065, 58.00910575292405 ], [ 56.248899216702377, 58.009015940225297 ], [ 56.248983819886, 58.009016439508521 ], [ 56.24898570106518, 58.008926626806705 ], [ 56.249070304039748, 58.008927126031971 ], [ 56.249072184995796, 58.008837313327099 ], [ 56.249156787761308, 58.008837812494399 ], [ 56.249158668494225, 58.0087479997865 ], [ 56.249243271050688, 58.008748498895834 ], [ 56.24924515156048, 58.008658686184866 ], [ 56.249329753907894, 58.008659185236226 ], [ 56.249331634194554, 58.008569372522231 ], [ 56.24916242992628, 58.008568374366746 ], [ 56.249160549215887, 58.008658187077266 ], [ 56.248991344535135, 58.008657188693391 ], [ 56.248989463389755, 58.008747001399151 ], [ 56.248904860841741, 58.008746502121106 ], [ 56.248902979473215, 58.008836314823817 ], [ 56.248818376716159, 58.008835815487828 ], [ 56.248816495124501, 58.008925628187477 ], [ 56.248731892158389, 58.008925128793514 ], [ 56.248730010343593, 58.009014941490122 ], [ 56.248645407168425, 58.009014442038193 ], [ 56.248642584107301, 58.009149161078057 ], [ 56.24855798061715, 58.009148661567274 ], [ 56.248557039485206, 58.009193567912384 ], [ 56.248472435891927, 58.009193068344501 ], [ 56.248470553407714, 58.009282881031957 ], [ 56.248385949605378, 58.009282381406116 ], [ 56.248384066898012, 58.009372194090552 ], [ 56.248299462886635, 58.009371694406738 ], [ 56.248297579956116, 58.009461507088105 ], [ 56.248382184179377, 58.009462006773653 ], [ 56.248381242815825, 58.009506913114706 ], [ 56.248465847147841, 58.009507412744881 ], [ 56.248466788405452, 58.009462506402969 ], [ 56.248551392634347, 58.009463005976052 ], [ 56.248553274929236, 58.009373193289477 ], [ 56.248637878949076, 58.009373692804573 ], [ 56.248639761020819, 58.009283880114943 ], [ 56.248724364831602, 58.009284379572073 ] ] ] } },
{ "type": "Feature", "properties": { }, "geometry": { "type": "Polygon", "coordinates": [ [ [ 56.246598890906284, 58.009765845820318 ], [ 56.246600778113866, 58.009676033178259 ], [ 56.246685382810377, 58.009676533992902 ], [ 56.246687269794769, 58.009586721347802 ], [ 56.246602665310135, 58.009586220534914 ], [ 56.246603608904039, 58.009541314212733 ], [ 56.246434400155131, 58.009540312419965 ], [ 56.246433456349351, 58.009585218740405 ], [ 56.246348851873194, 58.009584717758806 ], [ 56.246346964041287, 58.009674530396943 ], [ 56.246262359356081, 58.00967402935737 ], [ 56.246261415329947, 58.009718935675089 ], [ 56.246176810541627, 58.009718434578396 ], [ 56.246174922268999, 58.009808247211112 ], [ 56.246090317271623, 58.009807746056445 ], [ 56.246089373025129, 58.009852652371428 ], [ 56.246004767924646, 58.00985215115967 ], [ 56.246002879211289, 58.009941963786908 ], [ 56.246172089838851, 58.009942966157688 ], [ 56.246173033985059, 58.009898059842492 ], [ 56.246426849629778, 58.009899562974269 ], [ 56.246428737278073, 58.009809750337666 ], [ 56.246513342286754, 58.009810251267375 ], [ 56.246514286000718, 58.009765344947709 ], [ 56.246598890906284, 58.009765845820318 ] ] ] } },
{ "type": "Feature", "properties": { }, "geometry": { "type": "Polygon", "coordinates": [ [ [ 56.246001934850369, 58.009986870100043 ], [ 56.246002879211289, 58.009941963786908 ], [ 56.245918273901744, 58.009941462517176 ], [ 56.245917329434889, 58.009986368829423 ], [ 56.246001934850369, 58.009986870100043 ] ] ] } },
{ "type": "Feature", "properties": { }, "geometry": { "type": "Polygon", "coordinates": [ [ [ 56.252438168277116, 58.00566838491374 ], [ 56.252436295982001, 58.005758197732682 ], [ 56.252605487117577, 58.005759191505682 ], [ 56.252607358989046, 58.00566937868328 ], [ 56.252438168277116, 58.00566838491374 ] ] ] } },
{ "type": "Feature", "properties": { }, "geometry": { "type": "Polygon", "coordinates": [ [ [ 56.252605487117577, 58.005759191505682 ], [ 56.25260455117764, 58.005804097916368 ], [ 56.252689146855545, 58.005804594719407 ], [ 56.252690082689568, 58.00575968830784 ], [ 56.252605487117577, 58.005759191505682 ] ] ] } },
{ "type": "Feature", "properties": { }, "geometry": { "type": "Polygon", "coordinates": [ [ [ 56.252681660082487, 58.006163846000092 ], [ 56.252682595938929, 58.006118939591133 ], [ 56.252597999519629, 58.006118442782089 ], [ 56.252598935479185, 58.006073536373677 ], [ 56.252514339168599, 58.006073039509253 ], [ 56.252515275231261, 58.006028133101417 ], [ 56.252430679029395, 58.006027636181614 ], [ 56.252431615195171, 58.005982729774274 ], [ 56.252347019102018, 58.005982232799127 ], [ 56.252345146555832, 58.006072045611717 ], [ 56.252006761363958, 58.006070057141912 ], [ 56.252005824663001, 58.006114963544277 ], [ 56.251921228266134, 58.006114466285382 ], [ 56.251915607366016, 58.006383904687475 ], [ 56.252000204398385, 58.00638440195155 ], [ 56.251999267677803, 58.006429308351613 ], [ 56.252083864818886, 58.006429805560323 ], [ 56.252082928201411, 58.006474711960927 ], [ 56.25233671995926, 58.006476203252227 ], [ 56.252335783656733, 58.006521109655083 ], [ 56.252589575757561, 58.006522600442906 ], [ 56.252593319679832, 58.006342974819148 ], [ 56.252677916628713, 58.006343471632505 ], [ 56.252679788361206, 58.006253658816952 ], [ 56.252764385101052, 58.006254155572357 ], [ 56.252766256610506, 58.006164342753763 ], [ 56.252681660082487, 58.006163846000092 ] ] ] } },
{ "type": "Feature", "properties": { }, "geometry": { "type": "Polygon", "coordinates": [ [ [ 56.253089677139904, 58.006884831773313 ], [ 56.253088741765438, 58.006929738180965 ], [ 56.253173340108063, 58.006930234668161 ], [ 56.253174275376615, 58.006885328259642 ], [ 56.253089677139904, 58.006884831773313 ] ] ] } },
{ "type": "Feature", "properties": { }, "geometry": { "type": "Polygon", "coordinates": [ [ [ 56.253837979219831, 58.007517987911527 ], [ 56.253839848132152, 58.007428175088926 ], [ 56.253924447665121, 58.007428671079481 ], [ 56.253926316354402, 58.007338858253867 ], [ 56.254010915678322, 58.00733935418647 ], [ 56.254012784144557, 58.00724954135783 ], [ 56.254097383259435, 58.00725003723246 ], [ 56.254098317382436, 58.007205130816793 ], [ 56.254013718373493, 58.007204634942994 ], [ 56.254014652599622, 58.00715972852786 ], [ 56.253845454801969, 58.007158736613285 ], [ 56.253846389237147, 58.007113830199543 ], [ 56.253761790448436, 58.007113334158781 ], [ 56.253757117714954, 58.00733786621997 ], [ 56.253672518399441, 58.007337370118648 ], [ 56.253670649074614, 58.007427182939118 ], [ 56.253586049550037, 58.007426686779858 ], [ 56.253585114777508, 58.007471593188733 ], [ 56.253415915524911, 58.007470600699811 ], [ 56.253416850509289, 58.007425694292657 ], [ 56.253247651479739, 58.007424701580526 ], [ 56.253244845882641, 58.007559420795843 ], [ 56.253414045547736, 58.00756041351314 ], [ 56.253413110554959, 58.0076053199193 ], [ 56.253497710497633, 58.007605816194463 ], [ 56.253498645384489, 58.00756090978745 ], [ 56.253583245224036, 58.007561406005522 ], [ 56.253582310443107, 58.007606312413394 ], [ 56.253751510342447, 58.007607304682551 ], [ 56.253753379477814, 58.00751749186302 ], [ 56.253837979219831, 58.007517987911527 ] ] ] } },
{ "type": "Feature", "properties": { }, "geometry": { "type": "Polygon", "coordinates": [ [ [ 56.251722049401096, 58.007550476218164 ], [ 56.251721112289815, 58.0075953826071 ], [ 56.251636512405987, 58.007594885151022 ], [ 56.251634637963157, 58.007684697926166 ], [ 56.251550037870288, 58.007684200412164 ], [ 56.251547225867206, 58.007818919569822 ], [ 56.251631826277844, 58.007819417086424 ], [ 56.251633700737521, 58.007729604313248 ], [ 56.251718300939118, 58.007730101771898 ], [ 56.251720175175713, 58.007640288995681 ], [ 56.251804775168267, 58.007640786396358 ], [ 56.251806649181795, 58.007550973617121 ], [ 56.251722049401096, 58.007550476218164 ] ] ] } },
{ "type": "Feature", "properties": { }, "geometry": { "type": "Polygon", "coordinates": [ [ [ 56.249347616176593, 58.007805964400134 ], [ 56.249346676082524, 58.007850870762873 ], [ 56.249262075641845, 58.007850371727102 ], [ 56.249261135439028, 58.007895278088661 ], [ 56.249345735985635, 58.007895777125299 ], [ 56.249344795885932, 58.007940683487398 ], [ 56.249767799190813, 58.007943177831415 ], [ 56.249768738760878, 58.007898271465002 ], [ 56.249599537642332, 58.007897273897818 ], [ 56.249600477421446, 58.007852367532799 ], [ 56.24943127652601, 58.007851369742426 ], [ 56.249432216514151, 58.007806463378806 ], [ 56.249347616176593, 58.007805964400134 ] ] ] } },
{ "type": "Feature", "properties": { }, "geometry": { "type": "Polygon", "coordinates": [ [ [ 56.253491166211255, 58.007920161034448 ], [ 56.253321964845739, 58.007919168415839 ], [ 56.25332289996404, 58.007874262012834 ], [ 56.253238299391406, 58.007873765620026 ], [ 56.253236428940141, 58.007963578423997 ], [ 56.253151828158451, 58.007963081973251 ], [ 56.253152763491414, 58.007918175572286 ], [ 56.252983562148295, 58.007917182503789 ], [ 56.252981691055858, 58.00800699530194 ], [ 56.25306629193787, 58.00800749186601 ], [ 56.253064421046091, 58.008097304664552 ], [ 56.253233623242231, 58.00809829762747 ], [ 56.253232688003997, 58.008143204027967 ], [ 56.253317289212198, 58.008143700425926 ], [ 56.253318224344504, 58.008098794024548 ], [ 56.253402825449577, 58.008099290365415 ], [ 56.253404695493934, 58.008009477560016 ], [ 56.253489296389951, 58.008009973842917 ], [ 56.253491166211255, 58.007920161034448 ] ] ] } },
{ "type": "Feature", "properties": { }, "geometry": { "type": "Polygon", "coordinates": [ [ [ 56.251458875658926, 58.007998047532453 ], [ 56.251460750564767, 58.007908234765381 ], [ 56.251545351184454, 58.007908732339928 ], [ 56.25154628852723, 58.007863825955056 ], [ 56.251377087502519, 58.007862830751414 ], [ 56.251378025054343, 58.007817924367913 ], [ 56.251208824252714, 58.007816928941061 ], [ 56.25120601095324, 58.007951648085402 ], [ 56.251121410238859, 58.007951150285045 ], [ 56.251120472360824, 58.007996056664958 ], [ 56.251035871543316, 58.007995558807494 ], [ 56.251034933556546, 58.008040465186227 ], [ 56.250950332635924, 58.00803996727165 ], [ 56.250945642130297, 58.008264499156084 ], [ 56.25119944648953, 58.008265992744015 ], [ 56.251201322064631, 58.008176179986059 ], [ 56.251285923311464, 58.008176677734504 ], [ 56.251287798663476, 58.008086864973492 ], [ 56.251372399701268, 58.008087362663964 ], [ 56.251374274830184, 58.00799754989994 ], [ 56.251458875658926, 58.007998047532453 ] ] ] } },
{ "type": "Feature", "properties": { }, "geometry": { "type": "Polygon", "coordinates": [ [ [ 56.250525450821819, 58.008127289601489 ], [ 56.250527328074938, 58.008037476855364 ], [ 56.250611928981513, 58.008037975051103 ], [ 56.250614744522316, 58.007903255926877 ], [ 56.250445543347539, 58.007902259484361 ], [ 56.250446482067368, 58.007857353110694 ], [ 56.250361881590123, 58.007856854805951 ], [ 56.25036094276436, 58.007901761178758 ], [ 56.250276342184002, 58.007901262816915 ], [ 56.250273525372066, 58.008035981930774 ], [ 56.250188924476731, 58.008035483510106 ], [ 56.250187985427871, 58.008080389879858 ], [ 56.250272586429134, 58.008080888301386 ], [ 56.250271647483387, 58.008125794671699 ], [ 56.250356248593391, 58.008126293037861 ], [ 56.250352493206002, 58.008305918519227 ], [ 56.250606297824035, 58.008307413290666 ], [ 56.250608174887766, 58.008217600545457 ], [ 56.250692776220873, 58.00821809868841 ], [ 56.250693714642594, 58.008173192314459 ], [ 56.250609113415422, 58.008172694172359 ], [ 56.250610051940257, 58.008127787798948 ], [ 56.250525450821819, 58.008127289601489 ] ] ] } },
{ "type": "Feature", "properties": { }, "geometry": { "type": "Polygon", "coordinates": [ [ [ 56.253652889930443, 58.008280404667886 ], [ 56.253651955210657, 58.00832531107136 ], [ 56.25356735356754, 58.008324814894898 ], [ 56.25356641873902, 58.0083697212972 ], [ 56.253735622239923, 58.008370713595617 ], [ 56.253736556856573, 58.008325807191611 ], [ 56.253821158505289, 58.008326303255608 ], [ 56.253823027518344, 58.008236490444851 ], [ 56.253738426081483, 58.008235994382567 ], [ 56.253737491470424, 58.00828090078727 ], [ 56.253652889930443, 58.008280404667886 ] ] ] } },
{ "type": "Feature", "properties": { }, "geometry": { "type": "Polygon", "coordinates": [ [ [ 56.254159565128141, 58.008328286949258 ], [ 56.254158631041143, 58.008373193357571 ], [ 56.254074029275301, 58.008372697517672 ], [ 56.254073095079576, 58.008417603924798 ], [ 56.253988493210599, 58.008417108027771 ], [ 56.253986624598888, 58.008506920839345 ], [ 56.254071226679727, 58.008507416738084 ], [ 56.254072160881051, 58.008462510331604 ], [ 56.254156762858749, 58.008463006173251 ], [ 56.254157696951339, 58.008418099765578 ], [ 56.254326900703269, 58.008419091278419 ], [ 56.254328768456347, 58.008329278458682 ], [ 56.254159565128141, 58.008328286949258 ] ] ] } },
{ "type": "Feature", "properties": { }, "geometry": { "type": "Polygon", "coordinates": [ [ [ 56.252207171935794, 58.008631213136169 ], [ 56.252208108476019, 58.008586306749642 ], [ 56.252123506244942, 58.008585809611994 ], [ 56.252125379528856, 58.008495996839649 ], [ 56.252040777512441, 58.008495499647516 ], [ 56.252039840765953, 58.008540406032992 ], [ 56.251870636529681, 58.00853941147826 ], [ 56.251871573488032, 58.008494505094532 ], [ 56.251786971480037, 58.00849400773366 ], [ 56.251787908541509, 58.008449101350465 ], [ 56.251872510443576, 58.008449598710456 ], [ 56.251874384346245, 58.008359785941302 ], [ 56.251958986039249, 58.008360283243327 ], [ 56.251960859718835, 58.008270470471146 ], [ 56.25204546120279, 58.00827096771522 ], [ 56.252046397932446, 58.008226061327775 ], [ 56.251877195179205, 58.008225066785116 ], [ 56.251878132117916, 58.008180160399085 ], [ 56.251708929587757, 58.00817916563323 ], [ 56.251707992437183, 58.008224072017548 ], [ 56.251623391070389, 58.008223574549405 ], [ 56.251621516548973, 58.00831338731534 ], [ 56.251536914973116, 58.008312889789266 ], [ 56.251535040228617, 58.008402702552132 ], [ 56.251450438443705, 58.008402204968085 ], [ 56.25144856347611, 58.008492017727924 ], [ 56.251363961482156, 58.008491520085911 ], [ 56.251361148691913, 58.008626239220625 ], [ 56.251530353318238, 58.00862723445362 ], [ 56.251529415927742, 58.008672140832935 ], [ 56.25186782563781, 58.008674130627561 ], [ 56.251866888668239, 58.008719037009996 ], [ 56.2519514912087, 58.008719534318928 ], [ 56.251950554342258, 58.008764440701881 ], [ 56.252035156991461, 58.008764937955441 ], [ 56.252034220228147, 58.008809844338941 ], [ 56.252118822986084, 58.008810341537128 ], [ 56.252119759643463, 58.00876543515276 ], [ 56.252288964955888, 58.008766429378682 ], [ 56.252289901398605, 58.008721522992268 ], [ 56.252374503953085, 58.008722020020016 ], [ 56.25237637661823, 58.008632207244446 ], [ 56.252207171935794, 58.008631213136169 ] ] ] } },
{ "type": "Feature", "properties": { }, "geometry": { "type": "Polygon", "coordinates": [ [ [ 56.253902022520855, 58.008506424884359 ], [ 56.253901088104868, 58.008551331288793 ], [ 56.253985690288843, 58.008551827244631 ], [ 56.253986624598888, 58.008506920839345 ], [ 56.253902022520855, 58.008506424884359 ] ] ] } },
{ "type": "Feature", "properties": { }, "geometry": { "type": "Polygon", "coordinates": [ [ [ 56.249417176366102, 58.00852496515725 ], [ 56.249332574333664, 58.008524466164722 ], [ 56.249331634194554, 58.008569372522231 ], [ 56.249416236332912, 58.008569871515618 ], [ 56.249417176366102, 58.00852496515725 ] ] ] } },
{ "type": "Feature", "properties": { }, "geometry": { "type": "Polygon", "coordinates": [ [ [ 56.253815551398979, 58.008595741679969 ], [ 56.253814616871473, 58.008640648082874 ], [ 56.253899219264511, 58.008641144096671 ], [ 56.253900153686089, 58.008596237692899 ], [ 56.253815551398979, 58.008595741679969 ] ] ] } },
{ "type": "Feature", "properties": { }, "geometry": { "type": "Polygon", "coordinates": [ [ [ 56.253729079844987, 58.008685058414571 ], [ 56.253728145205947, 58.008729964815977 ], [ 56.253812747808055, 58.008730460887712 ], [ 56.253813682341168, 58.008685554485467 ], [ 56.253729079844987, 58.008685058414571 ] ] ] } },
{ "type": "Feature", "properties": { }, "geometry": { "type": "Polygon", "coordinates": [ [ [ 56.249583560967018, 58.008660682052906 ], [ 56.249582621137257, 58.008705588412006 ], [ 56.249667223601861, 58.008706087239283 ], [ 56.249668163325687, 58.008661180879308 ], [ 56.249583560967018, 58.008660682052906 ] ] ] } },
{ "type": "Feature", "properties": { }, "geometry": { "type": "Polygon", "coordinates": [ [ [ 56.253217723811375, 58.008861706391251 ], [ 56.253218659094415, 58.008816799996019 ], [ 56.253134056300041, 58.008816303528903 ], [ 56.253134991686217, 58.008771397134204 ], [ 56.253219594374663, 58.008771893600439 ], [ 56.253221464926739, 58.008682080808327 ], [ 56.253306067406122, 58.008682577216618 ], [ 56.253308872895438, 58.008547858023377 ], [ 56.253393475059816, 58.008548354372849 ], [ 56.253395345160172, 58.008458541574015 ], [ 56.253310743207649, 58.008458045226256 ], [ 56.25330980805294, 58.008502951624983 ], [ 56.253225205997296, 58.008502455220118 ], [ 56.25322427073386, 58.008547361617666 ], [ 56.253139668575081, 58.008546865155701 ], [ 56.253140603944452, 58.008501958759041 ], [ 56.252971399847162, 58.008500965668169 ], [ 56.252972335425596, 58.008456059272874 ], [ 56.252803131551374, 58.008455065958778 ], [ 56.252802195761085, 58.008499972352332 ], [ 56.252717593722238, 58.008499475610073 ], [ 56.252713850109309, 58.008679101177606 ], [ 56.252629247649537, 58.008678604375646 ], [ 56.252628311633366, 58.008723510765854 ], [ 56.252543709070473, 58.008723013906817 ], [ 56.25254277294556, 58.008767920295803 ], [ 56.252627375614395, 58.008768417155721 ], [ 56.252625503568034, 58.008858229934454 ], [ 56.252710106451531, 58.008858726739852 ], [ 56.252709170530082, 58.008903633129592 ], [ 56.252878376517359, 58.008904626573418 ], [ 56.25287744080498, 58.008949532964529 ], [ 56.253215853236888, 58.008951519180748 ], [ 56.253214917945442, 58.008996425574992 ], [ 56.253384124390074, 58.008997418347413 ], [ 56.25338505946965, 58.008952511951442 ], [ 56.253469662590227, 58.008953008252433 ], [ 56.253470597561069, 58.008908101855276 ], [ 56.25338599454642, 58.008907605555137 ], [ 56.253386929620397, 58.008862699158506 ], [ 56.253217723811375, 58.008861706391251 ] ], [ [ 56.252882119338871, 58.00872500100558 ], [ 56.252966721912976, 58.008725497639674 ], [ 56.252967657505415, 58.008680591246019 ], [ 56.253052259976393, 58.008681087823021 ], [ 56.253050389000578, 58.008770900611701 ], [ 56.252881183637697, 58.008769907398026 ], [ 56.252882119338871, 58.00872500100558 ] ] ] } },
{ "type": "Feature", "properties": { }, "geometry": { "type": "Polygon", "coordinates": [ [ [ 56.249667223601861, 58.008706087239283 ], [ 56.249666283875221, 58.008750993598923 ], [ 56.24983548902474, 58.008751991086513 ], [ 56.24983642853951, 58.008707084725145 ], [ 56.249667223601861, 58.008706087239283 ] ] ] } },
{ "type": "Feature", "properties": { }, "geometry": { "type": "Polygon", "coordinates": [ [ [ 56.253642607858872, 58.008774375088201 ], [ 56.253641673108298, 58.008819281488073 ], [ 56.253726275919469, 58.008819777617759 ], [ 56.253727210564108, 58.008774871217035 ], [ 56.253642607858872, 58.008774375088201 ] ] ] } },
{ "type": "Feature", "properties": { }, "geometry": { "type": "Polygon", "coordinates": [ [ [ 56.251932753346843, 58.009617661915826 ], [ 56.252017358008835, 58.009618159185763 ], [ 56.252019231633639, 58.009528346430272 ], [ 56.25227304500082, 58.00952983789751 ], [ 56.25227210850764, 58.009574744277998 ], [ 56.252441317644994, 58.009575738310033 ], [ 56.252440381360891, 58.009620644691921 ], [ 56.252609590721335, 58.009621638500739 ], [ 56.252608654646302, 58.00966654488402 ], [ 56.252777864229834, 58.009667538469614 ], [ 56.252776928363886, 58.009712444854294 ], [ 56.252946138170508, 58.009713438216636 ], [ 56.252945202513637, 58.009758344602709 ], [ 56.253029807527092, 58.009758841200394 ], [ 56.253030743078021, 58.009713934813455 ], [ 56.253115347988341, 58.009714431354034 ], [ 56.25311254164496, 58.009849150516459 ], [ 56.253281752109643, 58.009850143434093 ], [ 56.25328362258427, 58.009760330655993 ], [ 56.253368227608931, 58.009760827028714 ], [ 56.253370097860476, 58.00967101424763 ], [ 56.253200888237714, 58.009670021449381 ], [ 56.253201823571175, 58.009625115060061 ], [ 56.253032614171495, 58.009624122038588 ], [ 56.253033549714026, 58.00957921565066 ], [ 56.252864340537435, 58.009578222405935 ], [ 56.252865276289043, 58.009533316019407 ], [ 56.252696067335535, 58.009532322551472 ], [ 56.25269700329622, 58.009487416166344 ], [ 56.2525277945658, 58.009486422475184 ], [ 56.252528730735563, 58.009441516091428 ], [ 56.252359522228232, 58.009440522177059 ], [ 56.252360458607065, 58.009395615794716 ], [ 56.252191250322824, 58.009394621657094 ], [ 56.252192186910733, 58.009349715276151 ], [ 56.252022978849588, 58.009348720915334 ], [ 56.252023915646561, 58.009303814535762 ], [ 56.251939311726133, 58.009303317271865 ], [ 56.251937437917505, 58.009393130028933 ], [ 56.251852833788007, 58.009392632707076 ], [ 56.251850959756283, 58.009482445461074 ], [ 56.251766355417715, 58.009481948081266 ], [ 56.251765418291704, 58.009526854456908 ], [ 56.251850022736214, 58.009527351837598 ], [ 56.251849085713339, 58.009572258213765 ], [ 56.251764481162887, 58.009571760832216 ], [ 56.25176354403127, 58.009616667207233 ], [ 56.25167893937769, 58.00961616976857 ], [ 56.251677064894146, 58.009705982515833 ], [ 56.251761669759603, 58.009706479956222 ], [ 56.251760732619566, 58.009751386330237 ], [ 56.25167612764816, 58.009750888888988 ], [ 56.251673315893385, 58.009885608006471 ], [ 56.251757921182602, 58.009886105450313 ], [ 56.251759795476715, 58.009796292703925 ], [ 56.251844400556863, 58.009796790089794 ], [ 56.251846274627866, 58.009706977340386 ], [ 56.251930879498936, 58.009707474668275 ], [ 56.251932753346843, 58.009617661915826 ] ] ] } },
{ "type": "Feature", "properties": { }, "geometry": { "type": "Polygon", "coordinates": [ [ [ 56.250911868416722, 58.009881128481261 ], [ 56.250910930206047, 58.009926034845321 ], [ 56.250995535575939, 58.009926532796158 ], [ 56.250996473680679, 58.00988162643123 ], [ 56.250911868416722, 58.009881128481261 ] ] ] } },
{ "type": "Feature", "properties": { }, "geometry": { "type": "Polygon", "coordinates": [ [ [ 56.250909991992557, 58.009970941209055 ], [ 56.250910930206047, 58.009926034845321 ], [ 56.250826324838961, 58.009925536838246 ], [ 56.25082538651953, 58.009970443201112 ], [ 56.250909991992557, 58.009970941209055 ] ] ] } },
{ "type": "Feature", "properties": { }, "geometry": { "type": "Polygon", "coordinates": [ [ [ 56.253619238254856, 58.009897034986437 ], [ 56.253617368610961, 58.009986847769433 ], [ 56.253532763048192, 58.00998635156111 ], [ 56.253531828116103, 58.01003125795124 ], [ 56.253701039456324, 58.010032250313373 ], [ 56.253700104733319, 58.010077156704902 ], [ 56.253869316296623, 58.010078148843796 ], [ 56.253871185316058, 58.009988336056942 ], [ 56.253955790890018, 58.009988832040314 ], [ 56.253956725289598, 58.009943925645551 ], [ 56.253872119821573, 58.009943429663046 ], [ 56.253873054324302, 58.009898523268809 ], [ 56.253619238254856, 58.009897034986437 ] ] ] } },
{ "type": "Feature", "properties": { }, "geometry": { "type": "Polygon", "coordinates": [ [ [ 56.250740781049316, 58.009969945136923 ], [ 56.250739842621137, 58.010014851498589 ], [ 56.250824448197292, 58.010015349563659 ], [ 56.25082538651953, 58.009970443201112 ], [ 56.250740781049316, 58.009969945136923 ] ] ] } },
{ "type": "Feature", "properties": { }, "geometry": { "type": "Polygon", "coordinates": [ [ [ 56.253446287409361, 58.010075668074784 ], [ 56.253445352365731, 58.0101205744634 ], [ 56.253360746490735, 58.010120078140027 ], [ 56.253358876183185, 58.010209890914538 ], [ 56.253528088359751, 58.010210883508492 ], [ 56.253527153413664, 58.010255789897009 ], [ 56.253696365813319, 58.010256782267739 ], [ 56.253698235278918, 58.010166969486967 ], [ 56.253782841271054, 58.010167465586264 ], [ 56.253783775893709, 58.010122559194528 ], [ 56.253529958243526, 58.010121070730548 ], [ 56.253530893181214, 58.010076164341065 ], [ 56.253446287409361, 58.010075668074784 ] ] ] } },
{ "type": "Feature", "properties": { }, "geometry": { "type": "Polygon", "coordinates": [ [ [ 56.252312699711531, 58.011685840875458 ], [ 56.252313636230568, 58.011640934509558 ], [ 56.252144417351744, 58.011639940285711 ], [ 56.252145354079886, 58.011595033921189 ], [ 56.251976135424187, 58.011594039474105 ], [ 56.251974261541278, 58.011683852199369 ], [ 56.251889652005737, 58.011683354889733 ], [ 56.25188871495412, 58.011728261251022 ], [ 56.251973324595617, 58.011728758561496 ], [ 56.251972387647157, 58.011773664923297 ], [ 56.252056997397418, 58.011774162178412 ], [ 56.252056060552107, 58.011819068540746 ], [ 56.25214067041113, 58.011819565740474 ], [ 56.252139733668962, 58.011864472103355 ], [ 56.252562783535929, 58.011866957262704 ], [ 56.252564655957904, 58.011777144528004 ], [ 56.252649265727797, 58.011777641389429 ], [ 56.252650201828622, 58.011732735020722 ], [ 56.252480982503549, 58.011731741243374 ], [ 56.252481918813487, 58.011686834876066 ], [ 56.252312699711531, 58.011685840875458 ] ] ] } },
{ "type": "Feature", "properties": { }, "geometry": { "type": "Polygon", "coordinates": [ [ [ 56.25472411039776, 58.005591968958747 ], [ 56.254639515182255, 58.005591473509533 ], [ 56.254638581795398, 58.005636379942196 ], [ 56.254723177116816, 58.005636875392284 ], [ 56.25472411039776, 58.005591968958747 ] ] ] } },
{ "type": "Feature", "properties": { }, "geometry": { "type": "Polygon", "coordinates": [ [ [ 56.257595700957793, 58.005833313086349 ], [ 56.257593841567285, 58.005923126008135 ], [ 56.257678437621792, 58.005923619495356 ], [ 56.257679367212525, 58.005878713033752 ], [ 56.257763963163896, 58.005879206463867 ], [ 56.257765822125187, 58.005789393538031 ], [ 56.257681226385635, 58.0057889001096 ], [ 56.257680296800473, 58.005833806571836 ], [ 56.257595700957793, 58.005833313086349 ] ] ] } },
{ "type": "Feature", "properties": { }, "geometry": { "type": "Polygon", "coordinates": [ [ [ 56.256917073231499, 58.005919176086216 ], [ 56.256916142684759, 58.005964082539769 ], [ 56.257000738822896, 58.005964576477659 ], [ 56.25700166926373, 58.005919670023268 ], [ 56.256917073231499, 58.005919176086216 ] ] ] } },
{ "type": "Feature", "properties": { }, "geometry": { "type": "Polygon", "coordinates": [ [ [ 56.256830615893961, 58.006008494997992 ], [ 56.256829685235729, 58.006053401450018 ], [ 56.256914281582915, 58.006053895445866 ], [ 56.256915212135226, 58.006008988992981 ], [ 56.256830615893961, 58.006008494997992 ] ] ] } },
{ "type": "Feature", "properties": { }, "geometry": { "type": "Polygon", "coordinates": [ [ [ 56.257337263360611, 58.006056364581632 ], [ 56.25733633333509, 58.006101271038467 ], [ 56.257420929804894, 58.006101764697796 ], [ 56.257421859724509, 58.006056858240093 ], [ 56.257337263360611, 58.006056364581632 ] ] ] } },
{ "type": "Feature", "properties": { }, "geometry": { "type": "Polygon", "coordinates": [ [ [ 56.257251736868056, 58.006100777322914 ], [ 56.257250806733836, 58.006145683778577 ], [ 56.257335403306776, 58.006146177494969 ], [ 56.25733633333509, 58.006101271038467 ], [ 56.257251736868056, 58.006100777322914 ] ] ] } },
{ "type": "Feature", "properties": { }, "geometry": { "type": "Polygon", "coordinates": [ [ [ 56.256744158124405, 58.006097813848783 ], [ 56.25674322735469, 58.006142720299295 ], [ 56.256827823910911, 58.006143214353095 ], [ 56.25682875457472, 58.006098307901723 ], [ 56.256744158124405, 58.006097813848783 ] ] ] } },
{ "type": "Feature", "properties": { }, "geometry": { "type": "Polygon", "coordinates": [ [ [ 56.25674322735469, 58.006142720299295 ], [ 56.25657403425059, 58.006141732023046 ], [ 56.25657496523214, 58.006096825574254 ], [ 56.256236579481076, 58.006094848350401 ], [ 56.256235648075865, 58.006139754795754 ], [ 56.25632024461536, 58.006140249186927 ], [ 56.256319313313277, 58.006185155632821 ], [ 56.256488506612477, 58.00618614424819 ], [ 56.256487575519444, 58.006231050695462 ], [ 56.256741365806889, 58.006232533199345 ], [ 56.25674322735469, 58.006142720299295 ] ] ] } },
{ "type": "Feature", "properties": { }, "geometry": { "type": "Polygon", "coordinates": [ [ [ 56.256151051539149, 58.00613926034837 ], [ 56.256150120025239, 58.006184166792544 ], [ 56.256234716667869, 58.006184661240809 ], [ 56.256235648075865, 58.006139754795754 ], [ 56.256151051539149, 58.00613926034837 ] ] ] } },
{ "type": "Feature", "properties": { }, "geometry": { "type": "Polygon", "coordinates": [ [ [ 56.256061796878186, 58.006363298058062 ], [ 56.256060865244415, 58.006408204499756 ], [ 56.256145462413841, 58.006408699008546 ], [ 56.256146393941698, 58.006363792565971 ], [ 56.256061796878186, 58.006363298058062 ] ] ] } },
{ "type": "Feature", "properties": { }, "geometry": { "type": "Polygon", "coordinates": [ [ [ 56.255544891737372, 58.006809394180294 ], [ 56.255543959440182, 58.006854300613533 ], [ 56.255628557652045, 58.006854795468271 ], [ 56.255629489843322, 58.006809889034173 ], [ 56.255544891737372, 58.006809394180294 ] ] ] } },
{ "type": "Feature", "properties": { }, "geometry": { "type": "Polygon", "coordinates": [ [ [ 56.254646638569525, 58.009319201823402 ], [ 56.254731242579552, 58.009319697287722 ], [ 56.254733109385107, 58.009229884472511 ], [ 56.254817713186064, 58.009230379878872 ], [ 56.254818646478711, 58.009185473469941 ], [ 56.254987853877118, 58.009186464112247 ], [ 56.254986920796348, 58.009231370522919 ], [ 56.255156128417809, 58.009232360942001 ], [ 56.255155195546116, 58.009277267354086 ], [ 56.255493611246301, 58.009279247520858 ], [ 56.255495476139401, 58.009189434689532 ], [ 56.25541087242204, 58.00918893973391 ], [ 56.255411804970343, 58.009144033318591 ], [ 56.255242597755867, 58.009143043240357 ], [ 56.255243530513241, 58.009098136826459 ], [ 56.255074323521811, 58.009097146525008 ], [ 56.255075256488269, 58.009052240112474 ], [ 56.254906049719885, 58.009051249587785 ], [ 56.254906982895413, 58.009006343176651 ], [ 56.254822379621352, 58.009005847830807 ], [ 56.254823312900029, 58.00896094142022 ], [ 56.2550771224128, 58.008962427286448 ], [ 56.255076189451927, 58.009007333699621 ], [ 56.25516079273438, 58.009007828876754 ], [ 56.255162658441449, 58.008918016048369 ], [ 56.255247261514818, 58.008918511167543 ], [ 56.255249126998855, 58.008828698336096 ], [ 56.255333729863146, 58.008829193397325 ], [ 56.255340258227747, 58.008514848470931 ], [ 56.255255656104985, 58.008514353415713 ], [ 56.255257521538745, 58.008424540578368 ], [ 56.255426725363336, 58.008425530629111 ], [ 56.255429522857447, 58.008290811365477 ], [ 56.25559872605762, 58.008291801186139 ], [ 56.255599658338205, 58.00824689476255 ], [ 56.255684259836549, 58.008247389587666 ], [ 56.255683327661892, 58.008292296012122 ], [ 56.255767929268949, 58.008292790781866 ], [ 56.255766997197433, 58.008337697206841 ], [ 56.255851598913218, 58.008338191921204 ], [ 56.255849734973658, 58.008428004771886 ], [ 56.256018938837322, 58.008428994035341 ], [ 56.256018007075234, 58.008473900461922 ], [ 56.256187211161915, 58.008474889502168 ], [ 56.25618627960889, 58.008519795930106 ], [ 56.256609290404086, 58.00852226755088 ], [ 56.256608359377928, 58.00856717398279 ], [ 56.25686216620629, 58.008568656282996 ], [ 56.25686309691465, 58.008523749848514 ], [ 56.256693892571484, 58.008522761706331 ], [ 56.256694823488921, 58.008477855273227 ], [ 56.256525619368766, 58.00847686690782 ], [ 56.256526550495273, 58.008431960476088 ], [ 56.256611152448031, 58.008432454686066 ], [ 56.256612083465811, 58.008387548253168 ], [ 56.256527481618996, 58.00838705404405 ], [ 56.256528412739932, 58.008342147611678 ], [ 56.256443811001823, 58.008341653347209 ], [ 56.256444742225902, 58.008296746915363 ], [ 56.25636014059652, 58.0082962525955 ], [ 56.256361071923742, 58.00825134616418 ], [ 56.25619186888521, 58.008250357357461 ], [ 56.256192800421495, 58.008205450927548 ], [ 56.256108199012345, 58.008204956440679 ], [ 56.256109130651772, 58.008160050011291 ], [ 56.255939928053692, 58.008159060870604 ], [ 56.255940859902196, 58.008114154442559 ], [ 56.255856258713273, 58.008113659788712 ], [ 56.255857190664905, 58.008068753361272 ], [ 56.256026392833689, 58.008069742610985 ], [ 56.25602825630488, 58.00797992975162 ], [ 56.255943655430947, 58.007979435156599 ], [ 56.255944587268289, 58.007934528727262 ], [ 56.256029188036294, 58.007935023321437 ], [ 56.256031051490744, 58.007845210460083 ], [ 56.25628485317592, 58.007846693900063 ], [ 56.256285784581181, 58.00780178746632 ], [ 56.256116583666795, 58.00780079856429 ], [ 56.25611844689265, 58.007710985699262 ], [ 56.256287647383331, 58.007711974597854 ], [ 56.256286715983649, 58.007756881032257 ], [ 56.256371316339099, 58.007757375398057 ], [ 56.256370385042551, 58.007802281833001 ], [ 56.25653958597367, 58.007803270397623 ], [ 56.256538654886192, 58.007848176833946 ], [ 56.256792456621554, 58.007849659261709 ], [ 56.256791525849074, 58.007894565700262 ], [ 56.257045327927301, 58.007896047624513 ], [ 56.257044397469812, 58.00794095406529 ], [ 56.257298199890897, 58.007942435485987 ], [ 56.257297269748413, 58.007987341929038 ], [ 56.257551072512349, 58.007988822846215 ], [ 56.25755014268487, 58.008033729291483 ], [ 56.257719344753269, 58.00803471629014 ], [ 56.257720274368893, 58.007989809843153 ], [ 56.257635673439232, 58.007989316372793 ], [ 56.257636603158005, 58.007944409926331 ], [ 56.257552002337057, 58.007943916400599 ], [ 56.257552932158973, 58.007899009954656 ], [ 56.257722133591798, 58.007899996948176 ], [ 56.25772306319908, 58.007855090500215 ], [ 56.257638462587195, 58.00785459703242 ], [ 56.257639392297627, 58.007809690584963 ], [ 56.257554791794455, 58.007809197061789 ], [ 56.257555721608021, 58.00776429061488 ], [ 56.257386520821882, 58.007763303401561 ], [ 56.257387450844519, 58.007718396956037 ], [ 56.257218250281383, 58.007717409519493 ], [ 56.25721918051309, 58.007672503075341 ], [ 56.257049980172937, 58.007671515415588 ], [ 56.257050910613707, 58.007626608972807 ], [ 56.256797110442164, 58.007625127064017 ], [ 56.256798041197925, 58.007580220623481 ], [ 56.256713441252245, 58.007579726542261 ], [ 56.256714372111148, 58.007534820102258 ], [ 56.256545172439992, 58.007533831772854 ], [ 56.256546103507958, 58.007488925334215 ], [ 56.256292304339908, 58.007487442420938 ], [ 56.256293235722865, 58.007442535984573 ], [ 56.25620863611168, 58.007442041568517 ], [ 56.256211430561571, 58.00730732226004 ], [ 56.25629602985498, 58.007307816673496 ], [ 56.256297892595775, 58.007218003797796 ], [ 56.256382491680128, 58.007218498153307 ], [ 56.256383422940424, 58.007173591714128 ], [ 56.256468021921641, 58.007174086012554 ], [ 56.256468953073224, 58.007129179572161 ], [ 56.256553551951306, 58.007129673813509 ], [ 56.256557276106072, 58.006950048045248 ], [ 56.25664187456325, 58.006950542226932 ], [ 56.256640012703294, 58.007040355113425 ], [ 56.256724611375098, 58.007040849240596 ], [ 56.256725542200556, 58.00699594279665 ], [ 56.256979337914949, 58.006997424838175 ], [ 56.256977476896779, 58.007087237730865 ], [ 56.25706207568566, 58.007087731633959 ], [ 56.257063006090213, 58.007042825186907 ], [ 56.257147604775959, 58.007043319032896 ], [ 56.257148535071799, 58.006998412584672 ], [ 56.257233133654417, 58.00699890637361 ], [ 56.257234063841551, 58.006953999924171 ], [ 56.256811071485977, 58.006951530421581 ], [ 56.256814794325102, 58.006771904637787 ], [ 56.25664559824974, 58.00677091644998 ], [ 56.256643736412073, 58.00686072933911 ], [ 56.256728334660195, 58.006861223462842 ], [ 56.256727403843101, 58.006906129907769 ], [ 56.256389010443641, 58.006904153072021 ], [ 56.256389941684418, 58.006859246630519 ], [ 56.256305343447437, 58.006858752281865 ], [ 56.256304412100747, 58.0069036587225 ], [ 56.256219813760637, 58.006903164316768 ], [ 56.256218882305227, 58.006948070756224 ], [ 56.256134283861982, 58.006947576293385 ], [ 56.256133352297866, 58.006992482731668 ], [ 56.2560487537515, 58.006991988211752 ], [ 56.256046890403049, 58.007081801085569 ], [ 56.255962291647627, 58.007081306507715 ], [ 56.255960428076179, 58.007171119378512 ], [ 56.255875829111702, 58.007170624742677 ], [ 56.255874897215868, 58.007215531176726 ], [ 56.255790298148256, 58.0072150364838 ], [ 56.25579123015001, 58.007170130050625 ], [ 56.255706631191103, 58.007169635302347 ], [ 56.255707563295992, 58.00712472886967 ], [ 56.255622964445806, 58.007124234066019 ], [ 56.25562389665383, 58.007079327633882 ], [ 56.255708495398089, 58.00707982243668 ], [ 56.255709427497401, 58.007034916003356 ], [ 56.255624828859055, 58.007034421201411 ], [ 56.255626693261135, 58.006944608335516 ], [ 56.255542094837423, 58.006944113479044 ], [ 56.255543027140199, 58.006899207046459 ], [ 56.2554584288252, 58.006898712134607 ], [ 56.255456564005023, 58.006988524997766 ], [ 56.255371965480975, 58.006988030027976 ], [ 56.255385020470605, 58.006359339970444 ], [ 56.255554214555758, 58.006360329829739 ], [ 56.255553282286478, 58.006405236266268 ], [ 56.255722476594627, 58.006406225902346 ], [ 56.255721544534396, 58.006451132340288 ], [ 56.256059933607851, 58.006453110941109 ], [ 56.256060865244415, 58.006408204499756 ], [ 56.255807073752891, 58.006406720636051 ], [ 56.255808005704417, 58.006361814196943 ], [ 56.255638811602523, 58.006360824675042 ], [ 56.255639743763091, 58.006315918237306 ], [ 56.255470549884194, 58.006314928492202 ], [ 56.255471482253803, 58.006270022055865 ], [ 56.255302288597903, 58.006269032087573 ], [ 56.255303221176547, 58.006224125652622 ], [ 56.255134027743651, 58.006223135461106 ], [ 56.255134960531336, 58.006178229027547 ], [ 56.254965767321437, 58.006177238612821 ], [ 56.254966700318171, 58.00613233218067 ], [ 56.254712910842024, 58.006130846139435 ], [ 56.254711977527542, 58.006175752569042 ], [ 56.25488117072068, 58.006176743321134 ], [ 56.254880237615239, 58.006221649752106 ], [ 56.255049431031388, 58.006222640281003 ], [ 56.25504849813499, 58.006267546713367 ], [ 56.255133094953166, 58.006268041894309 ], [ 56.255131229363819, 58.006357854759798 ], [ 56.255046632333809, 58.006357359577102 ], [ 56.255047565235792, 58.006312453145405 ], [ 56.254878371395982, 58.006311462613048 ], [ 56.254879304507007, 58.006266556182744 ], [ 56.254710110890215, 58.006265565427213 ], [ 56.254709177567349, 58.006310471855805 ], [ 56.254624580657229, 58.006309976392821 ], [ 56.254623647225664, 58.00635488282024 ], [ 56.254708244241705, 58.006355378284084 ], [ 56.254707310913261, 58.006400284712029 ], [ 56.254876505165555, 58.006401275472712 ], [ 56.25487370579895, 58.006535994759751 ], [ 56.254789108353656, 58.006535499404926 ], [ 56.254787241883442, 58.006625312259601 ], [ 56.254702644229106, 58.006624816846823 ], [ 56.254700777535881, 58.006714629698429 ], [ 56.254616179672496, 58.006714134227728 ], [ 56.254613379293943, 58.006848853500102 ], [ 56.254359584767279, 58.006847366742846 ], [ 56.254360518547351, 58.006802460321637 ], [ 56.254275920483309, 58.006801964624287 ], [ 56.254274986597316, 58.00684687104463 ], [ 56.254190388430146, 58.006846375290188 ], [ 56.254189454435448, 58.00689128170935 ], [ 56.253935659632965, 58.006889794106051 ], [ 56.253936593945433, 58.006844887689475 ], [ 56.253851995789454, 58.006844391710082 ], [ 56.253851061371059, 58.006889298125813 ], [ 56.253766463111958, 58.006888802089371 ], [ 56.253764594054942, 58.006978614918111 ], [ 56.253849192525884, 58.006979110956301 ], [ 56.253848258099104, 58.007024017371052 ], [ 56.253932856678766, 58.007024513353848 ], [ 56.2539319223551, 58.007069419769145 ], [ 56.254016521043489, 58.007069915696583 ], [ 56.254015586822952, 58.007114822112385 ], [ 56.254184784419948, 58.00711581380029 ], [ 56.254183850408459, 58.007160720217485 ], [ 56.254353048228488, 58.007161711682173 ], [ 56.254352114426048, 58.007206618100767 ], [ 56.254521312469102, 58.007207609342231 ], [ 56.254520378875718, 58.007252515762239 ], [ 56.254351180620816, 58.007251524519027 ], [ 56.254350246812777, 58.007296430936954 ], [ 56.254265647583601, 58.00729593523014 ], [ 56.254263779747305, 58.0073857480633 ], [ 56.254348379188329, 58.007386243771833 ], [ 56.254347445371906, 58.007431150188779 ], [ 56.254432044921657, 58.007431645841947 ], [ 56.254431111208369, 58.007476552259405 ], [ 56.254261911899818, 58.007475560895138 ], [ 56.254258176171298, 58.007655186554906 ], [ 56.254173576097514, 58.007654690784967 ], [ 56.254171708004627, 58.007744503611143 ], [ 56.254087107721787, 58.007744007783252 ], [ 56.254085239405853, 58.007833820606415 ], [ 56.254169839900548, 58.007834316436011 ], [ 56.254168905844303, 58.007879222847954 ], [ 56.253915104050854, 58.007877735187868 ], [ 56.253914169674033, 58.007922641596878 ], [ 56.253829568975881, 58.007922145596858 ], [ 56.253827700001999, 58.008011958412233 ], [ 56.253743099094791, 58.008011462354261 ], [ 56.253741229897869, 58.008101275166553 ], [ 56.253656628781592, 58.008100779050622 ], [ 56.253655694073011, 58.008145685455446 ], [ 56.2538248965202, 58.008146677632801 ], [ 56.253823027518344, 58.008236490444851 ], [ 56.253907628957997, 58.008236986450896 ], [ 56.253908563354393, 58.008192080044175 ], [ 56.253993164690918, 58.008192575993128 ], [ 56.253991296107181, 58.008282388807984 ], [ 56.25416049921234, 58.008283380540604 ], [ 56.254161433293746, 58.008238474131616 ], [ 56.25424603474459, 58.008238969912718 ], [ 56.254246968717268, 58.008194063502572 ], [ 56.254331570064984, 58.008194559226574 ], [ 56.254332503928936, 58.00814965281522 ], [ 56.254417105173509, 58.008150148482137 ], [ 56.25441803892874, 58.008105242069568 ], [ 56.254502640070179, 58.008105737679401 ], [ 56.254500772768793, 58.008195550505896 ], [ 56.254585374124886, 58.008196046061222 ], [ 56.254586307671055, 58.008151139647275 ], [ 56.25467090892402, 58.008151635145495 ], [ 56.254669042040753, 58.008241447974733 ], [ 56.254753643508373, 58.008241943418454 ], [ 56.254755510179777, 58.008152130587483 ], [ 56.254840111438334, 58.008152625973224 ], [ 56.254837311744822, 58.008287345221781 ], [ 56.254752710168475, 58.008286849833453 ], [ 56.254749910132027, 58.008421569076482 ], [ 56.254665308240682, 58.008421073629314 ], [ 56.254662507861283, 58.008555792866815 ], [ 56.254577905654941, 58.008555297360864 ], [ 56.254570437006095, 58.00891454863951 ], [ 56.254401230906865, 58.008913557445155 ], [ 56.254400297101306, 58.008958463851783 ], [ 56.254315693949948, 58.008957968169369 ], [ 56.254313826118576, 58.009047780979948 ], [ 56.254229222758148, 58.009047285239589 ], [ 56.254227354703715, 58.009137098047091 ], [ 56.254142751134211, 58.009136602248802 ], [ 56.254137146268185, 58.009406040658313 ], [ 56.254221750473313, 58.009406536461775 ], [ 56.254223618561305, 58.009316723658209 ], [ 56.254308222557356, 58.009317219403719 ], [ 56.254306354681248, 58.009407032209019 ], [ 56.254390958891968, 58.009407527900017 ], [ 56.254390025055649, 58.009452434303022 ], [ 56.254559233697364, 58.009453425518018 ], [ 56.254560167321806, 58.009408519113286 ], [ 56.254644771540917, 58.009409014635573 ], [ 56.254646638569525, 58.009319201823402 ] ], [ [ 56.254738709734696, 58.008960446018996 ], [ 56.25473777635009, 58.009005352428744 ], [ 56.254653173081607, 58.009004856970435 ], [ 56.254655040059902, 58.008915044152346 ], [ 56.254824246175907, 58.0089160350093 ], [ 56.254823312900029, 58.00896094142022 ], [ 56.254738709734696, 58.008960446018996 ] ], [ [ 56.257383730737274, 58.007898022736207 ], [ 56.25738466076826, 58.007853116291663 ], [ 56.257553861978103, 58.007854103508407 ], [ 56.257552932158973, 58.007899009954656 ], [ 56.257383730737274, 58.007898022736207 ] ], [ [ 56.257300060167516, 58.007852622598932 ], [ 56.257300990301651, 58.007807716154907 ], [ 56.257385590796467, 58.007808209846779 ], [ 56.25738466076826, 58.007853116291663 ], [ 56.257300060167516, 58.007852622598932 ] ], [ [ 56.254604978007357, 58.00725301129949 ], [ 56.254604044517095, 58.00729791772001 ], [ 56.254519445279534, 58.007297422181892 ], [ 56.254520378875718, 58.007252515762239 ], [ 56.254604978007357, 58.00725301129949 ] ], [ [ 56.253994098978595, 58.008147669585213 ], [ 56.254078700211977, 58.008148165477067 ], [ 56.254077766030242, 58.008193071885835 ], [ 56.253993164690918, 58.008192575993128 ], [ 56.253994098978595, 58.008147669585213 ] ], [ [ 56.254503573716683, 58.008060831265681 ], [ 56.254588174755, 58.0080613268184 ], [ 56.254587241214423, 58.008106233232986 ], [ 56.254502640070179, 58.008105737679401 ], [ 56.254503573716683, 58.008060831265681 ] ], [ [ 56.254309156491217, 58.009272313000579 ], [ 56.254393760384133, 58.009272808688991 ], [ 56.254392826556199, 58.00931771509299 ], [ 56.254308222557356, 58.009317219403719 ], [ 56.254309156491217, 58.009272313000579 ] ], [ [ 56.254479297999026, 58.009228397915983 ], [ 56.25439469420926, 58.00922790228465 ], [ 56.254395628031588, 58.009182995880003 ], [ 56.254480231715419, 58.00918349151047 ], [ 56.254479297999026, 58.009228397915983 ] ], [ [ 56.254651306092128, 58.00909466978721 ], [ 56.254566702614582, 58.009094174270949 ], [ 56.254567636216649, 58.009049267863588 ], [ 56.254652239588268, 58.009049763378997 ], [ 56.254651306092128, 58.00909466978721 ] ], [ [ 56.254825179448993, 58.008871128598024 ], [ 56.254740576495529, 58.008870633198534 ], [ 56.254741509871756, 58.008825726787805 ], [ 56.254826112719286, 58.008826222186443 ], [ 56.254825179448993, 58.008871128598024 ] ], [ [ 56.257216389809621, 58.007807222406797 ], [ 56.257131789320376, 58.007806728602475 ], [ 56.257132719663574, 58.007761822159857 ], [ 56.257217320046898, 58.007762315963312 ], [ 56.257216389809621, 58.007807222406797 ] ], [ [ 56.257048119283041, 58.007761328300141 ], [ 56.256963518905295, 58.0077608343842 ], [ 56.256964449457563, 58.007715927942947 ], [ 56.257049049729382, 58.007716421858028 ], [ 56.257048119283041, 58.007761328300141 ] ], [ [ 56.255452834331159, 58.007168150720091 ], [ 56.255368235383422, 58.007167655746862 ], [ 56.25537010043778, 58.007077842888094 ], [ 56.255454699173669, 58.007078337859589 ], [ 56.255452834331159, 58.007168150720091 ] ] ] } },
{ "type": "Feature", "properties": { }, "geometry": { "type": "Polygon", "coordinates": [ [ [ 56.256026392833689, 58.008069742610985 ], [ 56.256025461093905, 58.008114649040174 ], [ 56.256110062288414, 58.008115143581541 ], [ 56.256110993922263, 58.0080702371515 ], [ 56.256026392833689, 58.008069742610985 ] ] ] } },
{ "type": "Feature", "properties": { }, "geometry": { "type": "Polygon", "coordinates": [ [ [ 56.256194663485708, 58.008115638066677 ], [ 56.256193731954994, 58.008160544497294 ], [ 56.256278333261008, 58.008161038927049 ], [ 56.256279264685794, 58.008116132495594 ], [ 56.256194663485708, 58.008115638066677 ] ] ] } },
{ "type": "Feature", "properties": { }, "geometry": { "type": "Polygon", "coordinates": [ [ [ 56.2566158075091, 58.008207922518281 ], [ 56.256531206086002, 58.008207428312616 ], [ 56.256530274973429, 58.008252334745961 ], [ 56.256614876502454, 58.008252828952507 ], [ 56.2566158075091, 58.008207922518281 ] ] ] } },
{ "type": "Feature", "properties": { }, "geometry": { "type": "Polygon", "coordinates": [ [ [ 56.254416171415485, 58.008195054894358 ], [ 56.254415237654669, 58.008239961306245 ], [ 56.254499839113898, 58.008240456918642 ], [ 56.254500772768793, 58.008195550505896 ], [ 56.254416171415485, 58.008195054894358 ] ] ] } },
{ "type": "Feature", "properties": { }, "geometry": { "type": "Polygon", "coordinates": [ [ [ 56.254583507024172, 58.008285858888094 ], [ 56.254582573469627, 58.008330765301039 ], [ 56.254667175146309, 58.008331260802692 ], [ 56.254668108594927, 58.008286354388886 ], [ 56.254583507024172, 58.008285858888094 ] ] ] } },
{ "type": "Feature", "properties": { }, "geometry": { "type": "Polygon", "coordinates": [ [ [ 56.254329702328683, 58.008284372048323 ], [ 56.254328768456347, 58.008329278458682 ], [ 56.254413370124638, 58.008329774129045 ], [ 56.254414303891053, 58.008284867717812 ], [ 56.254329702328683, 58.008284372048323 ] ] ] } },
{ "type": "Feature", "properties": { }, "geometry": { "type": "Polygon", "coordinates": [ [ [ 56.257207087283689, 58.008256286823709 ], [ 56.257205226745072, 58.008346099703154 ], [ 56.25712062498468, 58.008345605888529 ], [ 56.257118764223058, 58.008435418764932 ], [ 56.25720336619532, 58.008435912581277 ], [ 56.257204296471585, 58.008391006142382 ], [ 56.257288898340697, 58.008391499901613 ], [ 56.257290758673022, 58.008301687021124 ], [ 56.257459961995878, 58.008302674367457 ], [ 56.257460891945996, 58.008257767924988 ], [ 56.257207087283689, 58.008256286823709 ] ] ] } },
{ "type": "Feature", "properties": { }, "geometry": { "type": "Polygon", "coordinates": [ [ [ 56.254497038132463, 58.008375176154935 ], [ 56.254496104466384, 58.008420082566353 ], [ 56.254580706352137, 58.008420578125971 ], [ 56.254581639912281, 58.008375671713672 ], [ 56.254497038132463, 58.008375176154935 ] ] ] } },
{ "type": "Feature", "properties": { }, "geometry": { "type": "Polygon", "coordinates": [ [ [ 56.257287968170367, 58.008436406341346 ], [ 56.257287037997237, 58.008481312780802 ], [ 56.257371640080997, 58.008481806485491 ], [ 56.257372570148192, 58.008436900045211 ], [ 56.257287968170367, 58.008436406341346 ] ] ] } },
{ "type": "Feature", "properties": { }, "geometry": { "type": "Polygon", "coordinates": [ [ [ 56.256864027620217, 58.008478843413705 ], [ 56.25686309691465, 58.008523749848514 ], [ 56.257032301268964, 58.008524737765761 ], [ 56.257033231762669, 58.008479831329247 ], [ 56.256864027620217, 58.008478843413705 ] ] ] } },
{ "type": "Feature", "properties": { }, "geometry": { "type": "Polygon", "coordinates": [ [ [ 56.257456242167542, 58.008482300133963 ], [ 56.257455312203504, 58.008527206574797 ], [ 56.25753991439877, 58.008527700167875 ], [ 56.25754084425688, 58.008482793726216 ], [ 56.257456242167542, 58.008482300133963 ] ] ] } },
{ "type": "Feature", "properties": { }, "geometry": { "type": "Polygon", "coordinates": [ [ [ 56.257032301268964, 58.008524737765761 ], [ 56.257031370772474, 58.008569644201941 ], [ 56.25711597305974, 58.00857013807709 ], [ 56.257116903450296, 58.00852523164005 ], [ 56.257032301268964, 58.008524737765761 ] ] ] } },
{ "type": "Feature", "properties": { }, "geometry": { "type": "Polygon", "coordinates": [ [ [ 56.257351177898201, 58.009469748088549 ], [ 56.257353038152331, 58.009379935222121 ], [ 56.25743764235758, 58.009380428887717 ], [ 56.257438572374539, 58.009335522453149 ], [ 56.257523176476631, 58.009336016061646 ], [ 56.257525036290311, 58.009246203189825 ], [ 56.257694244079104, 58.009247190234731 ], [ 56.257693314385534, 58.009292096672503 ], [ 56.257862522397332, 58.009293083494164 ], [ 56.257863451879032, 58.009248177054658 ], [ 56.257778847977676, 58.009247683672804 ], [ 56.257779777562526, 58.009202777233831 ], [ 56.257610569980038, 58.009201790303131 ], [ 56.257611499773979, 58.009156883865522 ], [ 56.257357688738935, 58.009155403050293 ], [ 56.257355828512658, 58.009245215920004 ], [ 56.257271224627999, 58.009244722200734 ], [ 56.257269364178704, 58.009334535067417 ], [ 56.257184760084961, 58.009334041290195 ], [ 56.257182899412641, 58.009423854153873 ], [ 56.257098295109806, 58.009423360318692 ], [ 56.257096434214468, 58.009513173179336 ], [ 56.257011829702549, 58.00951267928621 ], [ 56.257009968584178, 58.009602492143813 ], [ 56.256925363863161, 58.009601998192728 ], [ 56.2569225718469, 58.009736717474112 ], [ 56.257091781927357, 58.009737705325158 ], [ 56.257093642850563, 58.009647892467811 ], [ 56.257178247683093, 58.009648386307269 ], [ 56.257181038729179, 58.009513667016222 ], [ 56.257265643246676, 58.009514160796876 ], [ 56.257266573483861, 58.009469254365008 ], [ 56.257351177898201, 58.009469748088549 ] ] ] } },
{ "type": "Feature", "properties": { }, "geometry": { "type": "Polygon", "coordinates": [ [ [ 56.255640444610037, 58.010357991181436 ], [ 56.255641376913104, 58.010313084772122 ], [ 56.255472164172964, 58.010312094986659 ], [ 56.25547309668513, 58.01026718857873 ], [ 56.255303884168043, 58.010266198570022 ], [ 56.255304816889307, 58.010221292163465 ], [ 56.255135604595282, 58.010220301931518 ], [ 56.255136537525637, 58.010175395526375 ], [ 56.254967325454679, 58.010174405071204 ], [ 56.254968258594126, 58.010129498667432 ], [ 56.254799046746236, 58.010128507989009 ], [ 56.254799980094774, 58.010083601586643 ], [ 56.254630768469944, 58.010082610684996 ], [ 56.254631702027581, 58.010037704284002 ], [ 56.254462490625819, 58.010036713159117 ], [ 56.25446342439254, 58.009991806759523 ], [ 56.254294213213839, 58.009990815411399 ], [ 56.254295147189652, 58.009945909013204 ], [ 56.254125936234033, 58.009944917441864 ], [ 56.254126870418929, 58.009900011045026 ], [ 56.254042265051254, 58.009899515175853 ], [ 56.254040396466777, 58.009989327967453 ], [ 56.253955790890018, 58.009988832040314 ], [ 56.253954856487645, 58.010033738434757 ], [ 56.254124067855848, 58.010034730234501 ], [ 56.254123133662553, 58.010079636630358 ], [ 56.254292345253837, 58.010080628206843 ], [ 56.254291411269634, 58.010125534604086 ], [ 56.254460623083986, 58.01012652595734 ], [ 56.254459689308874, 58.010171432355961 ], [ 56.254628901346294, 58.010172423485983 ], [ 56.254627967780273, 58.010217329885997 ], [ 56.254797180040768, 58.010218320792809 ], [ 56.254796246683838, 58.010263227194194 ], [ 56.254965459167401, 58.010264217877761 ], [ 56.25496452601957, 58.010309124280546 ], [ 56.255133738726194, 58.010310114740861 ], [ 56.255132805787461, 58.010355021145052 ], [ 56.255302018717146, 58.010356011382136 ], [ 56.255301085987504, 58.010400917787713 ], [ 56.255470299140256, 58.01040190780158 ], [ 56.255469366619714, 58.010446814208528 ], [ 56.255638579995527, 58.010447803999142 ], [ 56.255637647684082, 58.010492710407476 ], [ 56.255806861282956, 58.010493699974838 ], [ 56.255805929180617, 58.010538606384586 ], [ 56.255975143002544, 58.010539595728716 ], [ 56.255974211109304, 58.010584502139828 ], [ 56.256058818130398, 58.010584996728397 ], [ 56.256061613483908, 58.010450277491465 ], [ 56.255977006780654, 58.010449782905482 ], [ 56.255977938665517, 58.010404876493375 ], [ 56.255808725479262, 58.010403887154389 ], [ 56.255809657573238, 58.010358980743675 ], [ 56.255640444610037, 58.010357991181436 ] ] ] } },
{ "type": "Feature", "properties": { }, "geometry": { "type": "Polygon", "coordinates": [ [ [ 56.255971415412844, 58.010719221371225 ], [ 56.255970483508442, 58.010764127781023 ], [ 56.255885876066351, 58.010763633132775 ], [ 56.255884944053207, 58.010808539541387 ], [ 56.255969551601254, 58.010809034190487 ], [ 56.255968619691266, 58.010853940599652 ], [ 56.256053227348048, 58.010854435193359 ], [ 56.256054159152086, 58.010809528783355 ], [ 56.25630798182133, 58.010811012224444 ], [ 56.256310776263156, 58.010676292984755 ], [ 56.256141561783224, 58.010675304085396 ], [ 56.256140630093512, 58.010720210497254 ], [ 56.255971415412844, 58.010719221371225 ] ] ] } },
{ "type": "Feature", "properties": { }, "geometry": { "type": "Polygon", "coordinates": [ [ [ 56.256307050335138, 58.010855918637063 ], [ 56.256306118846162, 58.010900825049298 ], [ 56.256390726620047, 58.010901319418913 ], [ 56.256391658003082, 58.010856413005797 ], [ 56.256307050335138, 58.010855918637063 ] ] ] } },
{ "type": "Feature", "properties": { }, "geometry": { "type": "Polygon", "coordinates": [ [ [ 56.258022396828366, 58.005656154086914 ], [ 56.258106992261304, 58.005656647287843 ], [ 56.258107921305772, 58.005611740820001 ], [ 56.258192516635582, 58.005612233963852 ], [ 56.258193445571365, 58.00556732749483 ], [ 56.258278040798039, 58.005567820581589 ], [ 56.258278969625124, 58.005522914111395 ], [ 56.258363564748677, 58.005523407141077 ], [ 56.258364493467063, 58.005478500669696 ], [ 56.258449088487481, 58.005478993642278 ], [ 56.258450017097189, 58.005434087169697 ], [ 56.258534612014472, 58.0054345800852 ], [ 56.258535540515489, 58.005389673611461 ], [ 56.258620135329643, 58.005390166469873 ], [ 56.25861920693454, 58.005435072944479 ], [ 56.258788396783011, 58.005436058494354 ], [ 56.25878746859695, 58.005480964970339 ], [ 56.25895665866836, 58.005481950297003 ], [ 56.258955730691341, 58.005526856774345 ], [ 56.25904032583712, 58.005527349354203 ], [ 56.259039397963235, 58.005572255832092 ], [ 56.259208588474955, 58.005573240824816 ], [ 56.259207660810119, 58.005618147304077 ], [ 56.259376851544772, 58.005619132073576 ], [ 56.259375924088985, 58.005664038554222 ], [ 56.259629710529524, 58.005665515289323 ], [ 56.259628783388692, 58.0057104217722 ], [ 56.259797974574759, 58.005711405982808 ], [ 56.259797047642977, 58.005756312467085 ], [ 56.259966239051977, 58.005757296454512 ], [ 56.259969019203517, 58.005622576995606 ], [ 56.259799828429998, 58.005621593013316 ], [ 56.25980075535346, 58.005576686528052 ], [ 56.259546969531726, 58.005575210135468 ], [ 56.259547896770144, 58.005530303652442 ], [ 56.259378706448025, 58.005529319111282 ], [ 56.259379633895492, 58.005484412629656 ], [ 56.259210443796306, 58.005483427865286 ], [ 56.259211371452814, 58.005438521385031 ], [ 56.259126776513298, 58.005438028919329 ], [ 56.259127704272935, 58.005393122439607 ], [ 56.258958514614051, 58.005392137341275 ], [ 56.258959442582736, 58.005347230862931 ], [ 56.258790253146799, 58.005346245541389 ], [ 56.258791181324519, 58.005301339064431 ], [ 56.258621992111507, 58.005300353519701 ], [ 56.258622920498276, 58.005255447044078 ], [ 56.258453731508204, 58.005254461276152 ], [ 56.258454660104, 58.00520955480193 ], [ 56.258370065719049, 58.005209061834492 ], [ 56.258374709185908, 58.004984529462781 ], [ 56.258290115333267, 58.004984036443375 ], [ 56.258288257743054, 58.005073849391323 ], [ 56.258203663681385, 58.005073356313979 ], [ 56.258199019127638, 58.005297888673859 ], [ 56.258114424539201, 58.005297395536019 ], [ 56.258112566486417, 58.005387208475916 ], [ 56.258027971688946, 58.005386715280153 ], [ 56.258025184271176, 58.005521434685001 ], [ 56.25794058915875, 58.005520941430419 ], [ 56.257938730654509, 58.005610754363644 ], [ 56.257854135333048, 58.005610261051125 ], [ 56.257852276605838, 58.005700073981302 ], [ 56.257767681075343, 58.005699580610838 ], [ 56.257765822125187, 58.005789393538031 ], [ 56.257850417867509, 58.005789886910186 ], [ 56.257851347238066, 58.005744980445925 ], [ 56.257935942877268, 58.005745473761024 ], [ 56.257936872139126, 58.005700567295548 ], [ 56.258021467675199, 58.005701060553555 ], [ 56.258022396828366, 58.005656154086914 ] ] ] } },
{ "type": "Feature", "properties": { }, "geometry": { "type": "Polygon", "coordinates": [ [ [ 56.257805804808257, 58.007945396809077 ], [ 56.25797500646965, 58.007946383466908 ], [ 56.257975935761927, 58.007901477016702 ], [ 56.257806734312396, 58.007900490360591 ], [ 56.257805804808257, 58.007945396809077 ] ] ] } },
{ "type": "Feature", "properties": { }, "geometry": { "type": "Polygon", "coordinates": [ [ [ 56.258144208142163, 58.00794736989981 ], [ 56.25797500646965, 58.007946383466908 ], [ 56.257974077174595, 58.007991289916809 ], [ 56.258143279058963, 58.007992276351402 ], [ 56.258144208142163, 58.00794736989981 ] ] ] } },
{ "type": "Feature", "properties": { }, "geometry": { "type": "Polygon", "coordinates": [ [ [ 56.258143279058963, 58.007992276351402 ], [ 56.258142349972985, 58.008037182802674 ], [ 56.258226951025271, 58.008037675936485 ], [ 56.258227880005329, 58.00799276948436 ], [ 56.258143279058963, 58.007992276351402 ] ] ] } },
{ "type": "Feature", "properties": { }, "geometry": { "type": "Polygon", "coordinates": [ [ [ 56.257803945791643, 58.008035209705113 ], [ 56.257803016279162, 58.008080116152634 ], [ 56.257887617426249, 58.008080609512234 ], [ 56.257888546832802, 58.008035703063861 ], [ 56.257803945791643, 58.008035209705113 ] ] ] } },
{ "type": "Feature", "properties": { }, "geometry": { "type": "Polygon", "coordinates": [ [ [ 56.258649027875244, 58.00808504721806 ], [ 56.258648099419268, 58.008129953673802 ], [ 56.258732700700108, 58.008130446471903 ], [ 56.258733629050148, 58.008085540015301 ], [ 56.258649027875244, 58.00808504721806 ] ] ] } },
{ "type": "Feature", "properties": { }, "geometry": { "type": "Polygon", "coordinates": [ [ [ 56.257887617426249, 58.008080609512234 ], [ 56.25788668801691, 58.008125515960259 ], [ 56.257971289272717, 58.008126009264494 ], [ 56.257972218576121, 58.008081102815588 ], [ 56.257887617426249, 58.008080609512234 ] ] ] } },
{ "type": "Feature", "properties": { }, "geometry": { "type": "Polygon", "coordinates": [ [ [ 56.258901903270107, 58.008131431899422 ], [ 56.258817301983719, 58.008130939213778 ], [ 56.258816373736828, 58.008175845670934 ], [ 56.258900975129151, 58.008176338357423 ], [ 56.258901903270107, 58.008131431899422 ] ] ] } },
{ "type": "Feature", "properties": { }, "geometry": { "type": "Polygon", "coordinates": [ [ [ 56.25771190772803, 58.008393967854239 ], [ 56.257710978087353, 58.008438874298285 ], [ 56.257795580079097, 58.008439367720953 ], [ 56.257796509613854, 58.008394461276076 ], [ 56.25771190772803, 58.008393967854239 ] ] ] } },
{ "type": "Feature", "properties": { }, "geometry": { "type": "Polygon", "coordinates": [ [ [ 56.257880182073635, 58.008439861087389 ], [ 56.257879252642034, 58.008484767532821 ], [ 56.257963854745284, 58.008485260843884 ], [ 56.25796478407095, 58.008440354397599 ], [ 56.257880182073635, 58.008439861087389 ] ] ] } },
{ "type": "Feature", "properties": { }, "geometry": { "type": "Polygon", "coordinates": [ [ [ 56.258048456851313, 58.008485754098707 ], [ 56.25804752762879, 58.008530660545517 ], [ 56.258301334281377, 58.008532139975173 ], [ 56.258300405373873, 58.008577046424193 ], [ 56.258385007702898, 58.008577539455793 ], [ 56.258388722892491, 58.008397913654242 ], [ 56.258473324800562, 58.008398406626199 ], [ 56.258474253485083, 58.008353500174138 ], [ 56.258220448086995, 58.008352021092172 ], [ 56.258217661071726, 58.008486740439665 ], [ 56.258048456851313, 58.008485754098707 ] ] ] } },
{ "type": "Feature", "properties": { }, "geometry": { "type": "Polygon", "coordinates": [ [ [ 56.257624516596813, 58.008528193704734 ], [ 56.257623586841845, 58.008573100146926 ], [ 56.257708189148609, 58.008573593628419 ], [ 56.257709118797642, 58.008528687185361 ], [ 56.257624516596813, 58.008528193704734 ] ] ] } },
{ "type": "Feature", "properties": { }, "geometry": { "type": "Polygon", "coordinates": [ [ [ 56.257792791458151, 58.008574087053653 ], [ 56.257791861912274, 58.008618993497215 ], [ 56.257876464330536, 58.008619486867111 ], [ 56.257877393770485, 58.008574580422668 ], [ 56.257792791458151, 58.008574087053653 ] ] ] } },
{ "type": "Feature", "properties": { }, "geometry": { "type": "Polygon", "coordinates": [ [ [ 56.257961066751584, 58.008619980180733 ], [ 56.257960137414784, 58.008664886625688 ], [ 56.258044739944545, 58.008665379883944 ], [ 56.258045669175409, 58.008620473438128 ], [ 56.257961066751584, 58.008619980180733 ] ] ] } },
{ "type": "Feature", "properties": { }, "geometry": { "type": "Polygon", "coordinates": [ [ [ 56.263026141143371, 58.009188354019564 ], [ 56.263110745004809, 58.009188843913037 ], [ 56.263113513712263, 58.009054124431955 ], [ 56.263198117258653, 58.009054614266624 ], [ 56.263199962837938, 58.008964801275901 ], [ 56.263284566175216, 58.008965291052647 ], [ 56.263287334205607, 58.008830571561525 ], [ 56.263541143280598, 58.008832040546686 ], [ 56.263542987984778, 58.008742227545859 ], [ 56.263627590803424, 58.008742717093426 ], [ 56.263629435284678, 58.00865290408958 ], [ 56.263714037894225, 58.008653393579209 ], [ 56.263717726399875, 58.008473767564197 ], [ 56.263802328588447, 58.008474256994191 ], [ 56.263804172612836, 58.008384443983033 ], [ 56.26388877459231, 58.008384933355082 ], [ 56.263891540290402, 58.008250213833328 ], [ 56.263637735313658, 58.008248745556109 ], [ 56.263635890882099, 58.008338558565853 ], [ 56.263551289016846, 58.008338069025946 ], [ 56.26354944436239, 58.008427882032677 ], [ 56.26346484228803, 58.008427392434847 ], [ 56.263462997410656, 58.008517205438544 ], [ 56.263378395127198, 58.008516715782775 ], [ 56.263376550026905, 58.008606528783474 ], [ 56.263291947534341, 58.008606039069754 ], [ 56.263290102211137, 58.008695852067454 ], [ 56.263205499509468, 58.008695362295811 ], [ 56.263203653963345, 58.008785175290491 ], [ 56.26311905105257, 58.00878468546091 ], [ 56.263117205283521, 58.008874498452563 ], [ 56.263032602163641, 58.008874008565058 ], [ 56.263030756171666, 58.008963821553699 ], [ 56.262946152842673, 58.008963331608257 ], [ 56.26294430662778, 58.009053144593878 ], [ 56.262859703089681, 58.009052654590491 ], [ 56.262857856651848, 58.00914246757312 ], [ 56.262773252904644, 58.009141977511781 ], [ 56.262771406243878, 58.009231790491398 ], [ 56.262686802287568, 58.00923130037215 ], [ 56.262685878847094, 58.009276206860598 ], [ 56.262855086974376, 58.009277187044574 ], [ 56.262854163743022, 58.009322093534422 ], [ 56.263023372093222, 58.00932307349516 ], [ 56.263024295112707, 58.0092781670036 ], [ 56.262939691042156, 58.009277677052225 ], [ 56.262940614164812, 58.009232770561212 ], [ 56.263025218129421, 58.009233260511778 ], [ 56.263026141143371, 58.009188354019564 ] ] ] } },
{ "type": "Feature", "properties": { }, "geometry": { "type": "Polygon", "coordinates": [ [ [ 56.261762631113605, 58.008911559985748 ], [ 56.26176448027811, 58.008821747021976 ], [ 56.261849083250567, 58.008822237752177 ], [ 56.261852781122613, 58.008642611817251 ], [ 56.261768178573895, 58.00864212109046 ], [ 56.261769103140921, 58.008597214606745 ], [ 56.261684500700902, 58.008596723824567 ], [ 56.261682651352217, 58.008686536789924 ], [ 56.2615980487031, 58.008686045949815 ], [ 56.261596199131468, 58.008775858912173 ], [ 56.261511596273252, 58.008775368014128 ], [ 56.261509746478673, 58.008865180973451 ], [ 56.261425143411358, 58.008864690017447 ], [ 56.26142329339384, 58.008954502973758 ], [ 56.26133869011742, 58.008954011959815 ], [ 56.261336839876947, 58.0090438249131 ], [ 56.261252236391428, 58.00904333384122 ], [ 56.261250385928001, 58.009133146791513 ], [ 56.261504197028493, 58.00913461984355 ], [ 56.261505121943777, 58.009089713366031 ], [ 56.261589725543544, 58.009090204270038 ], [ 56.261591575153936, 58.009000391312291 ], [ 56.261676178544604, 58.009000882158375 ], [ 56.261678027932049, 58.008911069197609 ], [ 56.261762631113605, 58.008911559985748 ] ] ] } },
{ "type": "Feature", "properties": { }, "geometry": { "type": "Polygon", "coordinates": [ [ [ 56.259221753570806, 58.009031531245192 ], [ 56.25922268134083, 58.008986624790047 ], [ 56.259138078030603, 58.008986132313126 ], [ 56.259139005903791, 58.008941225858479 ], [ 56.259054402702276, 58.008940733326178 ], [ 56.259052546741259, 58.009030546233383 ], [ 56.259221753570806, 58.009031531245192 ] ] ] } },
{ "type": "Feature", "properties": { }, "geometry": { "type": "Polygon", "coordinates": [ [ [ 56.263023372093222, 58.00932307349516 ], [ 56.263022449070981, 58.009367979986358 ], [ 56.263107053356173, 58.009368469883199 ], [ 56.263107976272472, 58.009323563391163 ], [ 56.263023372093222, 58.00932307349516 ] ] ] } },
{ "type": "Feature", "properties": { }, "geometry": { "type": "Polygon", "coordinates": [ [ [ 56.258625815641913, 58.009207708513124 ], [ 56.25862488711644, 58.009252614960666 ], [ 56.258540283190044, 58.009252122084945 ], [ 56.258536568636586, 58.009431747868355 ], [ 56.258451964289229, 58.009431254932991 ], [ 56.258451035537966, 58.009476161377165 ], [ 56.258535639991273, 58.009476654313396 ], [ 56.258534711343174, 58.00952156075811 ], [ 56.2586193159052, 58.009522053638946 ], [ 56.258621172986736, 58.009432240747508 ], [ 56.258705777339664, 58.009432733570407 ], [ 56.258707634198196, 58.009342920675927 ], [ 56.258792238342025, 58.009343413440867 ], [ 56.258795023291171, 58.009208694094141 ], [ 56.258625815641913, 58.009207708513124 ] ] ] } },
{ "type": "Feature", "properties": { }, "geometry": { "type": "Polygon", "coordinates": [ [ [ 56.263191657644128, 58.009368959723837 ], [ 56.263190734830999, 58.00941386621642 ], [ 56.263275339227654, 58.009414356001663 ], [ 56.263276261934841, 58.009369449508227 ], [ 56.263191657644128, 58.009368959723837 ] ] ] } },
{ "type": "Feature", "properties": { }, "geometry": { "type": "Polygon", "coordinates": [ [ [ 56.263443625531174, 58.009460241898211 ], [ 56.263444548029248, 58.009415335403418 ], [ 56.263359943627066, 58.00941484573066 ], [ 56.263359021023057, 58.009459752224593 ], [ 56.263274416517696, 58.009459262494744 ], [ 56.263272571089516, 58.009549075479946 ], [ 56.263187966375042, 58.009548585692158 ], [ 56.263187043550857, 58.009593492183434 ], [ 56.263356253194445, 58.009594471704467 ], [ 56.263353485340971, 58.009729191181364 ], [ 56.263691905932596, 58.009731149558775 ], [ 56.263692828129415, 58.009686243063406 ], [ 56.26360822308331, 58.009685753554258 ], [ 56.263611912266747, 58.009506127572884 ], [ 56.263527307647159, 58.009505638010907 ], [ 56.263528230042056, 58.009460731515603 ], [ 56.263443625531174, 58.009460241898211 ] ] ] } },
{ "type": "Feature", "properties": { }, "geometry": { "type": "Polygon", "coordinates": [ [ [ 56.25904233875702, 58.009524517199623 ], [ 56.259126943335723, 58.009525009743065 ], [ 56.259126015426418, 58.009569916193421 ], [ 56.259295224804042, 58.009570901113271 ], [ 56.259294297103843, 58.009615807565005 ], [ 56.259378901902757, 58.00961629994142 ], [ 56.259377046705907, 58.009706112845635 ], [ 56.259292441695109, 58.0097056204675 ], [ 56.259291513986582, 58.009750526918253 ], [ 56.259376119103322, 58.009751019297227 ], [ 56.259375191497952, 58.009795925748499 ], [ 56.259459796723405, 58.009796418072106 ], [ 56.259466289161075, 58.009482072900276 ], [ 56.259297080196099, 58.009481088208794 ], [ 56.259298007887971, 58.00943618175608 ], [ 56.259044194779165, 58.009434704299629 ], [ 56.25904233875702, 58.009524517199623 ] ] ] } },
{ "type": "Feature", "properties": { }, "geometry": { "type": "Polygon", "coordinates": [ [ [ 56.260649826227166, 58.009533865908111 ], [ 56.260650752226773, 58.009488959442045 ], [ 56.260481543184099, 58.009487976325204 ], [ 56.260479690758338, 58.009577789253591 ], [ 56.260395086029277, 58.00957729760912 ], [ 56.260393233380555, 58.009667110534465 ], [ 56.260477838321499, 58.009667602180635 ], [ 56.260476912098909, 58.009712508643652 ], [ 56.260561517148567, 58.009713000234463 ], [ 56.260562443265215, 58.009668093770578 ], [ 56.260647048211695, 58.00966858530429 ], [ 56.260645196187518, 58.009758398233423 ], [ 56.260814406512573, 58.009759381135552 ], [ 56.260817183909033, 58.009624661736211 ], [ 56.260647974219623, 58.009623678839226 ], [ 56.26064890022478, 58.009578772373828 ], [ 56.260733504962161, 58.009579263849602 ], [ 56.260734430858598, 58.009534357383018 ], [ 56.260649826227166, 58.009533865908111 ] ] ] } },
{ "type": "Feature", "properties": { }, "geometry": { "type": "Polygon", "coordinates": [ [ [ 56.258868488444563, 58.009748064179767 ], [ 56.258866631959755, 58.009837877071739 ], [ 56.259120447912274, 58.009839354888662 ], [ 56.259122303761437, 58.00974954199156 ], [ 56.259037698653032, 58.009749049443862 ], [ 56.259038626679391, 58.009704142995666 ], [ 56.258954021679706, 58.009703650392595 ], [ 56.258953093547412, 58.009748556839938 ], [ 56.258868488444563, 58.009748064179767 ] ] ] } },
{ "type": "Feature", "properties": { }, "geometry": { "type": "Polygon", "coordinates": [ [ [ 56.260129225311957, 58.01015960629622 ], [ 56.260127371955441, 58.010249419207895 ], [ 56.260042765648343, 58.010248927325684 ], [ 56.260041838859983, 58.010293833780175 ], [ 56.259957232449715, 58.010293341840857 ], [ 56.259956305552627, 58.010338248294168 ], [ 56.259871699039195, 58.010337756297751 ], [ 56.259870772033388, 58.01038266274989 ], [ 56.259955378652769, 58.010383154747146 ], [ 56.25995445175014, 58.010428061199832 ], [ 56.260123665209122, 58.010429045027351 ], [ 56.260125518587827, 58.010339232118291 ], [ 56.260294731634126, 58.010340215717434 ], [ 56.260297511045714, 58.010205496346273 ], [ 56.260212904839015, 58.010205004577365 ], [ 56.260213831409942, 58.010160098120522 ], [ 56.260129225311957, 58.01015960629622 ] ] ] } },
{ "type": "Feature", "properties": { }, "geometry": { "type": "Polygon", "coordinates": [ [ [ 56.261721021984478, 58.010932351323525 ], [ 56.26172287139817, 58.010842538389312 ], [ 56.261807479138014, 58.010843029157819 ], [ 56.261808403734754, 58.010798122689366 ], [ 56.26172379610086, 58.010797631921704 ], [ 56.261724720800778, 58.010752725453784 ], [ 56.261555505753186, 58.010751743751435 ], [ 56.261552731009424, 58.010886463149141 ], [ 56.261298907505271, 58.010884990166147 ], [ 56.261297982267301, 58.010929896628824 ], [ 56.261382590205194, 58.010930387680233 ], [ 56.261381665070395, 58.010975294143449 ], [ 56.261297057026553, 58.01097480309118 ], [ 56.261296131783034, 58.011019709553224 ], [ 56.261465348085395, 58.011020691603235 ], [ 56.261466273117009, 58.010975785139479 ], [ 56.2615508811664, 58.010976276079269 ], [ 56.261549956240735, 58.011021182543885 ], [ 56.261803780723362, 58.01102265502837 ], [ 56.261805629936227, 58.010932842093737 ], [ 56.261721021984478, 58.010932351323525 ] ] ] } },
{ "type": "Feature", "properties": { }, "geometry": { "type": "Polygon", "coordinates": [ [ [ 56.262219428858977, 58.011384359803692 ], [ 56.262221277056611, 58.011294546865841 ], [ 56.261967450625335, 58.011293075209636 ], [ 56.26196837503786, 58.011248168742767 ], [ 56.261883766338919, 58.01124767807908 ], [ 56.261884690854629, 58.01120277161273 ], [ 56.261800082264415, 58.011202280893635 ], [ 56.261799157642756, 58.011247187359125 ], [ 56.26171454894935, 58.011246696582958 ], [ 56.26171269948582, 58.011336509511267 ], [ 56.261628090583287, 58.011336018677142 ], [ 56.261626240896774, 58.011425831602423 ], [ 56.2615416317851, 58.01142534071036 ], [ 56.261540706831738, 58.011470247171673 ], [ 56.261794534492928, 58.011471719681694 ], [ 56.261793609854649, 58.011516626145237 ], [ 56.261878219186542, 58.011517116870266 ], [ 56.26188099277519, 58.011382397476154 ], [ 56.261965601791985, 58.0113828881424 ], [ 56.261966526210045, 58.011337981676192 ], [ 56.262135744040037, 58.011338962838266 ], [ 56.262134819833882, 58.011383869306179 ], [ 56.262219428858977, 58.011384359803692 ] ] ] } },
{ "type": "Feature", "properties": { }, "geometry": { "type": "Polygon", "coordinates": [ [ [ 56.275429566188208, 58.015098103952766 ], [ 56.275428658499877, 58.015143010527034 ], [ 56.275513276647615, 58.015143492206853 ], [ 56.275515091809602, 58.015053679056358 ], [ 56.275345855940763, 58.01505271564379 ], [ 56.275346763729637, 58.015007809069701 ], [ 56.275262145905273, 58.015007327279875 ], [ 56.275260330112836, 58.015097140426036 ], [ 56.275429566188208, 58.015098103952766 ] ] ] } }
]
}
