{
"type": "FeatureCollection",
"name": "visible",
"crs": { "type": "name", "properties": { "name": "urn:ogc:def:crs:OGC:1.3:CRS84" } },
"features": [
{ "type": "Feature", "properties": { }, "geometry": { "type": "Polygon", "coordinates": [ [ [ 56.237291666666671, 58.000416666666673 ], [ 56.237291666666671, 58.000694444444449 ], [ 56.237708333333337, 58.000694444444449 ], [ 56.237708333333337, 58.000416666666673 ], [ 56.237291666666671, 58.000416666666673 ] ] ] } },
{ "type": "Feature", "properties": { }, "geometry": { "type": "Polygon", "coordinates": [ [ [ 56.243541666666665, 58.000416666666673 ], [ 56.243541666666665, 58.000694444444449 ], [ 56.243958333333332, 58.000694444444449 ], [ 56.243958333333332, 58.000416666666673 ], [ 56.243541666666665, 58.000416666666673 ] ] ] } },
{ "type": "Feature", "properties": { }, "geometry": { "type": "Polygon", "coordinates": [ [ [ 56.237291666666671, 58.000972222222224 ], [ 56.237291666666671, 58.00125 ], [ 56.238125, 58.00125 ], [ 56.238125, 58.000972222222224 ], [ 56.237291666666671, 58.000972222222224 ] ] ] } },
{ "type": "Feature", "properties": { }, "geometry": { "type": "Polygon", "coordinates": [ [ [ 56.241875, 58.000972222222224 ], [ 56.241458333333334, 58.000972222222224 ], [ 56.241458333333334, 58.001527777777781 ], [ 56.241875, 58.001527777777781 ], [ 56.241875, 58.001805555555556 ], [ 56.242291666666667, 58.001805555555556 ], [ 56.242291666666667, 58.00125 ], [ 56.241875, 58.00125 ], [ 56.241875, 58.000972222222224 ] ] ] } },
{ "type": "Feature", "properties": { }, "geometry": { "type": "Polygon", "coordinates": [ [ [ 56.240625, 58.002916666666671 ], [ 56.241041666666668, 58.002916666666671 ], [ 56.241041666666668, 58.002638888888896 ], [ 56.240625, 58.002638888888896 ], [ 56.240625, 58.002916666666671 ] ] ] } },
{ "type": "Feature", "properties": { }, "geometry": { "type": "Polygon", "coordinates": [ [ [ 56.240208333333335, 58.002916666666671 ], [ 56.240208333333335, 58.003194444444446 ], [ 56.240625, 58.003194444444446 ], [ 56.240625, 58.002916666666671 ], [ 56.240208333333335, 58.002916666666671 ] ] ] } },
{ "type": "Feature", "properties": { }, "geometry": { "type": "Polygon", "coordinates": [ [ [ 56.251458333333332, 58.000416666666673 ], [ 56.251875, 58.000416666666673 ], [ 56.251875, 58.000138888888891 ], [ 56.251458333333332, 58.000138888888891 ], [ 56.251458333333332, 58.000416666666673 ] ] ] } },
{ "type": "Feature", "properties": { }, "geometry": { "type": "Polygon", "coordinates": [ [ [ 56.243958333333332, 58.000972222222224 ], [ 56.244375, 58.000972222222224 ], [ 56.244375, 58.000694444444449 ], [ 56.243958333333332, 58.000694444444449 ], [ 56.243958333333332, 58.000972222222224 ] ] ] } },
{ "type": "Feature", "properties": { }, "geometry": { "type": "Polygon", "coordinates": [ [ [ 56.245208333333338, 58.00125 ], [ 56.245208333333338, 58.001805555555556 ], [ 56.245625, 58.001805555555556 ], [ 56.245625, 58.00125 ], [ 56.245208333333338, 58.00125 ] ] ] } },
{ "type": "Feature", "properties": { }, "geometry": { "type": "Polygon", "coordinates": [ [ [ 56.248958333333334, 58.017916666666672 ], [ 56.249791666666667, 58.017916666666672 ], [ 56.249791666666667, 58.017638888888889 ], [ 56.250208333333333, 58.017638888888889 ], [ 56.250208333333333, 58.017916666666672 ], [ 56.251041666666666, 58.017916666666672 ], [ 56.251041666666666, 58.018472222222229 ], [ 56.251458333333332, 58.018472222222229 ], [ 56.251458333333332, 58.017916666666672 ], [ 56.252708333333338, 58.017916666666672 ], [ 56.252708333333338, 58.017638888888889 ], [ 56.253125, 58.017638888888889 ], [ 56.253125, 58.017361111111114 ], [ 56.253541666666671, 58.017361111111114 ], [ 56.253541666666671, 58.017083333333339 ], [ 56.253958333333337, 58.017083333333339 ], [ 56.253958333333337, 58.016805555555557 ], [ 56.254375, 58.016805555555557 ], [ 56.254375, 58.016527777777782 ], [ 56.254791666666669, 58.016527777777782 ], [ 56.254791666666669, 58.01625 ], [ 56.255208333333336, 58.01625 ], [ 56.255208333333336, 58.015972222222224 ], [ 56.255625, 58.015972222222224 ], [ 56.255625, 58.015694444444449 ], [ 56.256041666666668, 58.015694444444449 ], [ 56.256041666666668, 58.015416666666674 ], [ 56.256458333333335, 58.015416666666674 ], [ 56.256458333333335, 58.014861111111117 ], [ 56.256875, 58.014861111111117 ], [ 56.256875, 58.014583333333334 ], [ 56.257291666666667, 58.014583333333334 ], [ 56.257291666666667, 58.014027777777784 ], [ 56.257708333333333, 58.014027777777784 ], [ 56.257708333333333, 58.01375 ], [ 56.258125, 58.01375 ], [ 56.258125, 58.013194444444451 ], [ 56.258541666666666, 58.013194444444451 ], [ 56.258541666666666, 58.012638888888894 ], [ 56.258958333333332, 58.012638888888894 ], [ 56.258958333333332, 58.011805555555561 ], [ 56.259375, 58.011805555555561 ], [ 56.259375, 58.010972222222229 ], [ 56.259791666666665, 58.010972222222229 ], [ 56.259791666666665, 58.009583333333339 ], [ 56.260208333333338, 58.009583333333339 ], [ 56.260208333333338, 58.006805555555559 ], [ 56.259791666666665, 58.006805555555559 ], [ 56.259791666666665, 58.005416666666669 ], [ 56.259375, 58.005416666666669 ], [ 56.259375, 58.004583333333336 ], [ 56.258958333333332, 58.004583333333336 ], [ 56.258958333333332, 58.00375 ], [ 56.258541666666666, 58.00375 ], [ 56.258541666666666, 58.003194444444446 ], [ 56.258125, 58.003194444444446 ], [ 56.258125, 58.002638888888896 ], [ 56.257708333333333, 58.002638888888896 ], [ 56.257708333333333, 58.002361111111114 ], [ 56.257291666666667, 58.002361111111114 ], [ 56.257291666666667, 58.001805555555556 ], [ 56.256875, 58.001805555555556 ], [ 56.256875, 58.001527777777781 ], [ 56.256458333333335, 58.001527777777781 ], [ 56.256458333333335, 58.000972222222224 ], [ 56.256041666666668, 58.000972222222224 ], [ 56.256041666666668, 58.000694444444449 ], [ 56.255625, 58.000694444444449 ], [ 56.255625, 58.000416666666673 ], [ 56.255208333333336, 58.000416666666673 ], [ 56.255208333333336, 58.000138888888891 ], [ 56.253541666666671, 58.000138888888891 ], [ 56.253541666666671, 58.000416666666673 ], [ 56.251875, 58.000416666666673 ], [ 56.251875, 58.000694444444449 ], [ 56.249791666666667, 58.000694444444449 ], [ 56.249791666666667, 58.000972222222224 ], [ 56.248958333333334, 58.000972222222224 ], [ 56.248958333333334, 58.00125 ], [ 56.248541666666668, 58.00125 ], [ 56.248541666666668, 58.001527777777781 ], [ 56.247708333333335, 58.001527777777781 ], [ 56.247708333333335, 58.001805555555556 ], [ 56.247291666666669, 58.001805555555556 ], [ 56.247291666666669, 58.001527777777781 ], [ 56.246875, 58.001527777777781 ], [ 56.246875, 58.001805555555556 ], [ 56.246458333333337, 58.001805555555556 ], [ 56.246458333333337, 58.002083333333339 ], [ 56.245625, 58.002083333333339 ], [ 56.245625, 58.002361111111114 ], [ 56.244375, 58.002361111111114 ], [ 56.244375, 58.002916666666671 ], [ 56.243541666666665, 58.002916666666671 ], [ 56.243541666666665, 58.003194444444446 ], [ 56.242708333333333, 58.003194444444446 ], [ 56.242708333333333, 58.003472222222229 ], [ 56.241875, 58.003472222222229 ], [ 56.241875, 58.00375 ], [ 56.241458333333334, 58.00375 ], [ 56.241458333333334, 58.004027777777779 ], [ 56.240625, 58.004027777777779 ], [ 56.240625, 58.003472222222229 ], [ 56.240208333333335, 58.003472222222229 ], [ 56.240208333333335, 58.003194444444446 ], [ 56.239791666666669, 58.003194444444446 ], [ 56.239791666666669, 58.002916666666671 ], [ 56.239375, 58.002916666666671 ], [ 56.239375, 58.002638888888896 ], [ 56.238958333333336, 58.002638888888896 ], [ 56.238958333333336, 58.002361111111114 ], [ 56.23854166666667, 58.002361111111114 ], [ 56.23854166666667, 58.002638888888896 ], [ 56.238125, 58.002638888888896 ], [ 56.238125, 58.002083333333339 ], [ 56.237708333333337, 58.002083333333339 ], [ 56.237708333333337, 58.001805555555556 ], [ 56.237291666666671, 58.001805555555556 ], [ 56.237291666666671, 58.001527777777781 ], [ 56.236458333333331, 58.001527777777781 ], [ 56.236458333333331, 58.00125 ], [ 56.236041666666665, 58.00125 ], [ 56.236041666666665, 58.000694444444449 ], [ 56.235208333333333, 58.000694444444449 ], [ 56.235208333333333, 58.000416666666673 ], [ 56.234791666666666, 58.000416666666673 ], [ 56.234791666666666, 58.000138888888891 ], [ 56.234375, 58.000138888888891 ], [ 56.234375, 58.000416666666673 ], [ 56.233958333333334, 58.000416666666673 ], [ 56.233958333333334, 58.000694444444449 ], [ 56.233541666666667, 58.000694444444449 ], [ 56.233541666666667, 58.000972222222224 ], [ 56.233958333333334, 58.000972222222224 ], [ 56.233958333333334, 58.00125 ], [ 56.233541666666667, 58.00125 ], [ 56.233541666666667, 58.001805555555556 ], [ 56.233125, 58.001805555555556 ], [ 56.233125, 58.003472222222229 ], [ 56.232708333333335, 58.003472222222229 ], [ 56.232708333333335, 58.00375 ], [ 56.233125, 58.00375 ], [ 56.233125, 58.004027777777779 ], [ 56.232708333333335, 58.004027777777779 ], [ 56.232708333333335, 58.006805555555559 ], [ 56.233125, 58.006805555555559 ], [ 56.233125, 58.007638888888891 ], [ 56.232708333333335, 58.007638888888891 ], [ 56.232708333333335, 58.007916666666674 ], [ 56.233125, 58.007916666666674 ], [ 56.233125, 58.008194444444449 ], [ 56.232708333333335, 58.008194444444449 ], [ 56.232708333333335, 58.00875 ], [ 56.233125, 58.00875 ], [ 56.233125, 58.009027777777781 ], [ 56.232708333333335, 58.009027777777781 ], [ 56.232708333333335, 58.009861111111114 ], [ 56.233125, 58.009861111111114 ], [ 56.233125, 58.010416666666671 ], [ 56.232708333333335, 58.010416666666671 ], [ 56.232708333333335, 58.010694444444447 ], [ 56.233125, 58.010694444444447 ], [ 56.233125, 58.010972222222229 ], [ 56.232708333333335, 58.010972222222229 ], [ 56.232708333333335, 58.011527777777779 ], [ 56.233125, 58.011527777777779 ], [ 56.233125, 58.014583333333334 ], [ 56.232708333333335, 58.014583333333334 ], [ 56.232708333333335, 58.014861111111117 ], [ 56.233125, 58.014861111111117 ], [ 56.233125, 58.015416666666674 ], [ 56.232708333333335, 58.015416666666674 ], [ 56.232708333333335, 58.015694444444449 ], [ 56.233125, 58.015694444444449 ], [ 56.233125, 58.017083333333339 ], [ 56.233541666666667, 58.017083333333339 ], [ 56.233541666666667, 58.019027777777779 ], [ 56.233958333333334, 58.019027777777779 ], [ 56.233958333333334, 58.021527777777784 ], [ 56.234375, 58.021527777777784 ], [ 56.234375, 58.021805555555559 ], [ 56.234791666666666, 58.021805555555559 ], [ 56.234791666666666, 58.021527777777784 ], [ 56.239791666666669, 58.021527777777784 ], [ 56.239791666666669, 58.021805555555559 ], [ 56.243958333333332, 58.021805555555559 ], [ 56.243958333333332, 58.020694444444452 ], [ 56.244791666666671, 58.020694444444452 ], [ 56.244791666666671, 58.020416666666669 ], [ 56.24604166666667, 58.020416666666669 ], [ 56.24604166666667, 58.020138888888894 ], [ 56.246875, 58.020138888888894 ], [ 56.246875, 58.019861111111112 ], [ 56.247708333333335, 58.019861111111112 ], [ 56.247708333333335, 58.019583333333337 ], [ 56.248541666666668, 58.019583333333337 ], [ 56.248541666666668, 58.019305555555562 ], [ 56.249375, 58.019305555555562 ], [ 56.249375, 58.019027777777779 ], [ 56.248958333333334, 58.019027777777779 ], [ 56.248958333333334, 58.018472222222229 ], [ 56.248541666666668, 58.018472222222229 ], [ 56.248541666666668, 58.017638888888889 ], [ 56.248958333333334, 58.017638888888889 ], [ 56.248958333333334, 58.017916666666672 ] ] ] } },
{ "type": "Feature", "properties": { }, "geometry": { "type": "Polygon", "coordinates": [ [ [ 56.248958333333334, 58.018472222222229 ], [ 56.249375, 58.018472222222229 ], [ 56.249375, 58.018194444444447 ], [ 56.248958333333334, 58.018194444444447 ], [ 56.248958333333334, 58.018472222222229 ] ] ] } }
]
}
